{"type":"FeatureCollection","features":[{"type":"Feature","id":0,"geometry":{"type":"LineString","coordinates":[[16.614544444270734,76.442013889129726],[16.493369443744882,76.469047222051699],[16.304466667202973,76.539311111418726],[15.940263056095205,76.697386416949655],[15.892038888983564,76.718005555711898],[15.422338778212122,76.861418639258829],[15.350766666648383,76.882930555700625],[14.948953666578518,77.037433388939803],[14.896733333176826,77.057205556091617],[14.583699999855185,77.115255555799308],[14.220433333031963,77.209783332934535],[13.93387472234059,77.377470305610188],[13.866002777805988,77.416511111298803],[13.851813888799995,77.483108333382916],[13.756735805712935,77.6610797776097],[13.715547222026714,77.736630555555735],[13.51996388922214,77.889422221758196],[13.550977778002107,78.051127778324371],[13.005482472438189,78.190679833107879],[12.979075000211139,78.197327778154488],[12.103567972284168,78.200978166809023],[12.093111110589348,78.201005555661936],[11.953786111240106,78.203541667214211],[11.845694444243236,78.226488889051041],[11.331744917094284,78.372160806076408],[11.047750000162409,78.45075555622401],[10.755901111347271,78.620230611353691],[10.603761110986511,78.706533332947004],[10.498525000128723,78.778780555678168],[10.490819444262002,78.785463889047321],[10.453980555758108,78.893697221749449],[10.461158332790887,78.896747222106683],[10.939940555712099,79.050686861209726],[11.133369443844799,79.111480555783089],[10.91359536063743,79.285803444173666],[10.839361111026506,79.343411111433682],[10.663877750058191,79.519616193632487],[10.650274999591602,79.533030555915502],[10.644066667442814,79.545791666851983],[10.579609860606638,79.724535000090214],[10.563538889308347,79.768161110746746],[11.260283333109385,79.871799999570385],[11.646419443902289,79.907819443812343],[12.391288889270868,79.84183055643507],[13.394892056123524,79.87062008275069],[13.770594443878508,79.880575000435954],[14.406801582626997,80.021124278362834],[14.47469722159957,80.035825000323541],[14.477913888814953,80.036402777865987],[14.485925000138707,80.037488889100985],[14.497352778008349,80.038225000383534],[14.511111111188882,80.038583332554822],[15.54333080627174,80.053933082645699],[16.239900000084958,80.06248055593295],[17.245084721882449,80.108493639070218],[17.712202778335609,80.128722222052943],[17.785330556060387,80.159386110880348],[18.004466667402824,80.30681666655596],[18.1380833333792,80.34937499955663],[18.873458667383659,80.480071860927694],[19.628986499927066,80.609185667284748],[19.743849999877625,80.628372222000507],[20.220650388604611,80.790089778220761],[20.336933332607259,80.828600000089978],[20.342302778050794,80.829002777656115],[20.350358332970757,80.82899166743158],[20.352261111361258,80.82880277832561],[21.21191219409252,80.714487611214338],[21.30079444380857,80.702388888736266],[22.173032360555055,80.592923832868621],[22.825358333420411,80.507947221886866],[23.820155167027394,80.581183972262579],[24.83009719363065,80.651588666683665],[24.998077777867195,80.662922221683232],[25.00085833324556,80.663080556322655],[25.006499999875132,80.663102777671099],[25.766433361110785,80.534006917285467],[26.19631388927462,80.458663889027321],[26.381687083092459,80.282257972027821],[26.454597222184134,80.21106388868759],[27.47411849986895,80.167564777592474],[27.979013889179669,80.144744443801073],[28.040047221602038,80.13962222198802],[28.218097221609526,80.116977777602415],[28.249644444335672,80.111011111273797],[28.258236111207623,80.10902777790966],[28.291447221811893,80.079947221986743],[27.661543639027798,79.938049111177577],[27.583191667161771,79.920033332572302],[27.16522777843926,79.790705555916702],[26.685619443682413,79.700027778259425],[26.123610861352233,79.552250221870281],[25.780347222146645,79.459416666745824],[25.382669444239525,79.368391667141793],[24.571833972260038,79.270955278363488],[24.001636111217636,79.200097222209081],[23.157244805903133,79.117330082717217],[22.325616110695023,79.03228944360302],[21.809111111388745,78.977661110671761],[21.742611111413737,78.93975555607409],[21.494988888826185,78.833472221565842],[21.795382889308939,78.664206971974238],[21.942122221563352,78.579555555844308],[22.427270333359274,78.428773333022946],[22.900076972274519,78.277202582833013],[23.101294444383143,78.211263889317081],[23.107522221673264,78.208819443862296],[23.170833332692212,78.163808333188058],[23.796558221884482,78.039558528103669],[24.2619888893758,77.944544444370649],[24.980341971704661,77.847644333019616],[25.157352778108248,77.823244444375689],[25.155561110956569,77.810074999861399],[25.147116666700867,77.79258888866633],[25.144822221868083,77.790111110739247],[25.127677778406792,77.785741667344155],[24.452580222199572,77.678488778234566],[23.833805556381378,77.57706111098156],[23.50460577793433,77.412716250154858],[23.264838888803752,77.290041666989396],[23.179899999885151,77.25257222243016],[22.91966111097156,77.154958332660954],[22.544736110683004,77.041355556313931],[21.986219971774347,76.913892806308013],[21.78871111132878,76.867936110663038],[21.665222221728186,76.866116667050619],[21.652236111207628,76.867602777846002],[21.638147222316491,76.870316667380337],[21.521029306357434,77.047508305863687],[21.452424999813957,77.149111110689262],[21.271519443667444,77.287402778215721],[20.86209166709682,77.442469444109634],[20.658455555579451,77.475416666645913],[19.999287694371674,77.584142999599806],[19.934391666742101,77.594661111421203],[19.128168917361677,77.550262222323738],[18.327734083261362,77.503491222042328],[18.226650000197424,77.497391667391582],[17.61213936104275,77.378149666973627],[17.564161110846612,77.368686110975318],[17.418315861188091,77.19244091721464],[17.408538888758756,77.180450000067481],[17.307623306270614,77.002723943954891],[17.288427778119512,76.968363889182172],[17.191212000233691,76.790575167410111],[17.146072221755674,76.706380555618182],[17.044263888567627,76.547669443789857],[16.79382222211791,76.46609444380357],[16.785741666944432,76.464222221678256],[16.614544444270734,76.442013889129726]]},"properties":{"FID":0,"OBJTYPE":"Grunnlinje","NAVN":"Grunnlinje ved Spitsbergen, Nordaustlandet og Edgeøya, Sval"}},{"type":"Feature","id":1,"geometry":{"type":"MultiLineString","coordinates":[[[-8.6991741683531245,70.928790025939009],[-8.6991666671079315,70.928611111213854],[-8.7047222218529896,70.923333332767129],[-8.8000000002997467,70.866111111338796],[-8.8167972218142836,70.859508332943278],[-8.9429611106666584,70.832005555711874],[-8.9936305560053142,70.825288888971102],[-9.0627722218604845,70.827727778414271],[-9.0774611114410959,70.863625000293609],[-9.07739722180429,70.864433333431634],[-9.06871388883485,70.872486111245109],[-9.0625472222764643,70.876308333362942],[-9.0571972219741497,70.878250000237358],[-8.9482999998450623,70.913219443722426],[-8.8772222222277151,70.934166666858232],[-8.8647222222526807,70.942222221778195],[-8.862731060290173,70.936129549639077]],[[-7.9594069501705462,71.111101449972011],[-7.956388889235825,71.109722221803167],[-7.9286111110139359,71.145802777676124],[-7.9460055561114586,71.156972221690751],[-7.9527305559703336,71.159794443558781],[-7.9631361113424077,71.160405556271485],[-7.969005555561921,71.160644444085904],[-8.0651249996190018,71.158930555700636],[-8.0683027783504713,71.158674999851428],[-8.0719944440882614,71.158247222031719],[-8.1624027776659887,71.143563889362042],[-8.2861388890984244,71.122313888775011],[-8.2886500003971264,71.121669443590008],[-8.3063888894356523,71.114166666858239],[-8.3830555560689959,71.085555556144072],[-8.4136111107641227,71.068888889210939],[-8.4194444436061531,71.064722222252783],[-8.4502777781968348,71.040277777597396]],[[-7.9875255597567048,71.023744439654195],[-7.9861611110463855,71.021297221589577],[-7.9901027784204643,71.019083332629748],[-7.9986444438859507,71.016358332870823],[-8.0095333326971172,71.013216667315419],[-8.0471777781319247,71.004988888626372],[-8.1769444437310312,70.991111111088969],[-8.3844444438559549,70.966666667332902],[-8.3842767796496105,70.968119719949186]]]},"properties":{"FID":1,"OBJTYPE":"Grunnlinje","NAVN":"Grunnlinje ved Jan Mayen"}},{"type":"Feature","id":2,"geometry":{"type":"LineString","coordinates":[[27.065486110695531,78.712238889213438],[26.97789166676705,78.671983333264279],[26.941480556082865,78.661180556337683],[26.748069443949703,78.638922222382689],[26.742566666818277,78.638441666949404],[26.738627778349326,78.638397221554612],[26.734802778225685,78.638797222014261],[26.631247222381432,78.668380555618228],[26.487869444419402,78.71981388870006],[26.369738889138489,78.786433333031937],[26.360813889449503,78.796797221914289],[26.359886111055232,78.805691667136784],[26.365777778421773,78.80890277834061],[26.373391667291685,78.810747222206601],[26.511877778136977,78.837702778160747],[26.520016666935703,78.838258332556052],[26.524913889164679,78.838547221776935],[27.440988222128794,78.865004806027059],[27.829319444037139,78.875347221796915],[28.369288888671349,78.965911111108937],[28.390883333199326,78.967549999632809],[29.317493860653201,78.994076305577096],[30.248289500160354,79.017780610886518],[30.370119443657472,79.020666666633417],[30.409788888946139,79.01345833333545],[30.41150277823067,79.013038888633844],[30.419577778291909,79.005647222241578],[30.418911110859142,79.00480277772607],[30.247269444129586,78.968905555846789],[29.636049999907641,78.892850000127453],[28.945400222042679,78.773734417409514],[28.663872221925544,78.723991666782069],[28.065255555799297,78.802094443703652],[27.229948250311566,78.727348139005471],[27.065486110695531,78.712238889213438]]},"properties":{"FID":2,"OBJTYPE":"Grunnlinje","NAVN":"Grunnlinje ved Kong Karls Land, Svalbard"}},{"type":"Feature","id":3,"geometry":{"type":"LineString","coordinates":[[31.473497222219066,80.117725000008818],[31.494336111222594,80.144544443571249],[31.561702777960875,80.168711111028983],[31.636188889006064,80.184447221562095],[31.880491667156775,80.216586110960293],[31.909500000324783,80.219583332804632],[32.082202778035821,80.256483332939524],[32.309069443699912,80.282411111283807],[32.856983332914524,80.316666666633409],[33.128049999907603,80.298830556385099],[33.448991667331654,80.241511111048965],[33.516316666680893,80.229244443776111],[33.482469444009666,80.185502778330601],[33.458702777910901,80.174111110939066],[33.384836110897879,80.142624999843918],[33.380244444125822,80.141358332620996],[32.40197461093959,80.079380083424155],[31.666680555863024,80.030400000159943],[31.512519444316979,80.054730555570757],[31.424058332725906,80.080802777626161],[31.422308332963269,80.083988888576414],[31.423950000392267,80.091869444419387],[31.436980556307674,80.109502778230706],[31.457536111202614,80.116427778319348],[31.473497222219066,80.117725000008818]]},"properties":{"FID":3,"OBJTYPE":"Grunnlinje","NAVN":"Grunnlinje ved Kvitøya, Svalbard"}},{"type":"Feature","id":4,"geometry":{"type":"LineString","coordinates":[[30.817652777753551,69.794838888803724],[30.904498110699308,69.97160400042435],[30.99282461086716,70.148322444425332],[31.064319443687452,70.2891555555845],[31.168594443678671,70.386844444315727],[31.168466667103075,70.387597221834369],[31.163688889230912,70.390650000197411],[31.147347221996768,70.398155555834308],[30.749468471692694,70.518139916923701],[30.346872222375225,70.637242972085573],[30.213441666599692,70.676213888760003],[30.095330555560736,70.706933333206791],[29.61483488941866,70.790589222314793],[29.242822222167888,70.854025000053753],[28.800373360842002,70.959647805901568],[28.353199917442282,71.064203693845457],[28.197374999856436,71.100127777574926],[28.179480555982934,71.101455556428846],[27.657661111071491,71.134044444095878],[27.105830361382118,71.150563639300572],[26.553113417050611,71.165453971623549],[25.999600417125578,71.178711555993573],[25.675222221628303,71.185713888785017],[25.1334180278198,71.147041888772208],[24.719225000033759,71.116313889074775],[24.167119332990865,71.104595111275444],[24.060824999773956,71.102150000322297],[23.976247221931771,71.097669443889799],[23.967925000038747,71.096313888575139],[23.498504528061574,71.002195139294315],[23.033566722326441,70.906902056185004],[22.805766667397847,70.8594472222116],[22.354217693991416,70.759100833236914],[21.979733332727164,70.674261110761734],[21.471116166577872,70.613642027657534],[20.965581278353341,70.551616305947789],[20.463168860554504,70.488197305960966],[19.963916943712036,70.423398556198492],[19.911438888893656,70.416483332639757],[19.415886611178223,70.350038027632934],[19.079394444298202,70.30389444387356],[18.642633332662228,70.224430555625702],[18.382452778273148,70.101575000086257],[18.081242555799349,69.954818417036392],[17.931613888869947,69.880949999942573],[17.67855752810749,69.724442416884074],[17.481944443681186,69.600969444384418],[17.039312582909417,69.510423500144498],[16.944988888926105,69.490883332899557],[16.483551889408204,69.414271056364214],[16.038716667140534,69.338727777864733],[15.633984860712815,69.230959582618709],[15.233261777808821,69.122250638955904],[15.158649999997579,69.101786110740477],[14.832523027815512,68.965753139096137],[14.510403916707446,68.82910319385735],[14.314886111205112,68.745030556215227],[14.212277777997087,68.656224999783944],[13.958602388689314,68.502761999566701],[13.708355082820844,68.348918056423202],[13.672449999967569,68.326641666779551],[13.280861528037121,68.221278666976957],[13.151822222417707,68.186141667204254],[13.060475000221118,68.144475000321052],[12.839960833425778,67.985242388725339],[12.779102777970877,67.940855555939208],[12.636524082720314,67.769797221864337],[12.58148333328927,67.703052778063295],[12.20664377758834,67.594434471673594],[12.016888888911126,67.538733332977017],[11.975602778245673,67.524877777687323],[11.861274999941315,67.484644443985985],[11.821841667159276,67.430783332584781],[11.821694443643707,67.430513889404551],[11.843044444345651,67.401511111348782],[12.005045610766388,67.233437471562127],[12.164798917236283,67.065198943776295],[12.322351499921808,66.896799028152657],[12.437877777737299,66.771724999808953],[12.134952833206739,66.638372139162925],[12.029836110947826,66.591622221688226],[11.857286083086308,66.426016971805836],[11.687005805573506,66.260219999953108],[11.54997777815197,66.125058332875824],[11.444467555733183,65.950904639337693],[11.340383639193647,65.776675582612086],[11.260530555840546,65.641341666584708],[11.098681999874429,65.474972110774331],[11.021169444414397,65.394475000420982],[10.848196806237695,65.230327778204469],[10.67735763874407,65.065980527879105],[10.521583333204319,64.914163888652581],[10.456816666755799,64.831750000162458],[10.439513888655085,64.780922221983019],[10.157328166661614,64.648188806268422],[9.8778906109629929,64.51491980560462],[9.6011689439916381,64.381123500049569],[9.3271311939494694,64.246808056346765],[9.263230555745622,64.215225000133728],[8.9496026941091031,64.099258111172958],[8.6385826667566903,63.982619556347515],[8.4624250004134751,63.915824999624078],[8.4530194443918845,63.911397221704476],[8.2087538064430419,63.768006694053724],[7.9669570827032317,63.624203999914698],[7.8228805557930627,63.537625000293588],[7.7292888892708902,63.469622222387727],[7.4919278610819902,63.325175610965744],[7.2569371670167016,63.180334972381104],[7.1561611107467229,63.117652777953367],[6.8373460557759245,63.011438361191495],[6.5208481391303508,62.904509138985645],[6.2595944444281031,62.815113888994858],[5.9838463331417984,62.687778277945199],[5.9812694436299694,62.686580556347678],[5.7124661669800503,62.556671638685259],[5.4460011941998232,62.426248250356537],[5.2636500003472975,62.336038889083511],[5.054933332607277,62.18699444423828],[4.8986055564013782,62.029305555806786],[4.8165138887050603,61.937111111088939],[4.6709826939961658,61.771339167368751],[4.5664888889510848,61.651102777571168],[4.5453431665539483,61.471915028156104],[4.5244390281386586,61.292719278372033],[4.5037719168405488,61.113515583077742],[4.4991722218206291,61.073352777808509],[4.4998250001236784,61.034286111215124],[4.5004444441558462,61.028552777588686],[4.5959636393105257,60.855184027620851],[4.6904532222384887,60.681743667336434],[4.7839310282943757,60.508232861357499],[4.8764145555873029,60.334652750024475],[4.88779444365872,60.313161110596809],[4.9416482777458555,60.135663943636132],[4.9949250276679322,59.958140306030373],[5.0418888893607914,59.800038888683844],[5.0727111110289798,59.642991667431545],[4.9615766940092954,59.472557389112296],[4.854877778286891,59.307199999580348],[4.8441500003223155,59.284541666964401],[4.8471583332905084,59.271761110886587],[4.8487305559704055,59.270502777681088],[5.126090611192808,59.160910277987],[5.1749305558005858,59.14147777757745],[5.3643916674415664,59.008044443796109],[5.4221277776748593,58.877238888563909],[5.4839527778984234,58.750316667080597],[5.5383500003522954,58.668944444430622],[5.5489999995504036,58.657280555853049],[5.659888889061051,58.553597221634504],[5.7016777783068733,58.526188889405773],[5.8627111114287231,58.429497222019222],[5.8736638889773189,58.423549999932618],[6.1293934440522548,58.304460222361399],[6.3834067500215497,58.18486044375453],[6.5952361107579804,58.084113888844968],[6.626888888711278,58.069683333119372],[6.6616888891309713,58.05862222233776],[6.6706555562089989,58.056638888973623],[6.9836881107177646,57.988383971742962],[7.0041388891984298,57.98388888856141],[7.202491667156778,57.961658332865795],[7.5402945275704383,57.95875397231805],[7.5645277781345044,57.958511111298776],[7.6144388890435266,57.961444444405629],[7.6457027776610857,57.966619443832315],[7.6851583326909463,57.975066666993143],[7.9972713331055729,58.044355889113035],[8.0171722220204629,58.048738888888693],[8.192008332818375,58.0927944438086],[8.2512083333979263,58.10784444356625],[8.4769888887262823,58.217641666729605],[8.6582444439259802,58.307527778384326],[8.8837641940623371,58.442456360972358],[9.1110142218288956,58.576982471763699],[9.340011750142196,58.711100917173667],[9.5503305556106852,58.833019443892283],[9.8587535828116302,58.915035528067222],[9.9358055558817568,58.935349999902655],[10.154936111212635,58.96532222194304],[10.230955555554488,58.976852777933402],[10.577433471577478,58.962010805754119],[10.88458611106023,58.948066667242927],[10.917908332903266,58.94227222198549]]},"properties":{"FID":4,"OBJTYPE":"Grunnlinje","NAVN":"Norges grunnlinje"}},{"type":"Feature","id":5,"geometry":{"type":"LineString","coordinates":[[24.988083333179361,76.451361110626806],[24.934774999966351,76.443219443822329],[24.932630555755622,76.443258333205563],[24.925872221625752,76.443702778160741],[24.904933333406689,76.447141666954451],[24.895374999656553,76.448927778094514],[24.892727777764776,76.450152777928395],[24.893388889185928,76.452577778241903],[24.897005555961698,76.458744443901026],[24.93901666678579,76.502094443803571],[24.984036110578074,76.525197222274073],[25.036211110954071,76.550858332745918],[25.389838889053522,76.691341666984385],[25.434938888718818,76.705513888854966],[25.437147221666976,76.705961110916576],[25.461272221735669,76.710080556272715],[25.490602778395555,76.71488888861137],[25.494716666840759,76.715141667354146],[25.49750555623649,76.714013888730051],[25.498913889164726,76.712311110569374],[25.499702778060794,76.70812222226283],[25.497827777929672,76.706311110869137],[25.170731638754148,76.543927528432732],[24.988083333179361,76.451361110626806]]},"properties":{"FID":5,"OBJTYPE":"Grunnlinje","NAVN":"Grunnlinje ved Hopen, Svalbard"}},{"type":"Feature","id":6,"geometry":{"type":"LineString","coordinates":[[19.269666667083072,74.465872221725704],[19.271336110972811,74.458741667194261],[19.268383332724682,74.449908332703444],[19.256369444194547,74.433677777607386],[19.180263888867444,74.35849166665713],[19.103536110603045,74.341869444219526],[19.054872221775668,74.334547221676985],[19.05258055584801,74.335072221605799],[18.813166666808286,74.427022221598293],[18.739197221674488,74.469541667014369],[18.759333332767142,74.480805556031669],[18.785049999757746,74.492900000434702],[18.802244443726124,74.496152778128248],[18.836247222131647,74.499975000246138],[18.919836110847882,74.508825000073728],[19.086583333354213,74.515488889200924],[19.110005556411352,74.514038888883647],[19.120377778411807,74.513061110881608],[19.150633332762141,74.508277777897206],[19.159233332752137,74.505866666713359],[19.269511111348777,74.466036110578102],[19.269666667083072,74.465872221725704]]},"properties":{"FID":6,"OBJTYPE":"Grunnlinje","NAVN":"Grunnlinje ved Bjørnøya, Svalbard"}}]}