{"type":"FeatureCollection","features":[{"type":"Feature","id":0,"geometry":{"type":"LineString","coordinates":[[10.866264805776211,58.933078360977618],[10.53188122174106,58.947330388686566],[10.23430375041778,58.960034639087382],[10.164021361097014,58.949372832690131],[10.163118693572926,58.949242972385321],[9.9473649441368934,58.919736638734946],[9.6386899718647783,58.837931861066579],[9.5702502502488755,58.819641361159938],[9.3396563056940067,58.685934471598614],[9.110824444192815,58.551815000062277],[8.8837373609904944,58.41728816711526],[8.68201058302202,58.29657588936584],[8.6798548613128332,58.295401471900448],[8.4986064170525424,58.205545832873952],[8.4982791942294966,58.205385277808375],[8.2725105827972243,58.095625527596098],[8.2698990280177895,58.094481389404677],[8.2670699722015115,58.093492888785818],[8.2647881673401002,58.092851250384967],[8.2056072782533533,58.077807527895175],[8.2054514437292028,58.077768139388183],[8.0306721107293697,58.033730972006822],[8.0291930560147762,58.033381389339695],[7.7171135562456925,57.964170360573746],[7.6972963888173354,57.95974049982425],[7.6968415279142164,57.959640999732414],[7.6574001668842584,57.951197389148263],[7.6549964724093229,57.950741943685784],[7.6237450555898931,57.945569222241886],[7.6204729442710004,57.945128556237933],[7.6178641935777023,57.944916221806238],[7.5679757779598162,57.941984222394012],[7.5646060281457039,57.941882917362818],[7.563932721917638,57.941885888722823],[7.2262900280624081,57.944853250377264],[7.2020640278326482,57.945031638999012],[7.1986963329694618,57.945152971932146],[7.1959924717751846,57.945393000086938],[6.9977255556898967,57.96761355622067],[6.9944617783884269,57.968075472305259],[6.9921689442414277,57.968524805975051],[6.6793259722159064,58.036801028144964],[6.6588044998278519,58.041243777978025],[6.6585785280766459,58.041293221804779],[6.6496150284108921,58.043275722396743],[6.6465659165838247,58.044054860843232],[6.6455532781612874,58.044363472196551],[6.6107621666407113,58.055420194286569],[6.6079557503576325,58.056424278357838],[6.6064217776429928,58.057080610781611],[6.5747718892113767,58.071506111417989],[6.5742163330173753,58.071765250166209],[6.3216506108870476,58.191747221756941],[6.0673802220196649,58.311223805834004],[5.85269561091377,58.411083499703807],[5.850874749969762,58.411996556196186],[5.839921693631311,58.417941833049213],[5.8388055828114602,58.418579944309045],[5.6777566113785838,58.515241749707059],[5.676823555762553,58.515826111186129],[5.6350276113352606,58.543226389086669],[5.633033806265189,58.544687333253876],[5.6321046671966997,58.545502806109653],[5.5211591392828723,58.649162305596008],[5.5201928887908593,58.650135944018643],[5.5095354719845204,58.6617974718759],[5.5082241390328477,58.663456944082782],[5.5082053063298986,58.663485082970283],[5.4537462222104409,58.744844638669178],[5.4529364717408271,58.746247110715615],[5.3910052498924301,58.87315452755945],[5.3908238890113012,58.873544416941343],[5.334452944248028,59.001007861223854],[5.1515289173257202,59.129764639426639],[4.87450302769264,59.239412249575707],[4.8289666670780775,59.257312083086219],[4.8263050002755676,59.258479305975243],[4.8239043607976555,59.259786610863443],[4.821792667197883,59.261218721866555],[4.8213770832858245,59.261542750297735],[4.8198042778452077,59.262800777733787],[4.818076666704826,59.264362082644027],[4.8166876386236481,59.266009638833793],[4.8156534443510282,59.267724222394975],[4.814986167177949,59.269485861183625],[4.8149144165670918,59.269769194392836],[4.8118941666825208,59.282549028315032],[4.8116615003779657,59.284339528146745],[4.8118073326423314,59.286132443557506],[4.8123300276087093,59.287906860813052],[4.812567582627878,59.288449527923433],[4.8232755827020242,59.311110444291614],[4.8239821107858347,59.312381222315594],[4.9338973609744698,59.482936499919617],[5.0393447216816298,59.644868971625783],[5.0091411391522911,59.797987194253665],[4.9561978326639178,59.975520971715525],[4.9026844171521589,60.153028444007532],[4.8549351937042502,60.309793750281415],[4.7624077498178394,60.483359583078368],[4.6688863329379728,60.656855972025539],[4.5743534719352397,60.830281777681932],[4.478791361132437,61.003635832727525],[4.4673644439139935,61.024234222331529],[4.4665968887354666,61.025989138687862],[4.4662334169386781,61.027678639257829],[4.4656078062553206,61.033411805610399],[4.4655611674139664,61.034147221716978],[4.4648661938198302,61.073213721935758],[4.4649164722174532,61.074267971989343],[4.4853368059488616,61.253478638828199],[4.5059906666360234,61.432681416813978],[4.5268824438697379,61.611876305946794],[4.531597638820017,61.652034916778064],[4.5320111938615355,61.653817917163224],[4.532826528221733,61.65556933335813],[4.5340342224014876,61.65726874985296],[4.5341663058304107,61.657423749806242],[4.6784207222385703,61.823343444044781],[4.783941249988743,61.943490833335318],[4.7839652780751862,61.943518027934715],[4.865975778359541,62.035731778398883],[4.8664935000750233,62.036283667157591],[5.0226901668177675,62.194008721825128],[5.0244955558252968,62.195591749859432],[5.0251129170275703,62.196051861004662],[5.2337448326579761,62.345140971578644],[5.2360290279173682,62.346586611083296],[5.2375453325511216,62.347390721904333],[5.5023989720349959,62.478214000076093],[5.7695758886164299,62.608528083004671],[5.9551324721858805,62.698065916908604],[5.9555430558673947,62.698259999599372],[6.2312671939259303,62.825650944135816],[6.2338663614434608,62.82684402792961],[6.2367804166829046,62.828044361158391],[6.2377519443967913,62.828390750332915],[6.5523961667497588,62.935956027948407],[6.8693500558604228,63.042813583180362],[7.1298437218103459,63.129525277769403],[7.363784778444824,63.274577221961295],[7.6000835283322203,63.41923824974549],[7.6984606673260032,63.478922305919752],[7.7911663325602376,63.546333805660652],[7.7929346110435063,63.547501861321905],[8.033196138990661,63.691598806439799],[8.2759074435737148,63.835288082578984],[8.4228981938965717,63.921404777608473],[8.425451166837945,63.922742028122173],[8.4348561670785216,63.927171583102108],[8.4377323887388229,63.928389805645054],[8.7473108064485814,64.045459722088538],[9.0594881938251319,64.161863277768134],[9.2364613060444754,64.227126166739254],[9.5098617497200166,64.361611999594174],[9.7859406667284361,64.495580917425457],[10.064730082827111,64.629024805650317],[10.346262278281586,64.761935360828318],[10.402683528422131,64.788351194052439],[10.418205833232662,64.83413233304077],[10.419032639344891,64.835890443789026],[10.419801306085446,64.837001278286436],[10.484467056009862,64.919431222373078],[10.48566236112913,64.92075813877716],[10.654388333155111,65.085327139436004],[10.825209805588088,65.24970013915015],[10.984430388751491,65.4009167776872],[11.14509024961535,65.567409972292467],[11.222125667065939,65.646434138824475],[11.324883527852592,65.820746527630206],[11.429041194195804,65.994985082995242],[11.51017994384938,66.129039138745327],[11.51146963911259,66.130754028076012],[11.512021610608883,66.131333222050614],[11.680278667126856,66.297324639020928],[11.850767000097051,66.463128056314815],[11.991289944075731,66.598014416632054],[11.993246167376753,66.5996295001014],[11.995629138773779,66.601151278009127],[11.998411082705331,66.602562056194017],[11.99865797178802,66.602673222291457],[12.300408639147406,66.736289444002693],[12.389703193847367,66.775443193748458],[12.233398221750576,66.943912944426927],[12.074921555985043,67.112223083428603],[11.914226944417976,67.280370167249487],[11.802613027769041,67.395695139019494],[11.801510750320915,67.396986889233631],[11.78011430593051,67.425984167035722],[11.779084360954528,67.427732360959737],[11.778550667279546,67.429512971846236],[11.778519583112313,67.431305333274565],[11.778991556315304,67.433088555792267],[11.77938705566811,67.43391974969677],[11.779533806140307,67.434189221655288],[11.780217500437345,67.435264389040356],[11.819563944320635,67.489135610619996],[11.821068666585745,67.490832722152447],[11.82304219374231,67.492457750324945],[11.825461611064554,67.493991777898259],[11.828298749987368,67.49541691735692],[11.831520610787607,67.496716499766706],[11.831918861166571,67.496858889426278],[11.94625574960321,67.53711286076998],[11.946958971779168,67.537354443852564],[11.988250082675222,67.551217278254853],[11.99036408303607,67.551882416840101],[12.36353219385569,67.661000582610882],[12.543909111416383,67.713079443661456],[12.685461638843606,67.884219777920464],[12.73697291706651,67.945849860882447],[12.738649221884145,67.947527778184451],[12.73980975021982,67.94844516671111],[12.959280694448523,68.10781263884229],[13.020927416667007,68.152131555726783],[13.023372139112951,68.153675250112769],[13.025915500100325,68.154960694280646],[13.117241750106757,68.196646333261754],[13.120487889004949,68.197971388968483],[13.124099694045697,68.199158583102189],[13.125385027597019,68.199523250097968],[13.515884389053383,68.305253167000103],[13.638598694374309,68.338089250418648],[13.888251971950979,68.492038028432319],[14.14132527773944,68.645607556043956],[14.171541555998033,68.663778444319803],[14.272701193805119,68.751468249660036],[14.274858472240737,68.753080500264957],[14.277482611233552,68.754599000143799],[14.279823193985237,68.755702194001117],[14.599452361137594,68.892790360886522],[14.923055805980709,69.029269416950115],[15.123430305764032,69.112631028099543],[15.126910361024386,69.113923083183806],[15.130271139201739,69.114940916989781],[15.530346833439637,69.223890028202277],[15.934432000336585,69.331901332680388],[16.010565000274596,69.35202630566954],[16.014789944200629,69.353020305642644],[16.018145194245392,69.353657111086875],[16.476625527745966,69.431504166684022],[16.922825527875887,69.50557702755782],[17.364864777687387,69.596418389197368],[17.446629138923697,69.613015055600385],[17.696634194412582,69.769857693677693],[17.889547416679989,69.889071806119034],[17.891983055973299,69.89041294440193],[18.190929889003201,70.037491332758862],[18.342607250224489,70.111138250429974],[18.342807971710556,70.111234556129943],[18.602874472279098,70.234147555865093],[18.606199556364459,70.235541916925968],[18.609949832718655,70.236806806189236],[18.61408155561935,70.237927444196259],[18.618546611337081,70.238890778186942],[18.619221778262499,70.239017277725225],[19.056203305638121,70.318537528284367],[19.060700306174226,70.319251332782812],[19.554354527839223,70.386670417405867],[19.893269861315105,70.431924833364405],[19.893307861268852,70.431929860574655],[20.392546278388068,70.4969226390686],[20.894956055777413,70.560536361164168],[21.400499472272884,70.622757500158571],[21.9091364720706,70.683572611187117],[21.956710833138516,70.689170056353078],[22.404684333215471,70.790492388712835],[22.777584944289799,70.873234110665749],[22.778530249571418,70.873437056175248],[23.241456333043402,70.969370861276275],[23.70886755589305,71.064138832940841],[23.941192943599503,71.110472110699391],[23.944919583072362,71.111143806241728],[23.953246528204772,71.112500360703166],[23.958314888721191,71.113217582625396],[23.963592667167916,71.113753528202835],[23.967946778021428,71.114048666812607],[24.052593306336064,71.118532943740433],[24.05715125032998,71.118705860886848],[24.609592333019805,71.130748917128869],[24.711796777998984,71.132796611374545],[25.252375999852575,71.172688416737117],[25.664342056240969,71.201937000192459],[25.669827999862378,71.202220861303772],[25.675376971570017,71.202312250410102],[25.678519416837673,71.202278221862514],[26.232923888626601,71.189967693754113],[26.786583556286132,71.176021000269031],[27.339407528035053,71.160441778265522],[27.662625277934296,71.150565139369746],[27.667164944106958,71.150355860834338],[28.18940225001387,71.117739917063602],[28.190910193650552,71.117635806147575],[28.208818639068966,71.116306943610596],[28.214135860881299,71.115812805716473],[28.219257332659822,71.115135805972727],[28.224123278266745,71.114283833232378],[28.227002888572486,71.113668305747751],[28.675968694299854,71.009414305825601],[29.120191417100273,70.904087360743176],[29.269557082693268,70.86817847195897],[29.753366777554788,70.785422416611311],[30.118951972155855,70.721581943951605],[30.123592139365769,70.720654750116694],[30.126336166980593,70.719991138580212],[30.244476556348047,70.689251777747415],[30.246559638916267,70.688677360971496],[30.650772306296972,70.569794556073987],[31.050243916923307,70.45002552775594],[31.180580360595229,70.410449443786831],[31.184334528315901,70.409175222258739],[31.187275693618403,70.407950278182852],[31.203610527803676,70.400441110868655],[31.206519832824085,70.398938943577434],[31.207453110572658,70.398369305798894],[31.212226167004076,70.395315388894119],[31.214446693859884,70.393686139303952],[31.216131027824702,70.391985999754127],[31.217259694079644,70.390234777812793],[31.217806471991139,70.388535499813543],[31.217932443627433,70.387782694415876],[31.217943889299079,70.385990916647529],[31.21738047213114,70.384209167219353],[31.216248860596465,70.38245819439021],[31.215070499603939,70.381210278031972],[31.112047694045884,70.284905417151322],[31.02212388910624,70.108248638763712],[30.933719166806156,69.931543888739554],[30.889075806003689,69.84114438920227]]},"properties":{"FID":0,"OBJTYPE":"GrenseSjø","NAVN":"1 nautisk mil"}}]}