{"type":"FeatureCollection","features":[{"type":"Feature","id":0,"geometry":{"type":"MultiLineString","coordinates":[[[34.278533670092827,83.742582139953868],[34.007042139083524,83.877738332857859],[33.637216721974198,84.052547527846173],[33.245094861238897,84.227094750322522],[32.828629443594025,84.401355638551934],[32.38552041693373,84.575302721843173],[32.18640144357181,84.64990588864589],[32.064266666773278,84.69463055625522]],[[36.476220919659738,73.384417859696498],[36.488246750287374,73.391486693755951],[36.765108638652805,73.55243702844615],[36.999999999900126,73.686347222346512],[36.999999999900126,73.865549222418736],[36.999999999900126,74.044748193574321],[36.999999999900126,74.223944194269222],[36.999999999900126,74.403137221805423],[36.999999999900126,74.582327305860531],[36.999999999900126,74.761514500393957],[36.999999999900126,74.937705555866785]]]},"properties":{"FID":0,"OBJTYPE":"GrenseSjø","NAVN":"Avtalt avgrensningslinje for kontinentalsokkel Norge-Russlan"}},{"type":"Feature","id":1,"geometry":{"type":"LineString","coordinates":[[-6.6373233606844906,67.611380361014881],[-6.1703231936604084,67.62875383302304],[-5.7013814442981925,67.644896222182979],[-5.2318243059469296,67.659685360990693],[-4.761704556220252,67.673118582956306],[-4.2910754169968754,67.685193443722483],[-3.8199904168242256,67.695907749842831],[-3.3485034439787,67.705259500325724],[-2.8766686943047262,67.713246999949149],[-2.5125333327470685,67.718475000021272],[-2.3537981667519716,67.54965197226079],[-2.1973097221659259,67.380672250224222],[-2.0430198888567475,67.211539193778833],[-1.8908818885882397,67.04225608275209],[-1.7408502219601019,66.872826110636538],[-1.6954333326821143,66.821041666939436],[-1.4786754721952207,66.663489056374885],[-1.2646629721184013,66.505638471638235],[-1.0533457222272773,66.347495778107714],[-0.8446747220607449,66.189066693673055],[-0.63860199998225653,66.030356805822009],[-0.48700833326790871,65.912149999722772],[-0.48722302841997589,65.732785610867325],[-0.48743477829231097,65.553416971815864],[-0.48764361076399609,65.37404405558874],[-0.48784963914948776,65.194666861286692],[-0.48805288862985208,65.015285333151667],[-0.48825344374137103,64.835899444204017],[-0.48845133326238965,64.656509222322825],[-0.48864661115214858,64.477114582971694],[-0.48869494701415306,64.432816143650143]]},"properties":{"FID":1,"OBJTYPE":"GrenseSjø","NAVN":"Avtalt avgrensningslinje for kontinentalsokkel for Norge, Is"}}]}