{"type":"FeatureCollection","features":[{"type":"Feature","id":0,"geometry":{"type":"LineString","coordinates":[[-6.6373233610000009,67.611380360336426],[-6.6299564170000016,67.601124166336191],[-6.6156289720000006,67.584045360335793],[-6.6015635830000017,67.566936082335388],[-6.5877601390000002,67.549796860334993],[-6.5742905000000009,67.532720443334583],[-5.8928586389999991,66.626481332313801],[-5.8804975280000003,66.609232193313403],[-5.8683876939999999,66.59195580531302],[-5.8565290560000003,66.574652749312634],[-5.8449214170000001,66.557323610312238],[-5.8335646670000001,66.539968916311864],[-5.8224586390000015,66.522589249311466],[-5.811603111000001,66.50518516631108],[-5.8009979720000002,66.487757193310699],[-5.7906430000000011,66.470305888310293],[-5.780538,66.452831860309885],[-5.7706827780000012,66.435335610309508],[-5.7610771109999996,66.417817693309118],[-5.7517207779999993,66.400278693308707],[-5.7426135279999997,66.38271916630832],[-5.733755167,66.365139638307937],[-5.7251454170000002,66.347540666307523],[-5.7167840279999993,66.329922832307133],[-5.7086707500000013,66.312286638306759],[-5.7008053060000012,66.294632693306355],[-5.6931874170000007,66.276961499305955],[-5.6858168060000009,66.259273638305572],[-5.6786931669999996,66.241569610305177],[-5.6718161940000007,66.223850027304778],[-5.6651856110000001,66.206115416304385],[-5.6588010830000002,66.188366305304001],[-5.6526622780000002,66.170603221303622],[-5.6467688609999991,66.152826777303204],[-5.6411205280000001,66.135037471302795],[-5.6357169170000008,66.117235832302427],[-5.6305576940000002,66.099422443302018],[-5.6256424720000009,66.08159783230164],[-5.6209708890000005,66.063762527301236],[-5.6165426110000007,66.045917082300846],[-5.6123571940000003,66.028062055300452],[-5.6084143330000007,66.010197943300042],[-5.6047135830000014,65.992325305299644],[-5.6012545560000007,65.974444666299263],[-5.5980368610000006,65.956556582298873],[-5.5950600829999999,65.938661582298479],[-5.5923238060000005,65.920760221298096],[-5.5898276109999996,65.902852971297705],[-5.5875710279999993,65.884940443297296],[-5.5855536939999997,65.867023110296913],[-5.5837751110000013,65.849101499296509],[-5.5822348610000008,65.83117619329613],[-5.5809324719999998,65.813247666295737],[-5.5798675000000006,65.795316499295325],[-5.5790394999999995,65.777383166294939],[-5.5784479720000002,65.759448221294562],[-5.5780924170000006,65.741512166294171],[-5.5779724170000007,65.723575555293763],[-5.5780874439999995,65.705638916293395],[-5.578415111,65.689686443293027]]},"properties":{"FID":0,"OBJTYPE":"GrenseSjø","NAVN":"Yttergrense for islandsk økonomisk sone 200 nautiske mil","KOORDH":0,"GYLDIG_FRA":0,"LANDKODE":"IS","LANDKODE1":" ","LANDKODE2":" ","LANDKODE3":" ","SONENAUT":0,"INFORMASJ":"En del av ytre begrensningslinje for Islands økonomiske sone, beregnet 200 nm fra Islands grunnlinje","INFORMASJ1":" ","INFORMASJ2":" ","LOVREF":" ","LOVREF1":" ","LOVREF2":" ","OPPDATDATO":"31.01.2012","OPPHAV":" ","MALEMETODE":69,"NOYAKTIGHE":1000,"SYNBARHET":0,"H_MALEMETO":0,"H_NOYAKTIG":0,"MAX_AVVIK":0,"KYSTREF":" ","OBJTYPE1":" ","STATUS":"V","STATUS1":" ","GR_TYPE":12,"KYSTTYP":0,"LINK":" ","LINK1":" ","LINK2":" ","DATFGSTDAT":" "}},{"type":"Feature","id":1,"geometry":{"type":"LineString","coordinates":[[-5.578415111,65.689686443293027],[-5.5614722500000005,65.688644193293015],[-5.5184041669999999,65.686076527292954],[-5.475379083,65.6834009992929],[-5.4323987780000005,65.68061774929285],[-5.3894649999999995,65.677726860292765],[-5.3465794720000011,65.674728443292707],[-5.3037439720000004,65.671622666292649],[-5.2609601939999999,65.668409638292573],[-5.2182299170000004,65.665089499292506],[-5.1755548330000005,65.661662360292411],[-5.1329366940000005,65.658128388292326],[-5.0903772219999999,65.654487749292272],[-5.0478781389999998,65.650740527292172],[-5.0054411390000011,65.646886943292103],[-4.9630679440000005,65.642927138292009],[-4.9207602500000007,65.638861277291923],[-4.8785197780000003,65.634689499291838],[-4.8363481670000015,65.630411999291738],[-4.794247167,65.626028971291646],[-4.752218416999999,65.62154058229153],[-4.7102636110000002,65.616946999291471],[-4.6683844169999995,65.612248416291351],[-4.6265824999999996,65.607445055291251],[-4.5848595000000003,65.602537110291138],[-4.5432171109999997,65.59752474929104],[-4.5016569439999996,65.59240822129091],[-4.4601806389999989,65.587187693290801],[-4.4187898330000008,65.581863416290687],[-4.3774861670000007,65.576435582290571],[-4.3362712779999999,65.570904443290459],[-4.2951467220000001,65.565270193290345],[-4.2541141669999991,65.559533082290201],[-4.2131751389999996,65.553693360290083],[-4.1723313060000002,65.547751221289943],[-4.1315842219999999,65.54170694328981],[-4.0909354440000003,65.535560777289689],[-4.0503865829999999,65.529312971289556],[-4.0107656669999994,65.523094666289424],[-3.7242689999999996,65.477381555288417],[-3.6840620000000004,65.470859305288286],[-3.6439604439999997,65.464236416288145],[-3.6039658610000003,65.457513110287991],[-3.5640798060000001,65.450689693287856],[-3.5243037500000001,65.443766416287716],[-3.4846392500000007,65.436743582287562],[-3.4450877500000003,65.429621499287407],[-3.405650778,65.422400388287244],[-3.3663298060000004,65.415080610287092],[-3.3271262780000006,65.407662388286937],[-3.2880416940000003,65.400146110286769],[-3.2490774999999998,65.392531999286604],[-3.2102351670000004,65.384820416286416],[-3.1715160559999998,65.377011638286262],[-3.1329216940000002,65.369105971286103],[-3.094453417,65.361103777285933],[-3.0561126670000003,65.353005332285747],[-3.0179008609999998,65.344810999285585],[-2.9798193889999998,65.336521082285401],[-2.9418696109999991,65.328135943285233],[-2.9040529169999996,65.319655860285039],[-2.866370667,65.311081221284851],[-2.8415316940000004,65.305360360284723],[-2.7928910280000001,65.294091416284488],[-2.7554666940000003,65.285348721284308],[-2.7181804720000002,65.276512388284104],[-2.6810336940000004,65.267582805283922],[-2.644027694,65.258560332283722],[-2.6071637780000008,65.24944530528353],[-2.5704432219999997,65.240238110283329],[-2.5338673330000003,65.230939082283129],[-2.4974373610000002,65.221548582282935],[-2.461154611,65.212067027282743],[-2.4250203060000004,65.202494749282522],[-2.3890356939999999,65.192832166282329],[-2.3532020280000001,65.183079610282121],[-2.3175205279999997,65.173237499281882],[-2.2819924170000001,65.163306193281684],[-2.2466188890000001,65.153286082281468],[-2.2114011110000007,65.143177610281256],[-2.1763403060000002,65.132981110281051],[-2.1414376390000003,65.122696999280819],[-2.1066942779999995,65.112325666280597],[-2.0721113609999997,65.101867555280364],[-2.0376900279999997,65.091323055280156],[-2.0034313890000006,65.080692555279924],[-1.9693366110000003,65.069976471279716],[-1.9354067780000002,65.059175221279474],[-1.9016429999999995,65.04828924927925],[-1.868046361,65.037318943279018],[-1.8612719910000002,65.035078779278976],[-1.8346179170000003,65.026264749278781],[-1.8013587500000003,65.015127082278553],[-1.7682698890000002,65.003906360278307],[-1.7353524170000003,64.992603027278065],[-1.7026073610000001,64.981217499277818],[-1.6700357220000002,64.969750249277567],[-1.6376384999999998,64.958201693277346],[-1.6054167499999998,64.946572277277099],[-1.5733713889999998,64.934862416276829],[-1.5415034440000004,64.923072582276589],[-1.509813861,64.91120324927634],[-1.4783035830000002,64.8992548322761],[-1.4469735830000001,64.887227777275839],[-1.415824778,64.875122555275581],[-1.3848580830000001,64.862939638275336],[-1.3540744440000001,64.85067944327507],[-1.3234746940000002,64.838342499274816],[-1.2930597780000002,64.825929193274561],[-1.2628305560000002,64.813440055274285],[-1.232787861,64.800875527274016],[-1.2029326110000003,64.788236055273757],[-1.1732655830000001,64.77552216627349],[-1.143787667,64.762734277273225],[-1.1144996390000002,64.749872916272949],[-1.085402333,64.736938555272673],[-1.056496528,64.723931638272404],[-1.027783028,64.710852666272132],[-0.99926261100000002,64.697702138271865],[-0.97093602800000012,64.684480527271575],[-0.94280402800000018,64.671188332271299],[-0.9148673610000001,64.657826027271014],[-0.88712675000000007,64.644394110270767],[-0.85958294400000013,64.630893055270477],[-0.832236639,64.617323416270182],[-0.8050885000000001,64.603685638269894],[-0.77813925000000006,64.589980221269627],[-0.75138952800000003,64.576207721269327],[-0.72484005600000001,64.562368555269046],[-0.69849144399999985,64.54846330526874],[-0.67234433299999996,64.534492416268478],[-0.64639936100000006,64.520456443268174],[-0.62065716699999995,64.506355860267874],[-0.59511833300000005,64.492191166267588],[-0.56978347200000001,64.477962943267286],[-0.54465316699999988,64.463671610266985],[-0.51972800000000008,64.449317749266697],[-0.49500852799999995,64.434901860266393],[-0.4886949470000001,64.432816143266351]]},"properties":{"FID":1,"OBJTYPE":"GrenseSjø","NAVN":"Yttergrense for dansk økonomisk sone 200 nautiske mil","KOORDH":0,"GYLDIG_FRA":0,"LANDKODE":"FO","LANDKODE1":"DK","LANDKODE2":" ","LANDKODE3":" ","SONENAUT":0,"INFORMASJ":"En del av ytre begrensningslinje for Danmarks økonomiske sone, beregnet 200 nm fra grunnlinjen ved Færøyene","INFORMASJ1":" ","INFORMASJ2":" ","LOVREF":" ","LOVREF1":" ","LOVREF2":" ","OPPDATDATO":"02.02.2012","OPPHAV":" ","MALEMETODE":69,"NOYAKTIGHE":1000,"SYNBARHET":0,"H_MALEMETO":0,"H_NOYAKTIG":0,"MAX_AVVIK":0,"KYSTREF":" ","OBJTYPE1":" ","STATUS":"V","STATUS1":" ","GR_TYPE":12,"KYSTTYP":0,"LINK":" ","LINK1":" ","LINK2":" ","DATFGSTDAT":" "}},{"type":"Feature","id":2,"geometry":{"type":"LineString","coordinates":[[-2.789716667,76.914005555584609],[-2.8179421390000003,76.898498805584154],[-2.8484095560000005,76.88197086058365],[-2.8791935280000001,76.865476749583166],[-2.9102921940000006,76.84901686058268],[-2.9417037500000003,76.832591527582196],[-2.9734264440000002,76.816201138581718],[-3.0054584170000007,76.799845999581237],[-3.0377978890000006,76.783526471580757],[-3.0704431110000012,76.76724288858027],[-3.1033922780000003,76.750995638579809],[-3.1366436390000008,76.734784999579318],[-3.1701954170000004,76.718611360578834],[-3.204045861,76.702475055578375],[-3.2381931940000004,76.686376388577884],[-3.2726356940000003,76.670315693577422],[-3.3073716110000007,76.654293332576941],[-3.3423992499999997,76.638309638576473],[-3.3777168329999996,76.622364916576004],[-3.4133226670000005,76.60645949957555],[-3.4492150279999998,76.590593693575087],[-3.4853922220000002,76.57476786057461],[-3.5218525280000006,76.558982305574162],[-3.5585942780000006,76.54323733257371],[-3.595615778,76.527533305573229],[-3.6329153059999997,76.511870471572777],[-3.6704912500000004,76.496249193572297],[-3.7083418890000006,76.480669777571862],[-3.7464655830000004,76.465132527571399],[-3.7848606940000002,76.449637777570956],[-3.8235255279999998,76.434185777570477],[-3.8624585000000002,76.418776888570051],[-3.9016579169999996,76.403411388569594],[-3.941122139,76.388089582569151],[-3.9667038059999991,76.378235166568857],[-3.98847475,76.361069832568361],[-4.0105837220000007,76.343930499567861],[-4.033029,76.326817527567357],[-4.0558088330000004,76.309731332566855],[-4.0789214999999999,76.292672305566356],[-4.0984770560000001,76.278447082565947],[-4.1510808890000002,76.240319721564831],[-4.1746688060000006,76.223306277564348],[-4.1985841390000003,76.206321027563831],[-4.2228251390000002,76.18936441656335],[-4.2473901110000005,76.172436777562851],[-4.2722773060000003,76.155538555562373],[-4.2974850559999993,76.138670082561873],[-4.3230116110000001,76.121831777561368],[-4.3488553060000008,76.105023999560899],[-4.375014417,76.088247138560391],[-4.4014872500000006,76.071501555559905],[-4.428272111000001,76.054787666559434],[-4.4553673329999999,76.038105805558942],[-4.4492726389999993,76.037579860558935],[-4.4374972780000004,76.019890388558423],[-4.4311353330000003,76.010051110558138],[-4.4256410000000006,76.001458360557891],[-4.4145370280000007,75.983744555557365],[-4.4038545560000006,75.966015999556859],[-4.3935923060000013,75.948273249556337],[-4.383749056000001,75.930516888555829],[-4.3743236110000003,75.912747499555309],[-4.3653146669999998,75.894965610554777],[-4.3567209720000015,75.877171805554269],[-4.3485412779999999,75.859366638553752],[-4.3407743060000001,75.841550693553245],[-4.3334187780000004,75.823724499552739],[-4.3264733890000002,75.805888610552202],[-4.3199368610000013,75.788043582551694],[-4.3138078609999999,75.770189971551176],[-4.3080851110000005,75.752328332550661],[-4.3027672500000005,75.734459221550139],[-4.2978529720000012,75.71658316654964],[-4.2933409720000002,75.6987006935491],[-4.2892298609999999,75.680812388548603],[-4.2855183060000011,75.662918777548072],[-4.2822050000000003,75.645020388547564],[-4.2792885280000004,75.627117777547056],[-4.2767675560000002,75.609211443546542],[-4.2746406940000004,75.591301971546031],[-4.2729066110000007,75.573389832545502],[-4.2715638890000003,75.555475610544974],[-4.2706111390000014,75.537559805544475],[-4.2700470280000005,75.519642943543957],[-4.2698700830000007,75.501725555543459],[-4.2700789719999994,75.483808166542914],[-4.2706722780000002,75.465891305542414],[-4.2716485830000002,75.447975443541893],[-4.2730064720000005,75.430061166541378],[-4.2747445559999999,75.412148916540858],[-4.2768613889999996,75.39423927754035],[-4.2793555559999996,75.376332693539823],[-4.2822256670000005,75.358429721539324],[-4.2854702499999995,75.34053086053882],[-4.2890878890000002,75.322636610538297],[-4.2930771669999999,75.304747443537778],[-4.2974366389999998,75.286863916537271],[-4.3021648610000005,75.268986471536763],[-4.3072603890000014,75.251115666536236],[-4.3127218059999999,75.23325194353572],[-4.3185476390000002,75.215395832535222],[-4.3247364170000013,75.197547805534711],[-4.3312867500000003,75.179708332534219],[-4.3381971389999991,75.161877971533684],[-4.3454661670000005,75.144057138533199],[-4.3530923610000007,75.126246332532673],[-4.3610742500000006,75.10844605553217],[-4.3694103889999996,75.090656777531663],[-4.3780993059999993,75.072878971531139],[-4.3871395830000015,75.055113110530655],[-4.3965297220000004,75.037359693530135],[-4.4062682500000001,75.019619166529623],[-4.4163537499999999,75.001891999529121],[-4.4267846940000002,74.984178666528621],[-4.4375596940000008,74.966479666528116],[-4.4486772220000006,74.948795416527616],[-4.4601358330000007,74.931126388527105],[-4.4719340560000003,74.913473082526608],[-4.4840704440000003,74.895835888526122],[-4.496543528000001,74.878215332525599],[-4.5093518060000006,74.860611832525109],[-4.5224938610000001,74.843025860524605],[-4.5359681940000005,74.825457860524111],[-4.5497733610000006,74.807908249523607],[-4.5639078610000006,74.79037752752312],[-4.5783702780000004,74.772866110522614],[-4.5931590830000006,74.755374443522129],[-4.6082728890000002,74.737902971521635],[-4.6237101670000014,74.720452138521125],[-4.6394695000000006,74.703022388520651],[-4.6555493889999999,74.685614138520151],[-4.6719483890000006,74.668227832519648],[-4.6886650560000005,74.650863888519154],[-4.7056978890000005,74.633522777518678],[-4.7230454719999999,74.616204888518169],[-4.7407063059999999,74.598910666517682],[-4.7586789720000002,74.581640527517223],[-4.7769620280000016,74.564394916516719],[-4.795553943999999,74.547174193516227],[-4.814453361,74.52997886051574],[-4.8336587500000006,74.51280927751526],[-4.8531687220000004,74.495665888514779],[-4.8729818060000003,74.478549082514292],[-4.8930965279999992,74.461459277513825],[-4.9135114720000006,74.444396888513353],[-4.9169690280000014,74.441534388513261],[-5.0076944439999993,74.363027777511036]]},"properties":{"FID":2,"OBJTYPE":"GrenseSjø","NAVN":"Yttergrense for dansk økonomisk sone 200 nautiske mil","KOORDH":0,"GYLDIG_FRA":0,"LANDKODE":"GL","LANDKODE1":"DK","LANDKODE2":" ","LANDKODE3":" ","SONENAUT":0,"INFORMASJ":"En del av ytre begrensningslinje for Danmarks økonomiske sone, beregnet 200 nm fra grunnlinjen ved Grønland","INFORMASJ1":" ","INFORMASJ2":" ","LOVREF":" ","LOVREF1":" ","LOVREF2":" ","OPPDATDATO":"02.02.2012","OPPHAV":" ","MALEMETODE":69,"NOYAKTIGHE":1000,"SYNBARHET":0,"H_MALEMETO":0,"H_NOYAKTIG":0,"MAX_AVVIK":0,"KYSTREF":" ","OBJTYPE1":" ","STATUS":"V","STATUS1":" ","GR_TYPE":12,"KYSTTYP":0,"LINK":" ","LINK1":" ","LINK2":" ","DATFGSTDAT":" "}},{"type":"Feature","id":3,"geometry":{"type":"LineString","coordinates":[[7.0887772780000002,83.889729999800664],[7.0949087220000004,83.888574443800621],[7.1766278329999986,83.872928110800146],[7.2571413890000009,83.857222888799626],[7.3364541670000012,83.841459638799122],[7.4145710000000005,83.825639332798616],[7.4914967219999999,83.809762805798115],[7.5672363060000007,83.793830999797606],[7.6417948060000001,83.777844721797095],[7.7151773060000002,83.761804943796562],[7.7873889170000004,83.745712471796054],[7.8584349170000003,83.729568221795532],[7.9279609170000001,83.71345655579502]]},"properties":{"FID":3,"OBJTYPE":"GrenseSjø","NAVN":"Yttergrense for dansk økonomisk sone, 200 nautiske mil ved","KOORDH":0,"GYLDIG_FRA":0,"LANDKODE":"GL","LANDKODE1":"DK","LANDKODE2":" ","LANDKODE3":" ","SONENAUT":0,"INFORMASJ":"En del av ytre begrensningslinje for Danmarks økonomiske sone, beregnet 200 nm fra grunnlinjen ved Grønland","INFORMASJ1":" ","INFORMASJ2":" ","LOVREF":" ","LOVREF1":" ","LOVREF2":" ","OPPDATDATO":"15.03.2012","OPPHAV":" ","MALEMETODE":69,"NOYAKTIGHE":1000,"SYNBARHET":0,"H_MALEMETO":0,"H_NOYAKTIG":0,"MAX_AVVIK":0,"KYSTREF":" ","OBJTYPE1":" ","STATUS":"V","STATUS1":" ","GR_TYPE":12,"KYSTTYP":0,"LINK":" ","LINK1":" ","LINK2":" ","DATFGSTDAT":" "}}]}