{"type":"FeatureCollection","features":[{"type":"Feature","id":0,"geometry":{"type":"LineString","coordinates":[[10.62750375169685,58.859553526274283],[10.499481194401653,58.865323110673046],[10.250995888849218,58.875941916886006],[10.209322138905634,58.869615832904401],[10.203917666667053,58.868838360901691],[10.005005806273005,58.841653750320404],[9.6968876672320903,58.759986249665758],[9.6696189997171018,58.752704500212587],[9.4390862216518485,58.619174000080079],[9.210309333009377,58.485230111280657],[8.9832711666310843,58.350878000419414],[8.8006212503704546,58.241749999662829],[8.7948601942426308,58.238445694413315],[8.7888242216605477,58.235281082655888],[8.7876854722068174,58.234714972018423],[8.6064739172375653,58.145011610697338],[8.6045110830200997,58.144049833433144],[8.3788035832188257,58.034477305883001],[8.3724479169378583,58.03151350014798],[8.3658483608132315,58.028703972210621],[8.3590182778712574,58.02605441657812],[8.3519714169473787,58.02357013925058],[8.3447220556784032,58.021256167438253],[8.3372847217125923,58.01911708318687],[8.3325168606646116,58.017863110793996],[8.2734314436062846,58.00285072158357],[8.2724978331085595,58.002614860887149],[8.0980022497041091,57.958669417159911],[8.0902966938373879,57.956832639115078],[8.0891430282281931,57.95657638898922],[7.7776135556211443,57.887512194332373],[7.7578316389190718,57.883091806141977],[7.7551073334367402,57.882496082628165],[7.7157368326887195,57.874070471974733],[7.7078513332724583,57.872489805560122],[7.7013419998334598,57.871343750014091],[7.6701528331867621,57.866182360927269],[7.6620550559960634,57.864946527860013],[7.6538616673821025,57.863905556296459],[7.6455890826700852,57.86306150028804],[7.6372539995724651,57.862416082935908],[7.6349436673164632,57.862273055657056],[7.5851682775939935,57.859347749898802],[7.5767788889345979,57.858954333375834],[7.5683649442867704,57.858761917128845],[7.5609656111740833,57.858759027607107],[7.2241013327104042,57.861719583192269],[7.199931721771577,57.86189758330687],[7.1915147500057515,57.862059472067017],[7.183119833213766,57.862422443840785],[7.1747638058050143,57.862985750392113],[7.1664634437329937,57.863748249582102],[7.1635845825624642,57.864060778382282],[6.9657458328039752,57.886231416746568],[6.9575362779768852,57.887247306218285],[6.9494203057025743,57.888458333285485],[6.9414142215891275,57.889862056288905],[6.933534110910557,57.891455666645754],[6.9324725826436406,57.891687000155002],[6.6201859995842369,57.959817999800919],[6.5997017222567251,57.96425119433718],[6.5983483334089215,57.96454719359815],[6.589400694186736,57.966525471873069],[6.5816761113634925,57.968342027762446],[6.574112277859399,57.970340916700025],[6.5667244173980066,57.972518139400677],[6.5650676386606506,57.973038611242941],[6.5303209437565783,57.98407347171343],[6.5231649716861284,57.986461667272181],[6.5162175002374738,57.989018027959673],[6.5094925561365926,57.991737416848366],[6.5043020829747888,57.994017471629093],[6.4726668606871272,58.008417722000331],[6.4693348886942204,58.009969833141326],[6.2168548611629717,58.129745306001098],[5.9626768614480739,58.249014582856773],[5.7480760275866487,58.34869922189165],[5.7417927216568501,58.351738443874126],[5.7371524995882055,58.354168332902304],[5.7261983056073404,58.360103943841978],[5.7203901393934871,58.363394943621813],[5.7194996387973447,58.363926556265596],[5.558374000160029,58.460439138955167],[5.552867832584468,58.463877361351194],[5.5527721672017947,58.463939944273079],[5.5109413893337091,58.491300027874047],[5.5057320277109625,58.494864805566351],[5.5008331390382068,58.498548471834567],[5.4962547219778912,58.502343610868991],[5.4933757223117823,58.504940638899427],[5.3821488064223217,58.608480639170239],[5.3781011944146258,58.612441082589953],[5.3763340832513791,58.614316194237006],[5.365639667436767,58.625965806077147],[5.3620973062457438,58.630056360712558],[5.3589105558775145,58.63422577779744],[5.3576232501129653,58.63608244434937],[5.3028560276835606,58.717378305564409],[5.3001796938378334,58.721645306285893],[5.2979638893220908,58.725787527872171],[5.2355028894468205,58.852620361240724],[5.2344048612953884,58.854958361139495],[5.1849427216293407,58.965721222356592],[5.0347601109903621,59.071135527582612],[4.7578360003312241,59.180535278280502],[4.7303758887363188,59.191313277985444],[4.7235476107337036,59.194118472089883],[4.7169710277907484,59.197078083386884],[4.7106594723568378,59.200186138579511],[4.7046257219994914,59.20343638917808],[4.6988819436468248,59.206822306104584],[4.6934398060022886,59.210337056310152],[4.6883103887134894,59.213973582814674],[4.684825166848043,59.216656443939769],[4.6832493891480453,59.217912805831361],[4.6786809167909382,59.221741250358491],[4.674451999660107,59.225671027795727],[4.6705712784417983,59.229694194431602],[4.6670467220286582,59.233802694139058],[4.6638855555739838,59.237988166820514],[4.6610942775789113,59.242242193922152],[4.6586786940665093,59.246556194113111],[4.656643778287787,59.250921471848528],[4.6549938613776476,59.255329167007517],[4.6537516674055723,59.259689972414378],[4.6506719723337255,59.272466000405643],[4.6497937780604843,59.276931388872526],[4.6493087781776126,59.281412472307807],[4.6492180833479324,59.285900193639065],[4.6495220559981476,59.290385443633397],[4.6502201943065984,59.294859139137998],[4.6513112778932282,59.299312250060325],[4.6527932500085285,59.303735749905002],[4.654547167218027,59.307873860690165],[4.6651560557074276,59.330547583404325],[4.6673916390129762,59.334887722390533],[4.6693631112186722,59.338177222101194],[4.778582555940261,59.508861860886213],[4.8724572777811659,59.6541281665817],[4.84546313911261,59.78760655639752],[4.7916616113943178,59.965074139260196],[4.7372796108654143,60.142514611160436],[4.6907407498857197,60.292835111251463],[4.5973861392589583,60.466286499922091],[4.5030284437077626,60.639667056189751],[4.4076500832847501,60.812975610935723],[4.3112330562605621,60.986210943780065],[4.3020997502033538,61.002519917060567],[4.2998748058776641,61.00687472219073],[4.2980550277173961,61.011273666946238],[4.296644306189819,61.015707889407622],[4.2956456387352659,61.02016841703886],[4.2952069719242445,61.023177832790793],[4.2945505828431578,61.028910194250102],[4.2942469717204403,61.033322388717295],[4.2933410279661075,61.072387806152392],[4.2934452216197201,61.076874250446338],[4.2936085555904242,61.078713721960753],[4.3130571385761414,61.257949556326992],[4.3327264439702731,61.43717783279078],[4.3526207219687763,61.616398555848718],[4.3571104442916067,61.656562166910533],[4.3578238333033141,61.661035667262297],[4.3589600277830982,61.665489360945287],[4.3605169170221529,61.669914250242527],[4.3624915278617777,61.674301332940217],[4.3648800004117447,61.678641749816961],[4.367677694170311,61.68292663895329],[4.3708790558238206,61.687147360562278],[4.3723555276854995,61.688913943823479],[4.5158839717679484,61.855002916551427],[4.6208743608631266,61.975273778262306],[4.6210179439230501,61.975437139212659],[4.7026205279150872,62.06774700022396],[4.7057126669060949,62.071062028090182],[4.8612501944409701,62.228967416613045],[4.865480110718579,62.232995889248969],[4.8700953055539458,62.236931389072424],[4.8750864997422241,62.240765832976876],[4.8757430003392415,62.241242443983651],[5.0839472784442137,62.390554667364086],[5.08940250032515,62.394257832732876],[5.0952125002567072,62.397843167128542],[5.1013655825556157,62.401303306002831],[5.1067259718261653,62.404075943749831],[5.3715098059328739,62.535146583148332],[5.6386251108602323,62.665709528272146],[5.8241430559573359,62.755419278377076],[5.8266063332157501,62.756585971565414],[6.1023194168076884,62.884228528423876],[6.1049181112818474,62.885423805664175],[6.111996749750233,62.888535611029681],[6.1193763886095098,62.89149858309321],[6.1270421108048367,62.894306666719331],[6.1282434998377084,62.894723749801244],[6.4431993606619926,63.002531889335273],[6.7604780830970981,63.109632749851585],[6.9979338611587991,63.188814082803731],[7.2316926935629908,63.334081777951724],[7.4678156385809302,63.478960194357512],[7.5440190563344345,63.525322721666328],[7.632304999775954,63.589772306047166],[7.6377526943314251,63.5935445564362],[7.6428938333837664,63.596791916613711],[7.8828106107211511,63.741138610658425],[8.125181778216529,63.885079777909482],[8.2719696666668483,63.97134827760101],[8.2782798056685465,63.974873556169712],[8.2849460564154356,63.978270249672335],[8.2872751674150891,63.979386944152225],[8.2966773060128958,63.983825416809566],[8.3038009996164988,63.987038888733764],[8.3112482504064928,63.990107999684483],[8.3139370830299981,63.991150222205022],[8.6236935557130892,64.108482749679183],[8.9360624438267564,64.225149888556587],[9.1022694435799849,64.286557889335199],[9.3756050560285757,64.421293055630088],[9.6516293329274276,64.555512888808835],[9.9303746669573911,64.689209305764905],[10.21187366663645,64.8223740003599],[10.218228028001135,64.825358721627765],[10.22504997207858,64.845893556142755],[10.226760777587856,64.850318388782682],[10.228938250300075,64.854705972402769],[10.23157822185749,64.859047361446642],[10.234508499967376,64.863119193995658],[10.298667639300163,64.945628971799692],[10.302214527678359,64.949853582976516],[10.305793138742388,64.95359933304286],[10.473615471976473,65.118370556156322],[10.643526083162271,65.282948333298975],[10.800465082697485,65.432991388941502],[10.960146582798586,65.599678667136857],[11.029875778444477,65.671750999609003],[11.131432693564022,65.846191750448952],[11.234373805606708,66.020560499767328],[11.311004332983657,66.148789417297849],[11.313863332626738,66.153121028013061],[11.317201888556383,66.157396138820786],[11.321013443815445,66.161606055974744],[11.32195963942587,66.162567611106397],[11.489171722397145,66.328764389165258],[11.658605443786257,66.49477594375486],[11.798261694022017,66.629833167166964],[11.802806249808611,66.633937278182884],[11.807812749558821,66.637955888853242],[11.813271193710648,66.641880861212826],[11.81917072205124,66.645704167013776],[11.825499500401691,66.649418055898593],[11.832244806052984,66.653014943884614],[11.839393082624724,66.656487499698414],[11.842350221685422,66.657834806431254],[12.143929499846593,66.791749583276726],[12.14861333273916,66.793813471614499],[11.990528221899979,66.962042694115098],[11.83024597197408,67.130108555665345],[11.667719861382523,67.298007556103869],[11.60075188928829,67.366463416953195],[11.596882388911183,67.370691221622621],[11.594079221878644,67.374205527563106],[11.572451361241349,67.403175194379799],[11.569483111056797,67.407510221619475],[11.567023943700065,67.411892167389681],[11.565079083333103,67.41631219405258],[11.56365277835306,67.420761361447717],[11.562748167394034,67.425230667361461],[11.562367416922825,67.42971108260042],[11.562511527884737,67.434193556387584],[11.563180583017527,67.438668972295318],[11.564373471658428,67.443128305626885],[11.566088056118929,67.44756252808827],[11.567669638942732,67.450782666686791],[11.567814111432142,67.451052360777908],[11.570423721877319,67.455421805971639],[11.571862611070685,67.457508528096128],[11.610773083411118,67.511430000194423],[11.614151582729392,67.515722083007802],[11.618032277867371,67.519951582899296],[11.622407583043582,67.524109860981355],[11.627268833290088,67.528188499599651],[11.632606388773866,67.532179138656375],[11.638409611414488,67.536073694145728],[11.644666944024323,67.539864222356016],[11.651365805987211,67.543542999909562],[11.658492749740674,67.547102528259131],[11.666033443688548,67.550535556171042],[11.673972693784833,67.553835056342848],[11.682294388675132,67.556994306342233],[11.684684583426815,67.557850693854505],[11.799065499972869,67.59820813939416],[11.803286888878858,67.599661278345366],[11.844602444247471,67.613560528095945],[11.853596610795023,67.616448360903178],[11.857297527858691,67.617562221619266],[12.230892194319381,67.726984388818551],[12.355556916918204,67.763082500357143],[12.496027806338248,67.93438441670753],[12.526052722355303,67.970659306182085],[12.529857333049506,67.97490819365828],[12.534168721609262,67.979088416996888],[12.538978360662838,67.983191472208716],[12.542959722313356,67.98625202790879],[12.761428332551532,68.145880528263831],[12.822794693820128,68.190272444018149],[12.828555722068984,68.19420980633754],[12.834789249624237,68.198046610962365],[12.841482861345014,68.201775028394877],[12.848623110568155,68.205387444075313],[12.852644667417508,68.207280499895205],[12.943863777591332,68.249061110881598],[12.951690472137614,68.252476528269199],[12.959925806031151,68.255757527587889],[12.968553166995093,68.258897389103254],[12.97755505602106,68.261889722232922],[12.986913222267447,68.264728361224968],[12.992735166994407,68.266367389143738],[13.383767139342069,68.372407082920574],[13.468831055608803,68.395223610781045],[13.717958138956988,68.549424472361579],[13.967448611364375,68.701397917380064],[14.061411805810224,68.783498832804923],[14.066423332770626,68.787596944443465],[14.07194069420774,68.791609082693071],[14.077952972351852,68.795527082608828],[14.084448138770654,68.799342971700867],[14.091413193763913,68.803048943853753],[14.098834167263078,68.806637471741965],[14.104004527986604,68.808951000188586],[14.423314111157367,68.946368777597058],[14.746613139085127,69.083180388564131],[14.946807582903659,69.166746778041443],[14.955216360946338,69.170082888714376],[14.964040832618366,69.173280555952942],[14.973263139182563,69.176333249779702],[14.982864582834281,69.179234721705086],[14.987863638895874,69.180644027699771],[15.388437832739839,69.289922306069627],[15.793051471848003,69.398263417123076],[15.869285527705017,69.418449917229964],[15.879640611325215,69.421060305588696],[15.89032141680002,69.423503555844491],[15.901306167046016,69.425774638988457],[15.912572471642306,69.427868917216813],[15.914860027668169,69.428266610915443],[16.374562860887352,69.506383860626727],[16.811551417364058,69.579002806434403],[17.254644167194613,69.670123250187885],[17.269452582970359,69.67313586123106],[17.518852639337865,69.830229110684968],[17.678726972072127,69.929530582770212],[17.685323666554041,69.933397306040888],[17.692422666572838,69.937157917404022],[17.693292694102581,69.937594249575],[17.991513027804046,70.085005666778159],[18.142828167286154,70.15882091685188],[18.144029777552248,70.159400082947514],[18.403517249621416,70.282600139085218],[18.411489638835803,70.286183083082847],[18.419934138849499,70.289640943974462],[18.428833777656791,70.292966666578479],[18.438170528347257,70.296153416946709],[18.447925527641019,70.299194721759079],[18.458078971567318,70.30208436130431],[18.468610278241783,70.304816389265],[18.479497999732928,70.307385221750621],[18.490719972248996,70.309785583338055],[18.501665056097522,70.311904583030127],[18.939749222448711,70.39170766677546],[18.951646360990821,70.393737083199881],[18.963805499923922,70.395583916564533],[18.966808167163208,70.396006249888558],[19.462015389398744,70.463678972106948],[19.802010222293973,70.509104472393517],[19.802238944171961,70.509134721989881],[20.303092556276511,70.574374972327178],[20.807152971832238,70.638232583367085],[21.314382305998663,70.700693833253865],[21.824740388757959,70.761745167405593],[21.841084028205387,70.763670805663196],[22.290147943672707,70.865272611341993],[22.636088306130489,70.942103528355233],[22.641771582592526,70.943325500171738],[23.105676389254029,71.03959874988243],[23.574108667281223,71.134705527638062],[23.806951999735077,71.181205388617855],[23.818936582957008,71.183466610695575],[23.82936900017927,71.185250306256705],[23.837719471576406,71.186612028222555],[23.850251555764714,71.188541638785637],[23.863042277778959,71.190286555580144],[23.876065443965103,71.191843166928663],[23.889294332767292,71.193208278439329],[23.902701833223091,71.194379056348453],[23.916260444064278,71.195353139036172],[23.926235722400691,71.195938749673587],[24.011227611065465,71.200441806244442],[24.02498761068972,71.201064888933558],[24.038688971818658,71.201483639358514],[24.593463443583119,71.213577694355195],[24.674467389358597,71.215205333259576],[25.217260194402513,71.255201388933017],[25.609668722133847,71.283042582848964],[25.623367916795985,71.28389519410797],[25.637173666731371,71.284548056047981],[25.651057638799045,71.284999833175789],[25.664991277725335,71.285249610880896],[25.67894591672075,71.28529688914017],[25.692892943854304,71.285141499780423],[25.695089750191869,71.285098528374419],[26.25184475033501,71.272735666917526],[26.807845167120831,71.258729778256736],[27.36299905566193,71.243084528028589],[27.687572360875777,71.233166166885155],[27.701390277739165,71.232629972195525],[27.714922667047517,71.23190516718978],[28.239258943845243,71.199153306180165],[28.248342500306194,71.198526110891351],[28.266321166588625,71.197191749899389],[28.279784999678043,71.196087778128515],[28.293079528197723,71.194788639084493],[28.306177527870659,71.193297000156463],[28.319052082887367,71.191615917240824],[28.331676861098288,71.189748832942371],[28.344026027679092,71.187699610748496],[28.356074333263905,71.185472444198012],[28.367797139126708,71.183071889256325],[28.375757667182654,71.181299917257434],[28.82547391668794,71.076687917013828],[29.27040627832713,70.971003388895326],[29.403803971975776,70.938887193888945],[29.888768833414986,70.855778499977873],[30.237578417210216,70.794778805797307],[30.24942819385609,70.7925739721112],[30.260962027875337,70.790195167273225],[30.272156360627605,70.78764725032039],[30.281971443627299,70.78520105568424],[30.400256833386209,70.754361833232053],[30.410709083357574,70.751499832551303],[30.412767166571541,70.750904416605579],[30.817242305587968,70.631655333127185],[31.216944139060843,70.511521943582864],[31.347348083147551,70.471826861320665],[31.357034694395679,70.468731777949245],[31.366292417161389,70.465493610641659],[31.375102527559648,70.462118917254259],[31.383447221711947,70.458614638754625],[31.387493472146048,70.456791332554019],[31.403793527749144,70.449264249845328],[31.411399777777547,70.445577583438762],[31.418500527877086,70.441779805793431],[31.425081583148597,70.437878610609459],[31.426770305805007,70.436806860648176],[31.431519443867273,70.433747167397939],[31.437419667383779,70.429725972076028],[31.442772056285435,70.425619693693989],[31.447566056128665,70.421436722027181],[31.451792277991274,70.417185555668937],[31.455442472392235,70.412874889264799],[31.458509583250702,70.408513416560993],[31.460987777563957,70.404110056134243],[31.46287236087079,70.399673694185708],[31.464159943626555,70.395213360807986],[31.464571693728715,70.393025139398731],[31.464688583111695,70.392272166727196],[31.465083277571239,70.387792889130594],[31.464877722229176,70.383312167222812],[31.464072694099627,70.378839111136131],[31.462670277811128,70.374382722184919],[31.460673611098343,70.369952027763929],[31.458087194168741,70.36555597163084],[31.454916583033935,70.361203443584088],[31.451168528005212,70.356903194027211],[31.447065444015095,70.352860666786398],[31.350391416830462,70.263465471654229],[31.258532667448719,70.086928444292312],[31.225306721627931,70.02230947170483]]},"properties":{"FID":0,"OBJTYPE":"Fiskerigrense","NAVN":"6 nautiske mil"}}]}