{"type":"FeatureCollection","features":[{"type":"Feature","id":0,"geometry":{"type":"LineString","coordinates":[[10.604570417191042,58.793936611085769],[10.511255527820424,58.798066806038321],[10.264291388636707,58.808665389196392],[10.245412944351926,58.805798111293882],[10.237079417081475,58.804594527915185],[10.236420805775595,58.804504721615672],[10.050932028390434,58.779168332952281],[9.7488392499315069,58.699099583179247],[9.5183570560333806,58.565709806262589],[9.2896257783070837,58.431905943704407],[9.062628388989026,58.297693222364387],[8.8952463332517482,58.197809916794256],[8.8895398057175044,58.194482417129905],[8.8836662776766389,58.191237193741529],[8.8776300829620141,58.188076610946894],[8.873685027841816,58.186100027894042],[8.6925044437251699,58.096518361033588],[8.6892336939798156,58.094917583080075],[8.4635769168413049,57.985494610987587],[8.4572729435915335,57.982504582820297],[8.4508203888499338,57.979605721626797],[8.4442238886215932,57.976800111136299],[8.4374882497829731,57.974089749642303],[8.4306183610485732,57.971476611156731],[8.4236192217497319,57.968962583356586],[8.4164958330163131,57.966549444201519],[8.4092534172114597,57.964239000429586],[8.4018971940003553,57.962032833048852],[8.3944324720809504,57.959932611201111],[8.3868646671706983,57.957939778298169],[8.3864960827280584,57.957846139088076],[8.3274869443670241,57.942858694373285],[8.3259329437503879,57.942466250017503],[8.151664056051402,57.898593943655612],[8.1439995281557458,57.896723500389271],[8.1369187223212407,57.895111417058331],[7.8258280280410872,57.826164193622674],[7.8060746935922793,57.821751472152755],[7.8015406113102017,57.820760305943395],[7.7622266941066869,57.812348999906476],[7.7543791388861791,57.810733389434404],[7.7464534172914341,57.809230917273055],[7.7384552220308933,57.807842694085139],[7.7382716937837017,57.807812305993195],[7.7071321670159705,57.802659972180038],[7.6990680559460998,57.80138763922821],[7.6909430562770922,57.800231471705104],[7.6827630558703959,57.799192278101202],[7.6745339443860985,57.798270832732783],[7.6662615827059426,57.797467805594806],[7.657951999884915,57.79678374977027],[7.6496111107642264,57.796219167080949],[7.6485509719498168,57.796156083236724],[7.5988656673167156,57.793236111357487],[7.5904979721037762,57.792803361186202],[7.5821116393407237,57.792490806305693],[7.5737126666063546,57.792298721908537],[7.5653070829555418,57.792227222208567],[7.558601750370542,57.792256693891375],[7.222357111091867,57.795211832859877],[7.1982329437953467,57.795389500225326],[7.1898286389805435,57.795510916795422],[7.1814334173184307,57.795752861405504],[7.1730533330449475,57.796115193761239],[7.1646944439934259,57.796597610791139],[7.1563626937833646,57.797199805826438],[7.1480641105703171,57.797921332803298],[7.1398046667520134,57.79876163863878],[7.1377633612901263,57.798988333444868],[6.9402658889596296,57.821119166916048],[6.9320531936999714,57.822094083275374],[6.9238923614433929,57.823186416919668],[6.9157892215953325,57.824395389036056],[6.9077496386349821,57.825720083215344],[6.8997793610287204,57.827159610927367],[6.8918841669208177,57.828712889388385],[6.8848985561235168,57.830195944287482],[6.5730557777020522,57.898211306406722],[6.5526016672332048,57.902636721807312],[6.5503491937603258,57.903129249915025],[6.5414142223884824,57.905104167423417],[6.533669638642948,57.90688088874208],[6.5260171940383316,57.908767777910668],[6.5184623888282545,57.910763500335349],[6.5110106935886733,57.91286658292654],[6.5036674718763834,57.915075528313025],[6.5009090560081972,57.91594158263797],[6.4661979715592111,57.926958999858016],[6.4590086670164055,57.929309416696299],[6.4519402781214126,57.931761832842369],[6.4449979436002423,57.934314472135213],[6.4381866672809451,57.936965499957921],[6.4315114439979766,57.939712971976121],[6.4249770275678202,57.942554971734637],[6.4228645830341407,57.943507666745461],[6.3912413334208509,57.957887749819861],[6.3856898058398883,57.960471028115535],[6.133279860677078,58.080081693915076],[5.8791772223509611,58.19918555576885],[5.6646457496017319,58.298730000389241],[5.6583121940525416,58.301735443835696],[5.6521339999841871,58.30482950018137],[5.6464422501098284,58.30783286079793],[5.635487221558094,58.313760750158565],[5.6296219438976323,58.317020193627116],[5.6243203064370277,58.320123693753544],[5.4631352495921419,58.41651691662247],[5.4575676673140379,58.419925139433701],[5.4537941111094028,58.422344582836274],[5.4119360559042775,58.449672471607357],[5.4066616112444308,58.453208694026046],[5.40157016692973,58.456818082588484],[5.3966654173751749,58.460497999583083],[5.3919510282174201,58.46424577762059],[5.3874303890012811,58.468058722332216],[5.3831069171505419,58.471934055712154],[5.3826231394463662,58.472383027854505],[5.2711731674078237,58.575827166690431],[5.2670485833255043,58.579765110871222],[5.2631281111734438,58.583759667374807],[5.2614591673067821,58.585544611194905],[5.2507353607483651,58.597184693818633],[5.2471120003186229,58.601255443583909],[5.2436996388273087,58.605375693833253],[5.240500888805002,58.609542417448665],[5.2375180830931072,58.613752610694462],[5.2373278063332691,58.614033556203708],[5.1823153891439233,58.695278166853996],[5.1795522221573833,58.699530111125796],[5.1770099718327742,58.703819278337107],[5.1746905276457937,58.708142555934273],[5.1741172503109283,58.709285805595528],[5.1112340277282442,58.836058361004632],[5.1093908330205977,58.839953278021426],[5.0655547783304087,58.937367693664214],[4.9416315557517692,59.024156389106111],[4.6647906386770615,59.133358333020681],[4.6517767498971239,59.138460111445056],[4.6449034167593481,59.14122969419509],[4.6381769716899157,59.144093249803689],[4.6316022782226014,59.147048693642375],[4.6251841387370405,59.150093943780519],[4.618927221614058,59.153226805872464],[4.6128360558393524,59.156444972257702],[4.6069151110435769,59.159746138873288],[4.6011686940800018,59.163127944099415],[4.5956010281649924,59.166587916599099],[4.5902161674422359,59.17012358323683],[4.5850180833179479,59.173732389038605],[4.5800105556426729,59.17741169359482],[4.5758418328343851,59.18064419427418],[4.5742637222929829,59.181899221571882],[4.5696207500976129,59.185702778260691],[4.565178528166598,59.18956911122558],[4.5609403327302402,59.193495444259383],[4.5569093060196906,59.197478888739795],[4.5530884436767565,59.201516583023931],[4.5494805830625182,59.205605639388807],[4.5460884437267168,59.209743028018408],[4.5429145275834344,59.213925806330963],[4.5399612223325789,59.218150916631544],[4.5372307501990008,59.222415305721825],[4.5347251940125375,59.226715861048206],[4.532446417168444,59.231049499734695],[4.5303962219081768,59.23541302828869],[4.5285761388777814,59.239803278398654],[4.5269876105897993,59.244217111430601],[4.5256318331426542,59.248651278134048],[4.5248905831339243,59.251482971661858],[4.5217633885695818,59.264255943756837],[4.5207900559163932,59.268716388650489],[4.5200520560575796,59.273188666823557],[4.5195500562900861,59.277669500247271],[4.5192844442217961,59.282155638771769],[4.5192555831786763,59.286643806166751],[4.519463555898426,59.291130749584454],[4.5199082778448201,59.295613166714304],[4.5205895556634914,59.300087777728834],[4.5215069720691758,59.304551389135327],[4.5226599721800085,59.309000667147131],[4.5240477502035787,59.313432388593924],[4.5256694436899352,59.317843333003452],[4.52752391679536,59.322230278104882],[4.5280016105859318,59.323275167115298],[4.5385309441477943,59.345959055765888],[4.5406748613557966,59.350311582913264],[4.5430486389835778,59.354632944055197],[4.5454995002017995,59.358681750362564],[4.6541597500724379,59.529469389400845],[4.7388817503925225,59.661382610818862],[4.7145945827738274,59.779155443668856],[4.6601077779516231,59.956569361287052],[4.6050322220594353,60.133955443988611],[4.5595082496060968,60.279122249592206],[4.4654941112642632,60.45248141728365],[4.3704696106840402,60.625768611332376],[4.2744171391397003,60.798982639237465],[4.1773185564063056,60.972122305799815],[4.170051000053661,60.985002861093221],[4.1677285557283312,60.989345750206269],[4.1656476935862656,60.993717443705123],[4.1638100279105288,60.998114832633462],[4.1622170003143424,61.002534666841484],[4.1608698887344531,61.006973778017482],[4.1597697498741013,61.011428889032061],[4.1589175001425929,61.015896806392561],[4.1584214170148357,61.019421221612163],[4.1577404440662917,61.025152888794821],[4.1573327499065158,61.029635528057213],[4.1572027780857752,61.032506000351702],[4.1561280828448162,61.071570306224714],[4.1561295280553168,61.076057278420706],[4.1563810279621407,61.080542611152623],[4.1565283890739693,61.08211394440309],[4.1751989172962567,61.261369027858393],[4.1940799723129203,61.440616806120772],[4.2131755830867519,61.61985730616982],[4.2174847224420091,61.660023805853996],[4.2180933062610961,61.664501056378697],[4.2189561392145265,61.668968833444978],[4.2200726942994606,61.673423916580532],[4.2214422502597131,61.677863055635555],[4.2230639437460695,61.682282971681843],[4.2249366937734294,61.686680444247145],[4.2270592502842419,61.691052278040274],[4.2294301114105792,61.695395249890908],[4.2320477222246495,61.69970619418558],[4.2349101941501885,61.703981972290251],[4.2380155828529382,61.708219416792701],[4.2413616939870167,61.712415443917678],[4.2426699719417229,61.713968166597681],[4.3856138333118224,61.880192111376914],[4.4901769437110488,62.000560972211133],[4.4904152784424127,62.000833444308057],[4.5716892501588404,62.093219833128842],[4.5754677499367631,62.097341777700933],[4.5768236937585129,62.098749667263405],[4.7318296671055009,62.256798750362123],[4.7359683894296722,62.26084888856542],[4.7403413060065418,62.264845332745949],[4.7449452782020671,62.268785167301701],[4.7497770279874771,62.272665472133895],[4.7548330561007219,62.276483417076065],[4.755925306108054,62.27727866687701],[4.9637829171479666,62.426769110705948],[4.9691579437841256,62.430499750363253],[4.9747496665639233,62.434161528032121],[4.9805539719882859,62.437751806001074],[4.9865667501554185,62.441267889001949],[4.9927835826962337,62.444707222060686],[4.9991999721010529,62.448067250203508],[5.0017142777917343,62.449335082947755],[5.2664388609646835,62.580603971596076],[5.5335015276734225,62.711366416926637],[5.7189851672317218,62.801213471924257],[5.72309013889884,62.803160943922478],[5.9987911670787639,62.931005250192186],[6.0013890278813733,62.932202056279948],[6.0084064719811181,62.935348139305233],[6.0156092780458152,62.93840636126464],[6.0229921391759262,62.941374527812286],[6.030549666633874,62.944250416723435],[6.0382763610652432,62.947031889410198],[6.0402801108384665,62.947728249758995],[6.3554838329126255,63.05573136141328],[6.6730209719403319,63.163027527698318],[6.8920172782748068,63.236156306368514],[7.125626278230186,63.381596888985314],[7.3616044440898918,63.526649556232087],[7.4201047217555356,63.562322749795101],[7.504867360640219,63.624396083412591],[7.5102284172077134,63.628194943841663],[7.5158195284485032,63.631927832703354],[7.5216366671984929,63.63559199987094],[7.5224873611028897,63.636110556157291],[7.762123499599852,63.780657166794867],[8.0042177217704875,63.924799971941184],[8.1508393894263236,64.011189443937724],[8.157070889010356,64.014744889365204],[8.1635205002709199,64.018224971605207],[8.170183499968573,64.021627082623809],[8.176331722331156,64.024607527615387],[8.1857314165716843,64.029053139091161],[8.192787889449562,64.032300167418839],[8.2000433607125842,64.035462138766718],[8.2074925000788426,64.03853672209209],[8.2145007782883113,64.041281833389974],[8.5243969165844646,64.158825110690373],[8.8369163332222342,64.275703778206832],[8.9944999173373503,64.334014028224885],[9.2677795829614524,64.468949056254019],[9.5437560833765929,64.60337011094191],[9.8224620280002455,64.737269028243134],[10.070299611238113,64.854799388581],[10.070404944332779,64.855121778447369],[10.071997277652315,64.859554889346725],[10.073870944088867,64.863968055981047],[10.076024722363115,64.86835808305915],[10.078457139385534,64.872721750108724],[10.08116655569205,64.877055860939265],[10.084151167242624,64.881357222058227],[10.086016193892306,64.883847056296645],[10.149767528448706,64.9664201940368],[10.153203889248118,64.970661805997622],[10.156910444161724,64.97486249970467],[10.160884583356903,64.979019194080593],[10.161581028241926,64.979715693824289],[10.328674721761047,65.144648167179241],[10.497850833249402,65.309389221635342],[10.652969499742653,65.458489639385391],[10.811862306100579,65.625331556006586],[10.875806556027783,65.691829582868991],[10.976397583082019,65.866372028146657],[11.078360167088078,66.04084397197181],[11.15144155598307,66.164404749779408],[11.154178639033034,66.168749666863675],[11.157205667107917,66.173063056415003],[11.160520582558888,66.177341750121741],[11.164121083121529,66.181582611148656],[11.168004693861576,66.185782555720436],[11.169573527896034,66.187386666561451],[11.335943082807091,66.353747027703207],[11.504526443940279,66.519924360620792],[11.643483027919444,66.655117028228346],[11.647913388691961,66.659241777785894],[11.65262438920422,66.663317444144809],[11.65761269387076,66.667341028066062],[11.662874778248465,66.671309583370657],[11.668406888567119,66.675220193557152],[11.674205083098173,66.679069943922855],[11.680265250141247,66.682856055562581],[11.686582972226461,66.686575721692236],[11.693153777924579,66.690226167004084],[11.699972917016566,66.693804722310119],[11.707035417150848,66.697308777777948],[11.714336222338829,66.700735693897229],[11.716802139107472,66.70185155560489],[11.955484056444106,66.808244528262435],[11.795974028278806,66.976279167149926],[11.634246583113395,67.144147417069689],[11.470254638740641,67.311845722102476],[11.439619278207147,67.342896305919851],[11.435626499663272,67.347106777955503],[11.431928610616922,67.35135719427916],[11.428528471811546,67.355644444135862],[11.428419888567078,67.355788528118126],[11.406607971780545,67.384735833292154],[11.403510583446746,67.389057500203535],[11.400716388950229,67.393409721581463],[11.398227582636878,67.397789332711568],[11.396046110639531,67.402193139202041],[11.394173750018581,67.406617999720993],[11.39261202782285,67.411060638937386],[11.391362277746964,67.415517889439116],[11.39042552771599,67.419986472297921],[11.389802694139064,67.424463111283615],[11.389494360676281,67.428944611104953],[11.389500971592611,67.433427638874491],[11.389822667182386,67.43790900020025],[11.390459416868623,67.442385361295464],[11.391410888801545,67.446853499889187],[11.392676638715955,67.451310110972884],[11.39425583294036,67.455752000154746],[11.396147555965001,67.460175860627544],[11.398081250349492,67.464073055627068],[11.398223889121255,67.464342861234115],[11.400701249762903,67.468724028191389],[11.403486971746418,67.473077861154422],[11.404899639406892,67.475110139221613],[11.443459360860857,67.529071305596347],[11.446709055678411,67.533378499718026],[11.450262750125887,67.537650444012854],[11.454117999845892,67.541884082584374],[11.458272139247867,67.546076249819123],[11.462722250031845,67.550223916800348],[11.467465278100178,67.554323999752853],[11.472497833008617,67.558373471558525],[11.477816389414897,67.562369416615354],[11.483417166569041,67.56630886086532],[11.489296193964208,67.570188888706298],[11.495449250182787,67.574006639394952],[11.501871971714195,67.577759333126778],[11.508559721653853,67.581444193694665],[11.515507667045256,67.585058471871037],[11.522710860717723,67.588599556024747],[11.530164056026422,67.592064777867279],[11.537861860636383,67.595451611202975],[11.545798722133384,67.598757528037538],[11.55396880571584,67.601980110993395],[11.562366221723778,67.605116972370411],[11.566350667149607,67.606547139039264],[11.680764944046985,67.646987528151953],[11.687803277599244,67.649414499779425],[11.729137778086056,67.663342972100565],[11.738068444403211,67.666267999968284],[11.747205611250024,67.669099750153407],[11.750310639324596,67.670026889129701],[12.124243443680029,67.779693222264427],[12.204296833032458,67.802927806273317],[12.343892416801623,67.97435844438678],[12.356993082964436,67.990311888682754],[12.360667916990849,67.994577444193737],[12.364649861402029,67.998804139099775],[12.368936083333608,68.002988888726293],[12.37352366718352,68.007128611096562],[12.378409388882233,68.011220222435384],[12.383589777945929,68.01526077836229],[12.385018193634778,68.016327528093029],[12.602675916660303,68.176164360896621],[12.663815000362035,68.220614193890015],[12.66946080567169,68.224576305552091],[12.675394610772742,68.228480167225996],[12.68161213938879,68.232322889389877],[12.688108972251314,68.236101667058335],[12.694880471556587,68.239813694346594],[12.701921750388522,68.243456249906046],[12.709227722181708,68.247026639367959],[12.713458500009835,68.249005388887667],[12.804589305751904,68.290862027660523],[12.812326389151565,68.294310083243829],[12.820314416677036,68.297679166660259],[12.828547611083422,68.300966832653273],[12.837019999973052,68.304170582906124],[12.845725360936683,68.307288110657851],[12.854657388827491,68.310317083066991],[12.863809556365993,68.31325525002984],[12.87317513932129,68.316100444180222],[12.882747277664805,68.31885055570865],[12.886055860989245,68.319765805647478],[13.277511110949035,68.426054388599198],[13.332401500029277,68.440806166871141],[13.581098499696054,68.595208889378796],[13.803680500154996,68.731315528089226],[13.891943582830152,68.808933306027313],[13.896827583226411,68.813052693826819],[13.902019056434369,68.817122693557508],[13.907514361098947,68.821140360839024],[13.913309611249588,68.825102750391693],[13.919400722165619,68.829006889056757],[13.925783306054768,68.832849916990142],[13.93245288878984,68.836629028307073],[13.939404611333771,68.840341417122772],[13.946633528314749,68.843984361189371],[13.954134444349165,68.847555139158374],[13.961901916740089,68.851051139398635],[13.962742971710838,68.851418221973404],[14.28178811103254,68.989100111381106],[14.604834721745078,69.126178167188698],[14.804878333068643,69.209908138849585],[14.813197444206708,69.21327808291727],[14.821772193931679,69.216566582581777],[14.830596360733523,69.21977125014314],[14.839663527949483,69.222889667324353],[14.848967082864647,69.225919556142685],[14.858500194228611,69.228858667393638],[14.868255916577311,69.23170480583218],[14.873318777739428,69.233120971855442],[15.274287833316919,69.342663667094598],[15.679320471962285,69.451269805657034],[15.755633332712193,69.471505333204618],[15.76593319436148,69.474155278243529],[15.776435639093506,69.476706028060789],[15.787132944429914,69.479155721959046],[15.798017222416945,69.481502528019291],[15.809080443907419,69.48374472224117],[15.820314443956477,69.48588061120131],[15.831710889446015,69.487908611193518],[15.831715056005066,69.487909333349137],[16.292398722223311,69.566243999560982],[16.721979750065486,69.637691750174213],[17.126988555777302,69.721102943645974],[17.37589325027335,69.878396860626651],[17.509485028411405,69.961716693770484],[17.515958999608188,69.965610000101492],[17.522739582965414,69.96944172175813],[17.529821943727768,69.973209027674557],[17.533695944312456,69.975178471909032],[17.831323361284149,70.12285636093236],[17.982342056340883,70.196805972417735],[17.984340944379142,70.197773027803066],[18.243354721942922,70.321202638590933],[18.251218305780242,70.32481680615075],[18.259371388578757,70.32835777788921],[18.267808056396746,70.331822916994099],[18.276522193844244,70.335209666692833],[18.285507500270967,70.338515527769459],[18.294757443900949,70.341738027987674],[18.304265278020239,70.344874777848759],[18.314024111123899,70.347923472390391],[18.324026778313225,70.350881832730465],[18.334265971697278,70.353747667221114],[18.34473416664855,70.356518860656934],[18.355423721627517,70.359193332906045],[18.366326721700887,70.361769110855846],[18.377435194378791,70.364244278051046],[18.388740917159623,70.36661699987468],[18.400235583005781,70.368885472286763],[18.407016889417946,70.37015852829353],[18.845983832987542,70.450189110838835],[18.857851221956366,70.45226063891738],[18.869883667097611,70.45422333284057],[18.882072167096908,70.456075722216838],[18.89118494432978,70.457374443975482],[19.387640166560516,70.525251416619653],[19.728501389227802,70.570814556346761],[19.728883556131279,70.57086511083628],[20.231035583325536,70.6363046941064],[20.73642308255927,70.7003587215778],[21.245008167193191,70.763013417435332],[21.747961028079033,70.823218306080037],[22.197897944234796,70.925045082564566],[22.522181083190503,70.997120499711343],[22.531668249989821,70.999162806118647],[22.996354527939161,71.095709110686983],[23.465602444297417,71.191088444176387],[23.698857889280191,71.237721944412272],[23.710801443631794,71.240024888737707],[23.722936556277091,71.242222472089452],[23.735254250183573,71.244313000144871],[23.736295693891236,71.244483472034688],[23.74466502766893,71.245849332680621],[23.75717202796676,71.247821555820224],[23.769842444073561,71.249683611109845],[23.782666806128248,71.251434083016591],[23.795635638873705,71.25307166662418],[23.808739250316194,71.254595166733623],[23.821967916985841,71.256003416924216],[23.835311805695312,71.257295389270837],[23.848760943862544,71.258470082828126],[23.862305332824917,71.259526666622435],[23.875934832726387,71.260464306082895],[23.889639277630636,71.261282333013298],[23.892614138731574,71.261443583254845],[23.977884277637372,71.265961750234624],[23.991672249774581,71.266627221569081],[24.005511888862657,71.267171778155102],[24.01939288867095,71.267595082746936],[24.023806056204592,71.267704028418223],[24.580462166895529,71.279839222002522],[24.644375972073476,71.28112641715046],[25.18895322181379,71.321206555837932],[25.565600278130376,71.347915027556553],[25.579319583432095,71.348810416867309],[25.593110555707653,71.349585972414729],[25.6069628887264,71.35024108265992],[25.620866278056326,71.350775278156618],[25.634810278071939,71.351188166800512],[25.64878449980489,71.351479388862742],[25.662778472448622,71.351648805847788],[25.676781778256498,71.351696221703321],[25.69078388886544,71.35162161124839],[25.704774389226714,71.351425083301024],[25.708448110791721,71.351353194194587],[26.267098666870027,71.338948139245304],[26.824986777717641,71.324894472302105],[27.382019472320849,71.309195972316331],[27.707682861075227,71.29924405566868],[27.72156252808827,71.298746416713811],[27.735394443798612,71.298127721816968],[27.749168221935918,71.297388444021522],[27.753417639112797,71.297135306449263],[28.27944469441718,71.264273917007699],[28.293079000295677,71.263339471939162],[28.294632139361795,71.263225082671511],[28.312667361309707,71.26188630600825],[28.326204527816742,71.260818083188042],[28.33964547226077,71.259631806362847],[28.352980139322028,71.258328361364818],[28.366198611276957,71.256908722159835],[28.379291055837598,71.255373943652614],[28.392247750433398,71.253725194062497],[28.405059000372603,71.251963693769483],[28.417715360975194,71.250090750387869],[28.430207360581278,71.248107749772885],[28.44252580632093,71.246016193792343],[28.4546615556863,71.243817639172789],[28.466605583081218,71.241513693901936],[28.478349111122611,71.239106110758485],[28.489883472144584,71.236596693782474],[28.495504388716597,71.235319360600045],[28.945817000254408,71.130419555717992],[29.391312860899859,71.024447527831228],[29.51189297158345,70.995383389032213],[29.997781889122962,70.911990971606087],[30.333107138883406,70.853280555653157],[30.345041943730791,70.851104638768106],[30.356790749893264,70.8488230002813],[30.368344943664283,70.846437360595758],[30.379695943712875,70.843949471590918],[30.390835389042024,70.841361221842988],[30.401755083230569,70.838674499928288],[30.40721225034514,70.837273417334416],[30.525611889077481,70.806353999637452],[30.536152000114782,70.803515860668483],[30.546452388766795,70.800584527653882],[30.546478083296961,70.800577028207329],[30.951155639021579,70.681033861023934],[31.351033971640504,70.560607888743107],[31.481487971992351,70.520817694181289],[31.491261277885712,70.517744583046124],[31.500779500073918,70.514584000251489],[31.51003566701246,70.511338332598029],[31.519023056269077,70.508010000161448],[31.527735166644675,70.504601443701745],[31.536165693891689,70.501115193911119],[31.54430850013722,70.497553805763573],[31.548359499891035,70.495704417424975],[31.564631082958158,70.488162943764905],[31.572322221793172,70.484492360833826],[31.579711388969486,70.480753416836762],[31.586793333345724,70.476948861001176],[31.593562999832614,70.473081500111221],[31.600015556372853,70.469154194010912],[31.602818916759645,70.467365250006367],[31.607548694216916,70.464300999891293],[31.613531306424704,70.460291722385136],[31.619186083371119,70.456229694245053],[31.624509027569616,70.452117860750718],[31.629496471584957,70.447959277798475],[31.634144917054357,70.44375700038529],[31.638451166887876,70.439514111387211],[31.64241230638288,70.435233721559086],[31.646025582714515,70.430919000111828],[31.649288610880717,70.426573082981463],[31.652199221716785,70.422199194237464],[31.654755471787666,70.417800471614555],[31.656955778286601,70.413380221919738],[31.658798722083418,70.40894161076676],[31.66028319431399,70.40448791708377],[31.661408361306883,70.400022389221931],[31.662059444387921,70.396374694036979],[31.662169083436481,70.395621582869808],[31.662640582696781,70.391142916812214],[31.662751806350855,70.386661583365424],[31.662502917175914,70.38218088933661],[31.661894306377178,70.377704056097343],[31.660926667331864,70.373234388656158],[31.65960094432819,70.368775111082584],[31.657918332565032,70.364329499606754],[31.655880278152381,70.359900721641054],[31.653488527573529,70.355492056113576],[31.650744999981839,70.351106666839257],[31.647651916702671,70.346747750008717],[31.644211777851297,70.342418444255827],[31.640427249917707,70.33812188911395],[31.636301306060489,70.333861222317637],[31.632197194145249,70.329967111093367],[31.540706721637946,70.246086806061328],[31.467230667061699,70.107536749821179]]},"properties":{"FID":0,"OBJTYPE":"Fiskerigrense","NAVN":"10 nautiske mil"}}]}