{"type":"FeatureCollection","features":[{"type":"Feature","id":0,"geometry":{"type":"LineString","coordinates":[[10.240073638787464,58.564399083051285],[10.210383082613248,58.560336889435973],[10.024202667219356,58.511097917434995],[9.7939087778678413,58.378197778204935],[9.56534849993335,58.244881332907255],[9.3385051671797896,58.111153722066661],[9.2245991673177627,58.043468250159663],[9.2132032776092387,58.036828667009445],[9.2015328329738963,58.030325638717329],[9.1895938058095226,58.023962389352846],[9.1773922215738253,58.01774208273099],[9.1728410557701636,58.015491499633072],[8.9917792496127049,57.92633469409094],[8.9839352224325921,57.922511056440158],[8.7584679720193321,57.813610249613362],[8.7458974166325447,57.807643833296311],[8.7330826944108821,57.801828556142993],[8.7200302498961832,57.796167305876509],[8.7067466112671354,57.790662889280952],[8.6932384721778249,57.785317971946881],[8.6795125829394237,57.780135250041837],[8.6655757496212118,57.775117249761308],[8.651434943767697,57.770266444241088],[8.6370972502379573,57.765585194201378],[8.6225697224148234,57.761075833383074],[8.6078596106326017,57.756740610990448],[8.5929742218828551,57.752581582873802],[8.5779209171166713,57.748600832762293],[8.5740114436732142,57.747603139273508],[8.5152687222737882,57.732702555578555],[8.511555999809616,57.731766139195997],[8.3380787781131858,57.688148222262726],[8.3228358063274754,57.684410833193454],[8.3074427224037777,57.680856166578906],[8.3028573886576282,57.679839000069876],[7.9932931388673296,57.611297666753956],[7.9736428055710462,57.606912333237631],[7.9628148611170104,57.604547528145986],[7.9236981112788385,57.596186111100224],[7.9080959997306763,57.59295533262258],[7.8923651394396757,57.589911889222378],[7.8765132780653744,57.587057250391865],[7.8665096935675365,57.585363306271631],[7.8355429436520012,57.580242360596515],[7.8195152783075059,57.577694028156941],[7.8033871110263817,57.575337943791112],[7.7871663063799588,57.573175306295411],[7.7708608611398517,57.571207166977217],[7.7544787783729703,57.569434471923387],[7.7380280557502488,57.567858082684438],[7.72151683303548,57.566478805952215],[7.7049531393759025,57.565297306325704],[7.6957873327193056,57.564729861094293],[7.6464147781195493,57.561828389168852],[7.6297882776069628,57.560948443915606],[7.6131298331753214,57.560267527624376],[7.596447555810073,57.559786027902931],[7.5797496671135036,57.559504111125875],[7.5630443329296781,57.559421943667815],[7.5503962775662217,57.559492639373843],[7.216298972020013,57.562429028377039],[7.1923361107229766,57.562605499644121],[7.1756336390812407,57.562826805712575],[7.158944332614908,57.563247806241293],[7.1422763607654929,57.563868250319558],[7.1256378605988289,57.564687860956099],[7.1090369997577909,57.565706221764799],[7.0924819171068521,57.566922832722582],[7.0759807218328774,57.568337083189874],[7.059541499740476,57.569948332849322],[7.0481161113694952,57.571188361253917],[6.851804638873034,57.593181056160859],[6.8354687776620153,57.595099277709551],[6.8192155560531091,57.597212278024244],[6.8030529717173067,57.599518971623297],[6.7869889719635239,57.602018221763558],[6.7710314438460841,57.604708861125118],[6.7551882501376781,57.607589500255301],[6.7394671672760182,57.610658749701599],[6.7238759438197917,57.613915139072446],[6.719657778084013,57.614833221875756],[6.409358749806529,57.682447194082783],[6.3890130562076024,57.686845000296557],[6.3836339439513949,57.688020083260312],[6.3747430834266083,57.689983305984811],[6.3593138611458357,57.693497528288333],[6.3440330557809261,57.697194889432637],[6.3289082504154521,57.701073555700077],[6.3139469435965907,57.705131639413707],[6.2991565277516202,57.709367110803555],[6.2845443062747677,57.713777916717561],[6.2779487215562995,57.715844833072651],[6.2433625277585065,57.72680150018914],[6.2290138607011727,57.73145966732983],[6.2148609436776496,57.736287721800977],[6.2009108606477525,57.741283305580168],[6.1871705561762838,57.746443943733084],[6.1736468606141557,57.751767110963442],[6.1603465557490154,57.757250193841401],[6.1472762776781451,57.762890444038817],[6.1396283332809958,57.766312138694275],[6.1080483608432132,57.78062183273147],[6.0953480278892016,57.786503611152796],[6.0947403613786264,57.786791750339034],[5.8425858326700677,57.905828472406142],[5.5887570558934385,58.024356278019866],[5.3744845276389128,58.123409000325182],[5.3618043332034517,58.129375943644959],[5.3493768329744853,58.135491082647377],[5.3372082781395989,58.141751361436263],[5.3308183611785012,58.145152778178215],[5.3198611670592868,58.151053611435088],[5.3080978062687905,58.157529472107512],[5.2966087503935455,58.16414255583436],[5.2930415283439061,58.166257111076845],[5.1316616387736644,58.262232860558129],[5.1204812221307634,58.269007166647498],[5.1095885831466603,58.275911306061971],[5.1092049719319448,58.276160222216561],[5.0672552776090356,58.303375416942004],[5.0566500556556093,58.310406972304008],[5.0463438609804712,58.317561444305284],[5.0363419995836693,58.324835305804754],[5.0266496110907042,58.332224972104825],[5.0172716939335942,58.339726749689817],[5.0082131674038237,58.347336944144729],[4.9994786666072173,58.355051693780695],[4.9966024170679475,58.357680500254958],[4.8843864438793503,58.460787610959528],[4.8760430834216208,58.468628833154185],[4.8680348607202859,58.47656591678367],[4.8608841937505645,58.484037971775024],[4.8500591666972355,58.495644417056269],[4.8427048887197088,58.50375466694436],[4.8356977220722683,58.511949082584124],[4.8290414169279074,58.520223582852111],[4.8227395004276445,58.528573972410925],[4.8174918888396405,58.535978667281711],[4.7616302778151294,58.617041499765435],[4.7559769173009272,58.625520693825024],[4.7506879998513796,58.634063861158324],[4.7457665004237128,58.642666694012746],[4.7415838327277697,58.650594193567258],[4.6772340281279412,58.777151582579506],[4.672992221913546,58.785854388569248],[4.6727006113441689,58.786484306105876],[4.6492420277974134,58.837265250291125],[4.6176749165641695,58.859203138713951],[4.3785785277768809,58.953098805765308],[4.3648367780948547,58.958592917029534],[4.3513333325672647,58.964243888944395],[4.3380749720823246,58.970049000161282],[4.3250683327374304,58.976005333279545],[4.3123200002678459,58.982109971797797],[4.2998363607595138,58.988359917376329],[4.2876237499361309,58.9947520556629],[4.2756883326504749,59.001283249822166],[4.2640361667357638,59.007950277583291],[4.2526731940127434,59.014749833038422],[4.2416051944242099,59.021678528441385],[4.2308378327998071,59.028732943670491],[4.2203766111916821,59.035909610939825],[4.2102269444180251,59.043204971632179],[4.2003940278621599,59.050615388889128],[4.1962042780050979,59.053883805793077],[4.1946181940744509,59.055134222266588],[4.1852484166811337,59.062703306012793],[4.1762075564336101,59.070378417130314],[4.1675002781153694,59.078155693930171],[4.159131194349186,59.086031306199857],[4.1511046668469476,59.094001305915583],[4.1434249718849969,59.102061750449479],[4.1360961393254456,59.110208582959785],[4.1291220830177622,59.118437778081045],[4.1225065558329561,59.126745194435216],[4.1162531109923179,59.135126694241592],[4.1103651389400397,59.143578110941121],[4.1048458889266612,59.15209519433779],[4.0996983610905318,59.160673694235641],[4.0949254170743643,59.169309305580043],[4.0905297503477414,59.177997666659053],[4.0865138331469097,59.186734472418038],[4.0828800001119703,59.195515306286438],[4.0796303610523523,59.204335777773963],[4.0767668612017474,59.213191417250187],[4.0743741942137603,59.22175505585119],[4.0710814173735344,59.234516693790454],[4.0689793609088269,59.243428361030112],[4.0672681668924611,59.252361999606649],[4.0659490278254111,59.261313056252618],[4.0650228610162458,59.270277000183455],[4.0644905280154831,59.279249360869358],[4.0643525279468804,59.288225556264479],[4.0646093059747272,59.29720105558431],[4.0652609996954538,59.30617130556135],[4.066307610907586,59.315131778109105],[4.0677489435589678,59.324077889383148],[4.0695845282034497,59.333005167054864],[4.0718137497048588,59.341909028179145],[4.0744358328474277,59.350784943770179],[4.0774496939482674,59.359628417217721],[4.0808541108286249,59.368434943817647],[4.0841987218935287,59.376209860796507],[4.0944475560099249,59.398928500150191],[4.0985902218612864,59.407652721695797],[4.1031189999419553,59.416327083028534],[4.1080319171393285,59.424947110920471],[4.1108068328691161,59.429518167029812],[4.2174916391278998,59.600662749686194],[4.2709238332683412,59.68570100020105],[4.2570857500073771,59.748552222207366],[4.2002099717128658,59.925773028402602],[4.1427166937205016,60.102963611081861],[4.1010690277134927,60.230108194437662],[4.004762028245068,60.403139832637237],[3.9074197220425617,60.576095527586574],[3.8090241109740077,60.748973999550515],[3.7095567499441131,60.921774000269977],[3.7090338328451367,60.922677249655408],[3.7042318056533645,60.931341805679835],[3.6998290279872776,60.94005658344463],[3.6958280557202556,60.948817222137166],[3.6922311668349153,60.957619306086144],[3.6890405826567871,60.966458389043453],[3.6862581935608318,60.975330083216818],[3.6838857784060224,60.984229917177004],[3.6819248327648779,60.993153361038821],[3.6803767218083294,61.002095944272469],[3.6799389723057629,61.005181972370167],[3.6791721114038864,61.010910972163686],[3.6781804442721295,61.01987216686706],[3.6776161106949985,61.028553277611707],[3.6759511112548466,61.067611971715166],[3.6757764170480414,61.076585611237022],[3.6760185001537025,61.085558861352411],[3.6765286936443431,61.092919222344278],[3.6924721671568363,61.272235528047247],[3.7085903060977898,61.451545361329408],[3.7248864721330506,61.630848667332202],[3.7285621110526108,61.671017777748318],[3.7295958889391727,61.679977528140455],[3.731054332991107,61.68892397216365],[3.7329371113586376,61.697852499893031],[3.7352436107041171,61.706758639000043],[3.7379730279329237,61.715637805640256],[3.7411243612003773,61.724485499606203],[3.7446963325697311,61.733297250367855],[3.7486875004278772,61.742068500161224],[3.7530961938343239,61.750794806335307],[3.7579204720522057,61.759471721742614],[3.7631582783319004,61.768094806430213],[3.7688072501545093,61.776659639330944],[3.7748648334453492,61.785161832652534],[3.7813282780776376,61.793597056159285],[3.7871192222743275,61.80068747214915],[3.9279903891451795,61.967380499710373],[4.0310358333371141,62.088087000214955],[4.0315995283955885,62.088742805636002],[4.1117071936321281,62.181394139228189],[4.1191220562379272,62.189670666568077],[4.1238668613665936,62.194705860986744],[4.2769825281212093,62.353253500348842],[4.2851256392369237,62.361389111118626],[4.2936650833769363,62.369437000217431],[4.3025968612561769,62.377393055944822],[4.311916611162701,62.385253166600421],[4.3216198607680099,62.393013278040428],[4.3317018886313008,62.400669417059987],[4.3343068333936685,62.402585582758491],[4.5409186936428227,62.552698056170414],[4.5515729996942014,62.560202582982868],[4.5625958326316436,62.567593750251433],[4.5739817776369591,62.574867693589226],[4.5857251671827726,62.582020667320023],[4.5978201943465251,62.589048943753824],[4.6102608057915972,62.595948916609245],[4.6230408330680461,62.602716943632117],[4.6316643062627918,62.607112833390602],[4.8961577223010977,62.739078333298494],[5.163012055661909,62.870541667064344],[5.3483512497104471,62.960867388918928],[5.3581984717820887,62.965566916779835],[5.6338341669133456,63.094120388844942],[5.6364259168226454,63.095321277854737],[5.6504305833047965,63.101663472291477],[5.6647526942814466,63.107859861443501],[5.6793849724385836,63.113907250019622],[5.6943200001679202,63.119802472406207],[5.7095501943859972,63.12554244392868],[5.7250676941188203,63.131124167146652],[5.7298886106709119,63.132805777964336],[6.0459490278254293,63.241496056198116],[6.3643802503483471,63.349480639120259],[6.5185694171449313,63.401226000079873],[6.7516248331195925,63.54727383282119],[6.9838708889304257,63.690973667001174],[7.0563926108303576,63.744683249832178],[7.0670024166282701,63.752324583312941],[7.0780034715829743,63.759857444165789],[7.0893904436141497,63.767277916742501],[7.0984379723345796,63.772925027867814],[7.3370579173890178,63.918172167211821],[7.5781483612578882,64.063021666816553],[7.7241606114231445,64.149831111416688],[7.7365412218999268,64.156990305758086],[7.7492940833553234,64.164025027632988],[7.7624128609647869,64.170931582626508],[7.7758909716910125,64.177706416617866],[7.7851928062030993,64.182205222093387],[7.7945828606106033,64.18667588868135],[7.80865225040111,64.193221221981844],[7.8230624715558861,64.199625500216712],[7.8378062503581987,64.205885416578781],[7.8528761386229462,64.211997666958837],[7.8636490283799958,64.216199750118449],[8.1740144167320068,64.334485056240396],[8.4870412497539292,64.452108582744927],[8.6143725557489006,64.499479055813822],[8.8874273611838248,64.635116805995835],[9.1632073327522789,64.770245278197081],[9.441746222010579,64.904856249916065],[9.5742855001757334,64.96825855578777],[9.6268094168211746,65.038015027871268],[9.6334900558214827,65.046528361095056],[9.6406267779035488,65.054975749731113],[9.6482163607964821,65.063352778108253],[9.6546311107372276,65.070020472267061],[9.8191345283358373,65.235513138720421],[9.9856986389810345,65.400821555670291],[10.134482417129902,65.5465966114445],[10.290572917106488,65.713975083383446],[10.334697943755145,65.760874443900548],[10.431872693669902,65.935765889084564],[10.530373888744009,66.110591943663337],[10.591441721858018,66.217759583338136],[10.59668708334226,66.226473638947311],[10.60242063910124,66.235137639190725],[10.608639971757327,66.243747138719527],[10.615342332982323,66.252297749741388],[10.622524833254488,66.260785082665507],[10.630184222423964,66.269204749699497],[10.633879611355042,66.273067139137197],[10.797254722427567,66.43999497159075],[10.962814972033357,66.606747500097129],[11.099278833151686,66.742404916653641],[11.107942889153037,66.750692360863809],[11.117082500357128,66.758900138630565],[11.126693444446971,66.767024027636808],[11.13677119423528,66.775059833444629],[11.147311000402397,66.783003388595546],[11.158307860919081,66.790850611066901],[11.169756500362269,66.798597417037229],[11.181651416679586,66.806239778443057],[11.193986861404596,66.813773749958671],[11.206756806381577,66.821195416835053],[11.219955000422999,66.828500888605163],[11.233574972007375,66.835686389015677],[11.247609999601877,66.842748193974046],[11.26205308288354,66.849682556005234],[11.273847749973754,66.855113833436747],[11.277778083192061,66.856890499896735],[11.113276666584966,67.024228943910714],[10.946487389081767,67.191390193602615],[10.87816700030686,67.259146777601757],[10.869962528447957,67.267532499725121],[10.862242221901056,67.275987110816573],[10.855010444176685,67.284506417337354],[10.850639527692124,67.289991888814654],[10.828191056372191,67.318859416928603],[10.821753471745353,67.327474638843569],[10.815815332811383,67.336143361427048],[10.810380138832386,67.344861194188809],[10.805451166937871,67.353623832973597],[10.801031472124805,67.362426861210736],[10.797123806318666,67.371265832652114],[10.793730693916416,67.380136361304096],[10.790854417397497,67.389034000019137],[10.788497000236418,67.397954221610121],[10.786660250070554,67.406892556446394],[10.785345639089996,67.415844499823891],[10.784554417352524,67.42480552815266],[10.784287583105538,67.433771110648308],[10.78454586120256,67.442736749801213],[10.785329749868083,67.451697860867625],[10.786639389396328,67.460649916660373],[10.788474722230717,67.469588361213937],[10.790835444400273,67.478508667341202],[10.793720888608163,67.487406306056243],[10.79713022208216,67.496276722292976],[10.801062278401503,67.505115416743138],[10.80305399974236,67.509184888571781],[10.803190139113667,67.509455222080874],[10.807883750334838,67.518239388836776],[10.813096083317646,67.526980778440247],[10.818603610668163,67.535353639359016],[10.855922056357883,67.589450722073195],[10.86217400022997,67.598093582852641],[10.868938805881214,67.606680306151247],[10.876213500152971,67.615206499680255],[10.883994917431551,67.62366777834535],[10.89227961061556,67.632059777736629],[10.901063833129456,67.640378166719074],[10.910343582990038,67.648618667217761],[10.920114583021643,67.656777028137412],[10.930372306037157,67.664849028060246],[10.941111917281205,67.672830500427324],[10.952328360765307,67.680717305659186],[10.964016306207611,67.688505332954833],[10.976170139140663,67.696190556049373],[10.988783999581983,67.703768999939427],[11.001851778436901,67.711236721997182],[11.015367083324293,67.718589805675037],[11.029323306025788,67.725824444142859],[11.043713582915586,67.732936861147266],[11.058530805752127,67.73992336137411],[11.073767583007623,67.746780250408278],[11.089416306417434,67.75350397233052],[11.105469167168394,67.760091027878673],[11.121918083053117,67.766537916891423],[11.138754777610927,67.772841305581835],[11.148321582974745,67.776297305776097],[11.2628391937738,67.8170293612161],[11.279751943997042,67.822896693827431],[11.32114841676605,67.83692797214826],[11.339007138668592,67.842837277918079],[11.357222443560943,67.848591444339718],[11.372079832818088,67.853091277740305],[11.670823667278455,67.941275249753005],[11.763047000019071,68.057723972083693],[11.770148360758299,68.066287110661676],[11.777768582654005,68.074788027845273],[11.785904332818745,68.083222306164544],[11.794551943817225,68.091585610887307],[11.803707555759161,68.09987361087849],[11.813366943629603,68.10808208292184],[11.823525693555951,68.116206721962726],[11.828997971978879,68.120392443756316],[12.043754167321026,68.280954667024332],[12.104076943596112,68.325604082962116],[12.115179139006102,68.333575055744291],[12.126771610621404,68.341450917126167],[12.138848860886242,68.349227556306744],[12.15140511075731,68.356900944323172],[12.164434332978146,68.364467082789702],[12.177930222401869,68.371922083037759],[12.191886167212886,68.379261971862547],[12.20629533256357,68.386482999990506],[12.221150638990821,68.393581360591384],[12.222297888836522,68.394115806099649],[12.313101139006392,68.436238666681163],[12.328484556117417,68.4431925826716],[12.34429888878276,68.450015971959601],[12.360536222069015,68.45670524984746],[12.377188471970442,68.463256917073124],[12.394247249610942,68.469667556212812],[12.41170388912326,68.475933805600675],[12.429549611325569,68.482052333248646],[12.447775306085532,68.488019943865368],[12.466371694198358,68.493833499716288],[12.485329250044913,68.499489944005745],[12.504638278034179,68.504986278394085],[12.508716138738862,68.506114193715121],[12.850557778019095,68.59945994422111],[13.097683832942607,68.754570221838321],[13.227042971655862,68.834771444446687],[13.29576608313829,68.8966147782495],[13.305300610934523,68.904895027883299],[13.315357082763228,68.913095333183151],[13.32593086082062,68.921211416973392],[13.337017111250759,68.929239083017308],[13.348610555932453,68.937174194433567],[13.360705778249098,68.945012638622416],[13.373297000056539,68.952750305682116],[13.386378221977395,68.960383193629525],[13.399943110985816,68.96790733285718],[13.413985083145121,68.975318805918221],[13.42849733328535,68.982613722345491],[13.443472721688806,68.989788305885668],[13.45890383344522,68.996838777587584],[13.46405472204782,68.99911991695069],[13.782111582883317,69.13772894443531],[14.104211361265357,69.275742666590872],[14.303678805732375,69.360043249996068],[14.320235167219266,69.366843943992876],[14.337231528312429,69.373509888970261],[14.35465938861995,69.380037610847126],[14.372509971657905,69.386423639139707],[14.390774250031654,69.392664639161808],[14.40944297241532,69.398757305905008],[14.42850663927004,69.404698471956976],[14.447955500146236,69.410484943825168],[14.467779639119101,69.416113694391527],[14.468028306161443,69.416182639117551],[14.870350777566387,69.526658693943602],[15.27682227842547,69.63620036125775],[15.353396332874524,69.656606582827578],[15.374042805631007,69.661969388576495],[15.395041166916371,69.667166749645844],[15.416380527739193,69.672195943787813],[15.438049832733668,69.677054278432252],[15.460037806199864,69.681739194108559],[15.482332944010182,69.686248194298798],[15.504923667393371,69.690578888604875],[15.527798110694278,69.694728999943436],[15.537033443938356,69.696339471689328],[16.001169388956157,69.775444389247241],[16.404553722276489,69.842735278210569],[16.623259055660924,69.888068639356277],[16.870349082843973,70.046066027625159],[16.913040972363035,70.073089888887296],[16.925785111293919,70.080929110989757],[16.939052972216928,70.088667610821631],[16.952838194227354,70.096301389097903],[16.967134194287667,70.103826388976699],[16.970580721922829,70.105585471892084],[17.266049444026692,70.254195944387391],[17.415983417300936,70.328613500113022],[17.420747500296955,70.330949361423961],[17.678028610731872,70.455181472347135],[17.693611944435759,70.462470167264485],[17.709692444051086,70.469638278383911],[17.726262193745299,70.47668202765351],[17.743313055553131,70.483597721557658],[17.76083652818329,70.490381722338668],[17.778823889111266,70.497030500157507],[17.797266083063334,70.503540499994131],[17.816153889290604,70.509908333203043],[17.835477694040378,70.516130639017831],[17.855227749561038,70.522204110631264],[17.87539397175442,70.52812555634938],[17.895966083168275,70.533891833041707],[17.916933527560275,70.53949991718747],[17.938285499576182,70.544946805950417],[17.960011028386305,70.550229610708016],[17.982098832894849,70.555345556152531],[18.004537499805849,70.560291917338191],[18.027315333435922,70.565066027775003],[18.050420471727421,70.569665389146451],[18.071463056275093,70.573649332750563],[18.513523693763489,70.654484722192251],[18.53740477790825,70.658688139046433],[18.561574833112104,70.662709277711031],[18.586021110585818,70.666545943840276],[18.610730777903143,70.670196111261589],[18.6228753613089,70.671908333203078],[19.123738111424757,70.740509860841485],[19.467650944235743,70.786560056301596],[19.468576416768258,70.786682694151068],[19.975316889363,70.85282947190268],[20.485395916988011,70.917580527919085],[20.998775306335347,70.980921639422149],[21.417607861014005,71.031256388571535],[21.870604055832587,71.133880193716038],[22.1184653056294,71.189120805780647],[22.14135969409466,71.194070721986293],[22.608769333238172,71.291583277945961],[23.080862416767161,71.387927193685073],[23.315543750343863,71.435031249792416],[23.33955358323135,71.439702166621771],[23.363898639310833,71.444196749780247],[23.388566139215982,71.448512610668502],[23.406034666866447,71.451428778415448],[23.414470250101999,71.452809250346661],[23.439659833434632,71.456814749800913],[23.465136388633482,71.460635471849628],[23.490886416874673,71.464269417299818],[23.516896332999409,71.467714583361385],[23.543152333313571,71.47096916689361],[23.569640444151219,71.474031389037407],[23.596346610907403,71.476899611228134],[23.623256555945375,71.479572333396504],[23.650355971950603,71.482048083352424],[23.677630360952435,71.484325556179556],[23.705065110766327,71.486403500021538],[23.732645583127237,71.488280832994121],[23.760356971596991,71.489956500192363],[23.773133471732365,71.490658805959185],[23.85939158335492,71.495230693941437],[23.887280167046129,71.496597861302291],[23.9152620562989,71.497761333119058],[23.943322250421545,71.498720471772401],[23.970907527860163,71.499462277562088],[24.534256778127883,71.511743721595508],[24.537428167176245,71.511808111255391],[25.088347749848822,71.552187443595699],[25.409006388933733,71.574882832776552],[25.436744694112406,71.576715110613918],[25.464611194051429,71.57834547176617],[25.492590971696018,71.579773111340046],[25.520668972395185,71.580997249623408],[25.548830138799929,71.582017194138245],[25.577059305642479,71.582832416982512],[25.605341305856655,71.583442499971454],[25.633660888739087,71.58384708337627],[25.662002861143151,71.584045972044009],[25.690351972365704,71.584039028378527],[25.718692888965677,71.583826277560718],[25.747010443876945,71.583407832905209],[25.755931722171283,71.58323327809336],[26.321325138644283,71.570678056147415],[26.885927583391322,71.556454500075176],[27.449642611317529,71.540566471565455],[27.779161306449168,71.530495860595522],[27.807258499580144,71.529509056098107],[27.835275222273765,71.528317972396565],[27.863196417180973,71.526923305566129],[27.890212138679317,71.525374333059062],[28.422239750364213,71.492123860927506],[28.449830082892049,71.490253000375731],[28.459100056222667,71.489576971899794],[28.477335889040091,71.488222472389225],[28.504724750047217,71.486080916800915],[28.531948527902273,71.483740250412268],[28.558992694057622,71.48120166662369],[28.585842806300548,71.478466610645626],[28.612484527638912,71.475536471930695],[28.638903721629504,71.472412889043653],[28.665086277909438,71.469097471770965],[28.691018333429383,71.465592055628917],[28.716686110575608,71.461898500415543],[28.742076055665507,71.458018749565724],[28.767174777793798,71.453954917385602],[28.791969028148173,71.449709166744697],[28.816445750371145,71.445283750444787],[28.840592139016053,71.440681056185838],[28.864395528031253,71.435903500446273],[28.887843499577912,71.430953693957861],[28.910923860647699,71.42583422227159],[28.919890639241657,71.423776527564769],[29.372261000344963,71.317859333141769],[29.81969783268886,71.210871333045645],[29.895118110912165,71.19261600022827],[30.384239528231717,71.108219306275998],[30.671921332803322,71.05763947208402],[30.695991278174972,71.05326077826237],[30.719741028026078,71.048704221922378],[30.743158110558397,71.043972250119282],[30.76623036064268,71.039067333290859],[30.788945721967536,71.033992138826193],[30.811292389132518,71.028749361094185],[30.833258832828903,71.023341750221675],[30.850747444139301,71.018847361316716],[30.969534527896201,70.987645167090818],[30.990716582904042,70.981933194161627],[31.011486888708987,70.97606497212081],[31.019738778222063,70.97365652832616],[31.425069861385055,70.853076388864338],[31.825510639004847,70.731619138812277],[31.956111666819993,70.691496805733038],[31.97571774987432,70.685313889324561],[31.994886527691165,70.678984500334479],[32.013608277699916,70.67251205618652],[32.031873610978437,70.665899916747833],[32.0496733058784,70.659151556099516],[32.06699852835942,70.652270583220911],[32.083840638634626,70.645260555830021],[32.10019127840485,70.638125167442581],[32.116042443703861,70.630868194311802],[32.116254556003014,70.630768667240261],[32.132421722384606,70.623176971839825],[32.147747000124014,70.615799250335215],[32.162557611144905,70.608307694444591],[32.176846332991943,70.600706193735903],[32.19060630563655,70.592998722313268],[32.203830972121693,70.585189306441407],[32.216514083058541,70.577282028143145],[32.223145583102223,70.572966277871501],[32.227805750335165,70.569886139433834],[32.239639194393362,70.561835805977694],[32.250916583133858,70.553698167236689],[32.261632749951502,70.545477388870438],[32.271782860990299,70.537177805611293],[32.281362306325434,70.528803638876866],[32.290366888820927,70.520359278258127],[32.298792638869259,70.511849055789355],[32.306635999651689,70.503277361061407],[32.313893639180151,70.494648582765933],[32.320562556416917,70.48596722200972],[32.322306779834094,70.483328639904869]]},"properties":{"FID":0,"OBJTYPE":"GrenseSjø","NAVN":"Yttergrense for tilstøtende sone 24nm"}}]}