{"type":"FeatureCollection","features":[{"type":"Feature","id":0,"geometry":{"type":"LineString","coordinates":[[3.248568718971228,56.085989264393106],[3.0656260500022654,56.233777930107465],[2.8812705802731102,56.381290549819084],[2.6954861004032864,56.528523439904859],[2.6118644403916846,56.594331139970166],[2.5286156303071152,56.767993429553201],[2.4445946398308251,56.941594809852631],[2.3597893299136672,57.115134400432282],[2.2741873600586473,57.288611300171397],[2.1877761703340184,57.462024589962937],[2.1005429400047433,57.635373359692835],[2.0124745101905432,57.808656649784609],[1.9634542703983016,57.904366010183253],[1.8167146899310183,58.066138540161546],[1.6686428196105112,58.227736439784906],[1.5192194598102446,58.389157080335053],[1.4817489801313855,58.429378319953571],[1.5280426103782361,58.607290440401584],[1.5748087300389102,58.785180860208584],[1.6220555202461355,58.963049270007843],[1.6697912898362119,59.140895419787853],[1.7100402096879748,59.289411830391714],[1.8120110395778397,59.461234599896898],[1.9150216098594797,59.632972510273191],[2.0190893502933136,59.804624260201479],[2.0750121601831211,59.896106209833761],[2.0412869404399885,60.074822389841472],[2.0071948602546286,60.253525089911022],[1.9727292502547584,60.432214159855675],[1.937883289981869,60.6108894998506],[1.9026499997976885,60.78955093992397],[1.8670221896223893,60.968198310103958],[1.8309925398738756,61.146831519559043],[1.794553560098791,61.325450329968817],[1.7882458402733619,61.356163530422634],[1.6845706701004133,61.528637550282781],[1.5797402802897409,61.701027679583774],[1.5582155997701648,61.736177509984145],[1.5519487901046318,61.736177429944519],[1.4351179701182559,61.906925059943603],[1.3170225495510408,62.077587099664981],[1.197550679720166,62.248123100300916],[1.1761778901975504,62.278417980205688],[1.1401462799269098,62.327527850030322],[1.1060455095926613,62.372051459807096],[1.0720559296374859,62.415297230083183],[1.0364523903655822,62.458670779632826],[0.99984323997358615,62.502285979714259],[0.96161734956109512,62.54602618016412],[0.91062906038285973,62.605322400108719],[0.85637391012789976,62.665668629803463],[0.78920380011533098,62.737426269706646],[0.63925129001506775,62.891091799946651],[0.55677173033114968,62.972085749757582],[0.46829180042630014,63.055324160081966],[0.29070958008310299,63.215754499570551],[0.11115040976363844,63.375957000315395],[-0.07041887033454941,63.535927609971282],[-0.18504761035887896,63.635887070132242],[-0.30423551026052564,63.736486940220175],[-0.4317322897133522,63.840395190385777],[-0.49069549699953541,63.887074149552404]]},"properties":{"FID":0,"OBJTYPE":"GrenseSjø","NAVN":"Avtalt avgrensningslinje Norge-Storbritannia"}},{"type":"Feature","id":1,"geometry":{"type":"LineString","coordinates":[[30.817652777753551,69.794838888803724],[30.889075806003689,69.84114438920227],[31.063023249923106,69.952952888564994],[31.10432777780477,69.979302778100759],[31.1050863055886,69.979573222226463],[31.225306721627931,70.02230947170483],[31.444799999620329,70.099677777707313],[31.467230667061699,70.107536749821179],[31.505397222004262,70.120888888911168],[31.585588972053472,70.143751055566838],[31.775991666682103,70.197688889031042],[32.073055555869246,70.274708332723435]]},"properties":{"FID":1,"OBJTYPE":"GrenseSjø","NAVN":"Avtalt avgrensningslinje Norge-Russland i Varangerfjorden"}},{"type":"Feature","id":2,"geometry":{"type":"LineString","coordinates":[[10.756454932749023,58.913444543730748],[10.640039806391997,58.892477278303829],[10.638923706363983,58.892275644005849],[10.62750375169685,58.859553526274283],[10.604570417191042,58.793936611085769],[10.593133778301251,58.761072000272634],[10.593095556215019,58.76096205635389],[10.357119727693316,58.629924753024966],[10.240073638787464,58.564399083051285],[10.145005500403556,58.510918178031545],[10.063670168843259,58.336497625065419],[10.028678119099993,58.260908089037116]]},"properties":{"FID":2,"OBJTYPE":"GrenseSjø","NAVN":"Avtalt avgrensningslinje Norge-Sverige"}},{"type":"Feature","id":3,"geometry":{"type":"MultiLineString","coordinates":[[[32.073055555869246,70.274708332723435],[32.271400444075311,70.441093832614342],[32.322306779834094,70.483328639904869],[32.473009832637729,70.607255916627309],[32.677963943781037,70.773188917234791],[32.886345389228381,70.938886943877435],[33.098239443595503,71.104343971996741],[33.313733943666591,71.269553666768388],[33.532919499735158,71.434509555771456],[33.755889638595988,71.599204943553332],[33.982740721706989,71.763632861267581],[34.213572222180346,71.927786138619467],[34.448486805721586,72.091657305840045],[34.68759033332725,72.255238722289278],[34.930992139175942,72.418522332739542],[35.178805055808709,72.581499917387362],[35.431145499565218,72.744162917384813],[35.6881336936151,72.906502471711747],[35.894139971982156,73.034280889151773],[35.949893833433691,73.068509332639621],[36.216554056224766,73.230174056387625],[36.476220919659738,73.384417859696498]],[[36.999999999900126,74.937705555866785],[36.999999999900126,74.940698806304908],[36.999999999900126,75.11988030633114],[36.999999999900126,75.19472222155332],[37.265404278085043,75.360708749809021],[37.536753388857846,75.526385416653739],[37.814242166742645,75.691741583107614],[37.999999999700265,75.800205555941716],[37.999999999700265,75.979373833235854],[37.999999999700265,76.158539444040173],[37.999999999700265,76.337702417132903],[37.999999999700265,76.516862805574078],[37.999999999700265,76.696020639041308],[37.999999999700265,76.825024999704056],[37.999999999700265,76.875175916635328],[37.999999999700265,77.05432869411402],[37.999999999700265,77.233479000255727],[37.999999999700265,77.41262686114078],[37.999999999700265,77.591772333426491],[37.999999999700265,77.77091541711286],[37.999999999700265,77.950056139179537],[37.999999999700265,78.129194583263484],[37.999999999700265,78.308330722384994],[37.999999999700265,78.487464639281711],[37.999999999700265,78.624861110851668],[37.414103000153375,78.762289610876905],[36.81395308256873,78.898543444324559],[36.199148249991822,79.033578916733688],[35.569279443991206,79.167350582663289],[34.998888888811223,79.284658332915797],[34.998922139445256,79.463780555927997],[34.998956527721646,79.642900777948626],[34.998992111197026,79.822018971998034],[34.999028943830751,80.001135193834159],[34.999067138937392,80.180249472235403],[34.999106721697899,80.359361861161005],[34.999147778447252,80.538472389389312],[34.999190417104103,80.717581083000653],[34.999234722204733,80.896687971672634],[34.999280778285367,81.075793083284225],[34.999328694163978,81.25489647179478],[34.999378611034103,81.433998139002995],[34.999430667391437,81.613098166747079],[34.999484944174867,81.792196528047384],[34.999541639235304,81.971293305641609],[34.999600889269686,82.150388528307985],[34.99966291730982,82.329482222126899],[34.999727860952078,82.508574416775957],[34.999795999885521,82.687665139234866],[34.999867499585491,82.866754417382538],[34.999942693700405,83.045842333057294],[35.000021833141147,83.224928861078126],[35.000080528293779,83.351944443881052],[34.686921806096507,83.527418443806198],[34.356398527769898,83.702688860602507],[34.278533670092827,83.742582139953868]]]},"properties":{"FID":3,"OBJTYPE":"GrenseSjø","NAVN":"Avtalt avgrensningslinje Norge-Russland"}},{"type":"Feature","id":4,"geometry":{"type":"LineString","coordinates":[[-5.0076944436436293,74.363027777809748],[-5.53489516727808,74.254581250024728],[-6.0550278887260447,74.144882999950539],[-6.5681597783510597,74.033958694238379],[-7.0743603888208213,73.921833693769997],[-7.5737015004238515,73.80853286120265],[-8.0662567784275438,73.694080639210199],[-8.5521017775749328,73.578501028000119],[-9.0313135283965948,73.461817611393712],[-9.5039704167013497,73.344053500168968],[-9.9701520828522803,73.225231416596671],[-10.429939139379712,73.10537355594488],[-10.883413027988809,72.984501778034712],[-11.330655917036893,72.862637472341532],[-11.474638889273251,72.82283333289206],[-11.711482221827055,72.657981999969365],[-11.943999943942231,72.492854306281288],[-12.172306389128494,72.327457860991558],[-12.396512278318937,72.161800027749166],[-12.616724693789536,71.995887972352079],[-12.767027777609826,71.880777777572462],[-12.851992499554171,71.703519972368895],[-12.935382889009077,71.526221999845461],[-13.017243528066331,71.348884860947635],[-13.097617333273263,71.171509527842488],[-13.176545694128436,70.994096943918862],[-13.254068472182212,70.816648056162933],[-13.330224082875077,70.639163721628506],[-13.405049555792345,70.461644806362756],[-13.478580611106281,70.284092055903727],[-13.550851721629613,70.106506305721496],[-13.621896166774604,69.928888332830354],[-13.62955555594408,69.90955555644382],[-13.442070583090867,69.742365416930511],[-13.2666666673328,69.583333332567292]]},"properties":{"FID":4,"OBJTYPE":"GrenseSjø","NAVN":"Avtalt avgrensningslinje Norge (Jan Mayen)-Danmark (Grønlan"}},{"type":"Feature","id":5,"geometry":{"type":"LineString","coordinates":[[-0.49069549699953541,63.887074149552404],[-0.49004646707072652,64.066482402840677],[-0.48938906895034506,64.245886178404476],[-0.48872308590165403,64.42528552480718],[-0.48869494701415306,64.432816143650143]]},"properties":{"FID":5,"OBJTYPE":"GrenseSjø","NAVN":"Avtalt avgrensningslinje Norge-Danmark (Færøyene)"}},{"type":"Feature","id":6,"geometry":{"type":"LineString","coordinates":[[10.028678119099993,58.260908089037116],[9.7622162561753498,58.149276730936435],[9.4974222246560203,58.037090243819762],[9.3819732031008698,57.987782631063624],[9.1550157832518266,57.85487381877175],[8.9297275833613412,57.721559343888657],[8.886971589267489,57.696101525165318],[8.5695759864426577,57.638451893739955],[8.4569630534022622,57.617761686053029],[8.1542105223977615,57.54157179230441],[7.9819494943737368,57.497753027979911],[7.6917403781159805,57.409536719044411],[7.4029325917657616,57.320653900057494],[7.1155166636631293,57.231086360647055],[6.935278844243328,57.174397930919838],[6.6452063943596613,57.088520333246834],[6.3564769362616289,57.001973439422727],[6.0690900139929909,56.914762527568655],[5.7830450609808395,56.826892866812386],[5.4983412750298726,56.738369653436791],[5.21497759673872,56.649198174556147],[5.0319266422008013,56.591024650267457],[4.7406180858559992,56.511180499880197],[4.4505366643356297,56.430655249740028],[4.1616837580990023,56.349453828131743],[3.8740605245736219,56.267581088696318],[3.58766793862452,56.185041981302447],[3.3025067808632684,56.101841364087761],[3.248568718971228,56.085989264393106]]},"properties":{"FID":6,"OBJTYPE":"GrenseSjø","NAVN":"Avtalt avgrensningslinje Norge-Danmark"}},{"type":"Feature","id":7,"geometry":{"type":"LineString","coordinates":[[-13.2666666673328,69.583333332567292],[-12.753192222343159,69.581895332803413],[-12.239823167105442,69.578951888618803],[-12.156666667032994,69.578333333116859],[-11.977432694263371,69.559031971848071],[-11.880117972066728,69.547778499678088],[-11.783260750283375,69.536105082783422],[-11.686876917235907,69.524013750034612],[-11.590982306388298,69.511506583362177],[-11.495592472414614,69.498585805890286],[-11.400722833292093,69.485253666823326],[-11.306388666703583,69.471512444144025],[-11.212605028199448,69.457364556129392],[-11.119386778177216,69.4428124444388],[-11.026748639438097,69.427858610986164],[-10.934705055993504,69.412505638624395],[-10.843270361238126,69.396756166863668],[-10.752458610676285,69.380612917052531],[-10.662283694336963,69.364078582660511],[-10.572759278318017,69.347156055907305],[-10.483898832664977,69.329848193939029],[-10.395715638565832,69.312157888975435],[-10.30822266694247,69.294088194214851],[-10.221432778100166,69.275642138573915],[-10.135358499595043,69.256822805827881],[-10.050012222286171,69.237633388570089],[-9.9654061113029684,69.218077056011396],[-9.8815519999247954,69.19815708258335],[-9.798461610814627,69.17787680567011],[-9.716146360865821,69.15723955636048],[-9.6346174439398169,69.136248750279663],[-9.5538858614432911,69.114907832730353],[-9.4739623063153431,69.093220332652265],[-9.3948572781408188,69.071189805964821],[-9.3165810282917505,69.048819805889366],[-9.2391435563300206,69.026113971982284],[-9.1625546387854797,69.003076028336068],[-9.0868238327536233,68.979709638788847],[-9.011960360781984,68.95601858319111],[-8.9379733060231956,68.932006666574466],[-8.8648714719408304,68.90767769397047],[-8.7926633886044669,68.883035555846277],[-8.7213573612531832,68.858084166950789],[-8.6509614999732207,68.832827443831547],[-8.5814835830009315,68.807269389370902],[-8.5129312221981195,68.781413972277051],[-8.4453117776163822,68.7552652781701],[-8.3786323332155348,68.728827306335177],[-8.3128997499234742,68.702104222431956],[-8.2481206674348186,68.675100083302254],[-8.1843014439564286,68.647819111263004],[-8.1214482776158547,68.620265417115377],[-8.0595670283955769,68.592443222276927],[-7.9986634168831188,68.564356777843102],[-7.9387428605945161,68.536010306130777],[-7.8798105827921177,68.507408083416351],[-7.8218715828072618,68.478554388674127],[-7.7649306108589826,68.449453527858054],[-7.708992194134396,68.420109860881439],[-7.6540606385875662,68.390527693698175],[-7.6001400280397888,68.360711416798495],[-7.5472341936031171,68.330665417075409],[-7.4953468332896591,68.300394056240748],[-7.4444813330470083,68.269901749965868],[-7.3946409169446952,68.239192943599505],[-7.3458285833224295,68.208272027632006],[-7.2980471110852818,68.177143499572878],[-7.2512990830861668,68.14581177779138],[-7.2055868888238024,68.114281305837665],[-7.1609126668860199,68.082556610898905],[-7.1172783885867261,68.050642111344416],[-7.0746858606639194,68.018542361340963],[-7.0331366110656859,67.986261806237451],[-6.9926320562243518,67.953804944442709],[-6.953173360761923,67.921176305841925],[-6.9147615283218329,67.888380360964959],[-6.8773973889782951,67.855421638797623],[-6.8410815560689002,67.822304667426522],[-6.8058145278181428,67.78903391738146],[-6.7715965002782355,67.755613943728576],[-6.7384276389243496,67.722049222393764],[-6.7063078331399311,67.688344305745147],[-6.6752368607924382,67.654503667010658],[-6.6452143063950757,67.620531806397821],[-6.6373233606844906,67.611380361014881]]},"properties":{"FID":7,"OBJTYPE":"GrenseSjø","NAVN":"Avtalt avgrensningslinje Norge (Jan Mayen)-Island"}},{"type":"Feature","id":8,"geometry":{"type":"LineString","coordinates":[[7.9884166666958549,83.718313888675084],[7.629766666898206,83.556594443878566],[7.3308160558163991,83.380768333291996],[7.0472753333899618,83.204771582642479],[6.7779906109779517,83.028616944316582],[6.5219193333106205,82.852315971904659],[6.2781170827372534,82.675879111032202],[6.0457265562356497,82.4993158063794],[5.855941667074319,82.348624999644073],[5.223592972437757,82.191021110635802],[4.6161783061839401,82.032513472219023],[4.5680583327259114,82.019644444435642],[4.0105554437787418,81.858514167095166],[3.4745934717113869,81.696651361371266],[2.9590262503612053,81.534097943765175],[2.4627808606482517,81.370892833337621],[2.2059861107704251,81.283705555666927],[1.6959457782750746,81.122484417122223],[1.2039908328107458,80.960594028291837],[0.7292357776091194,80.79806958324474],[0.27084724960093354,80.634943971986786],[-0.17195952840944528,80.471247917157712],[-0.59992366694365273,80.307010250123028],[-1.0137416936242403,80.142257889390123],[-1.41407013872589,79.977016083425553],[-1.6373972221040844,79.882216666965689],[-1.8403219716815897,79.706746055685983],[-2.0365153056367831,79.531151361346303],[-2.226305972042951,79.355438556344382],[-2.3553138886250053,79.232566667317883],[-2.5378138887998603,79.089997221594558],[-2.7342863894053266,78.914837499650957],[-2.9247210828116863,78.739552471569368],[-3.1093916111339013,78.564147805776656],[-3.2885555563937601,78.388628777695999],[-3.3438750003309679,78.333333333066946],[-3.310436833393112,78.154327166665439],[-3.27797997159837,77.975314917249705],[-3.2464612223075164,77.796296750294857],[-3.2158399172782879,77.617272750337236],[-3.2146555560090633,77.610244444225771],[-3.0881800556649637,77.433197056099289],[-2.9651624998494412,77.256089639125605],[-2.9156444439358893,77.183388889185949],[-2.8317787223101618,77.00522041698872],[-2.7897166666907651,76.91400555611159]]},"properties":{"FID":8,"OBJTYPE":"GrenseSjø","NAVN":"Avtalt avgrensningslinje Norge (Svalbard)-Danmark (Grønland"}},{"type":"Feature","id":9,"geometry":{"type":"LineString","coordinates":[[11.066417440112843,58.977394419816676],[10.983193480095053,58.960449540414004],[10.917908332903266,58.94227222198549],[10.866264805776211,58.933078360977618],[10.756454932749023,58.913444543730748]]},"properties":{"FID":9,"OBJTYPE":"GrenseSjø","NAVN":"Avtalt avgrensningslinje Norge-Sverige i Iddefjorden, Griseb"}},{"type":"Feature","id":10,"geometry":{"type":"LineString","coordinates":[[11.461614927387018,58.989179993861683],[11.464598199847103,58.991152059619935],[11.459755409984211,58.996086740410817],[11.442606710031669,59.01354715977368],[11.431178460017975,59.027903980084659],[11.414198650047695,59.039695139818889],[11.389333329869316,59.077147970302633],[11.368410029599261,59.098436630046479],[11.339912030216055,59.11497927957015],[11.326241680409282,59.111762839883227],[11.302502619900054,59.10621258034638],[11.289042720445252,59.099576890361277],[11.270992309847259,59.097670660372728],[11.258289769956946,59.096099229995502],[11.246126520222788,59.092902900048841],[11.224859349779194,59.087612139888392],[11.153506179966257,59.079256799561733],[11.117148339724167,59.015059340116522],[11.092381349619643,58.991805360429112],[11.066417440112843,58.977394419816676]]},"properties":{"FID":10,"OBJTYPE":"GrenseSjø","NAVN":"Avtalt avgrensningslinje Norge-Sverige i Iddefjorden"}}]}