{"type":"FeatureCollection","features":[{"type":"Feature","id":0,"geometry":{"type":"MultiLineString","coordinates":[[[1.8731527780782926,72.432766666748307],[1.876259361080713,72.435165750399108],[1.8870324720709846,72.443515943905766],[1.8980641390488131,72.451835916594348],[1.9093536938179909,72.460124972389622],[1.9209005832953494,72.468382361257],[1.9327041114056556,72.476607416798913],[1.9447636108520214,72.484799388980662],[1.9570784170353477,72.492957611404677],[1.9696478060014897,72.501081333137051],[1.9824709998368348,72.509169860800512],[1.9955472781844037,72.517222500118351],[2.0088757776950388,72.525238555914655],[2.0224557222538238,72.533217306033919],[2.0362862503102406,72.541158083179027],[2.0503664724348027,72.549060193972821],[2.0646955000972866,72.556922917158943],[2.0792723890095886,72.564745610621515],[2.0940962218631967,72.572527527923114],[2.1091659716323079,72.580268027847239],[2.1244806670491698,72.587966443996265],[2.140039249611732,72.595622056013156],[2.1558406671131252,72.603234193903006],[2.1718838331723873,72.61080222184512],[2.1881676668044179,72.618325416784614],[2.2046909719108498,72.625803167182482],[2.2214526387283513,72.633234805741722],[2.2384514441788497,72.640619639085116],[2.2556861669830823,72.647956999915664],[2.2731556110426823,72.655246306372021],[2.2746611112213486,72.655866666813267],[2.6296419723991562,72.800776472256473],[2.8515638893620689,72.889869443919736],[2.8515826941860496,72.889877972190732],[2.8697615558511416,72.897066139091123],[2.8881743329791334,72.90420419396844],[2.9068196109363384,72.911291527981689],[2.9256960830078924,72.918327499914255],[2.944802277902852,72.925311472146802],[2.9641367504107734,72.932242806160616],[2.9836980832000108,72.939120917396451],[3.0034847222422059,72.945945138557363],[3.0234951665687504,72.952714860802246],[3.043727889130821,72.959429499571797],[3.0641813062223378,72.966088444226386],[3.0848538062581952,72.972691056247299],[3.1057437776532879,72.97923677805494],[3.1268495557624192,72.985724999908882],[3.1481694723433407,72.992155139048464],[3.1697018330731908,72.998526583035414],[3.1914449166496297,73.004838777887358],[3.2133969442136276,73.011091166923848],[3.2355561665838763,73.017283138606047],[3.2579207779215835,73.023414138951409],[3.2645388888586808,73.025205556091578],[3.6131963055651113,73.172962277886882],[3.967835111401314,73.320118555626891],[4.3285898332542274,73.466658444331813],[4.6955978893311681,73.612565499897983],[5.0689998058963965,73.757822806077684],[5.2794194442519711,73.838294444033409],[5.2888363056510457,73.844332666719254],[5.3018929715834133,73.852522638808807],[5.3152269443680211,73.860678778402985],[5.3288374721716423,73.868800332769183],[5.3427237501010154,73.87688663910717],[5.3568850002426416,73.884936916805316],[5.3713203889248575,73.892950528244342],[5.3860289997385848,73.900926750369308],[5.4010099999115937,73.908864888903565],[5.4162624172768119,73.916764221691551],[5.4317853057473258,73.924624083234903],[5.4475776940553828,73.93244374957942],[5.4636385830542054,73.940222556126116],[5.4799668890607336,73.947959805900382],[5.4965616111294935,73.955654806424207],[5.5134215828398396,73.963306888602062],[5.5170750004110118,73.964944444330683],[5.8612029438608033,74.117096860731579],[6.2117996109633395,74.268692556316466],[6.2487416669943627,74.284469443909757],[6.2542282500337478,74.286803916667452],[6.2721632218552372,74.294331916684655],[6.2903643894051129,74.301814389422589],[6.308830472048669,74.309250666684989],[6.3275601936480825,74.316640082973493],[6.3465522780652464,74.323981971890532],[6.3658053331496376,74.331275667038483],[6.3761499999226317,74.335136111242605]],[[2.1774694441595557,70.755922221733215],[2.1938978608976072,70.576745749816553],[2.2081277778747221,70.418933333206837],[1.9015388892084388,70.401463889147237]],[[36.980199999630315,84.505780556427567],[35.203827305885511,84.564505610645483],[33.390542777826965,84.617926750319327],[32.18640144357181,84.64990588864589],[31.542888056039033,84.665884693823614],[29.663785750112311,84.708230917223091],[28.929677777607424,84.723066666993134],[27.120341610576929,84.659472111248988],[25.355161971647703,84.590709361248059],[23.635734389430581,84.516972777571709],[21.963245556237496,84.438460139124174],[21.853438889293329,84.433061111381221],[20.009578999870996,84.426918361393348],[18.171646444028227,84.415055833260169],[16.343333667215006,84.397509917149023],[14.528216833440183,84.374333693745029],[13.338294444433132,84.355972222040464],[13.248605555901747,84.350000443965371],[13.159111110689253,84.352824999574125],[13.06981944371239,84.350000111216218],[12.980744444100878,84.349302777801029],[12.891897222079194,84.347405556321405],[12.803288888771249,84.345413888939902],[12.714930556200272,84.343330556360172],[12.626833332792103,84.341155555884257],[12.539005556161555,84.338891667316659],[12.45146111094158,84.336533332847068],[12.364208332948238,84.334086111185115],[12.277261111311304,84.331549999632841],[12.190625000243642,84.328922221983021],[12.10431666688072,84.326202778235711],[12.01834166723421,84.323397221704454],[11.932713888635078,84.320499999975084],[11.847438888893635,84.317513889254656],[11.762530556240222,84.314441666649657],[11.677997221994247,84.311280555952976],[11.593852777983386,84.308033333371668],[11.510100000414752,84.304697221799415],[11.426752778418063,84.301275000141175],[11.343822222217852,84.29776666659842],[11.261313888725056,84.294172222070472],[11.179241667069334,84.290491666557216],[11.097611110564344,84.286727778064574],[11.016433333031955,84.282880555693168],[10.935716666690837,84.278947222336512],[10.855469443759887,84.274933333106901],[10.775700000054997,84.266667083219374],[10.696419444002174,84.266652777703598],[10.617636111417482,84.262388888636337],[10.539358332720951,84.258044443696178],[10.461591666622155,84.253619443782384],[10.384347222446422,84.249113888894897],[10.307630556205254,84.244527778134511],[10.231452778123241,84.239863888607658],[10.155819444212057,84.235119444107113],[10.080738889388272,84.230299999745228],[10.006222222077952,84.225400000409763],[9.9322694440796226,84.220425000313583],[9.8588944436237398,84.215372222350254],[9.7860999996153168,84.210247221632017],[9.7138972222790585,84.205044443946008],[9.6422888887212821,84.199766667297922],[9.5712861109652749,84.194416666995664],[9.5008916670168446,84.18899166683201],[9.4311138890947745,84.183497221919311],[9.3619583332105663,84.177927778044591],[9.2934333333816994,84.17228888942077],[9.2255416667146051,84.166580556047904],[9.158294444333194,84.16079999992013],[9.0916916671367858,84.154949999942573],[9.0257416673441071,84.14903333322178],[8.9604500000675102,84.14304999975775],[8.8958250002236241,84.136997222443938],[8.8318638889073782,84.130877778386832],[8.7685805561478105,84.124694443793601],[8.705975000146168,84.118444444255772],[8.6440555558193068,84.112130555980457],[8.5828222222677937,84.105752778068336],[8.5222833326097884,84.099313889424536],[8.4624416666496245,84.092811111143931],[8.4033055557068792,84.086247222131647],[8.3448722217756881,84.079622222387684],[8.2871499997727369,84.072938889018587],[8.2301444439110014,84.066194444018436],[8.1738555559891779,84.059391667191733],[8.1182888893208087,84.052533332947007],[8.0634472219118152,84.045616666875731],[8.0093361106730185,84.038641667179263],[7.9559555556044756,84.031613888969844],[7.9033111109191054,84.024530556040361],[7.851405556421355,84.017394443698663],[7.8002416674190727,84.010202778435541],[7.7498222219180661,84.002961110866636],[7.7001472217169749,83.995666666583475],[7.6512222219280375,83.988322221793169],[7.6030499996577987,83.980927778294415],[7.5556333329120093,83.973483333389197],[7.5089694436849186,83.965991666881962],[7.4630666668932122,83.958449999867639],[7.4179222218331233,83.950863889257164],[7.3735416672142264,83.943230556145295],[7.3299222223327547,83.935549999632826],[7.2870722221053938,83.927827778429275],[7.2449861114199621,83.920061110931556],[7.2036666673828336,83.912249999837684],[7.1631166671005531,83.904400000259841],[7.1233388885788713,83.896505556186526],[7.1154027780158344,83.894908333253056],[7.088777277749216,83.889730000039549]]]},"properties":{"FID":0,"OBJTYPE":"GrenseSjø","NAVN":"Yttergrense for kontinentalsokkel"}}]}