{"type":"FeatureCollection","features":[{"type":"Feature","id":0,"geometry":{"type":"LineString","coordinates":[[10.640039806391997,58.892477278303829],[10.512422889205027,58.898127138656605],[10.244328749572162,58.909579388877773],[10.191226889009783,58.901520667444913],[10.187620806355199,58.901001861147051],[9.9819806114161338,58.872890110690093],[9.6736399720071518,58.791167778370323],[9.6299173892761587,58.779488499694537],[9.3993598609688433,58.645887527787238],[9.1705607221996388,58.511873472083153],[8.9435026942939544,58.377451527965718],[8.7532209440913675,58.263693611371139],[8.7473911671687006,58.260421888559392],[8.7445974439169731,58.259000555930982],[8.5633708891552374,58.16923630601076],[8.5620622217941218,58.168594693690238],[8.3363299717508426,58.058947305673655],[8.3299116110320597,58.056019777690665],[8.323136360654587,58.053327999787427],[8.3160351114312903,58.050884221629588],[8.3086400276152403,58.048699471603413],[8.3054594438982576,58.047862806223577],[8.2463358326326102,58.032837888557765],[8.2457130278340287,58.032680500005142],[8.0711040003494077,57.988698416998375],[8.0651938330290136,57.98730188857138],[7.7534445832010306,57.918179056318422],[7.7336484715997358,57.913754861297889],[7.7318309723215748,57.913357360953512],[7.6924321672108249,57.90492455572371],[7.6845088333160447,57.903389972369382],[7.6828283331610692,57.903105166969908],[7.65161427777673,57.897939249796593],[7.6434852221653387,57.896750999858796],[7.635224611027013,57.895856832726679],[7.6281212780745591,57.895330722135157],[7.5783007495799666,57.892402749887026],[7.5698968332723098,57.89205925023424],[7.5621508061148575,57.892009889145129],[7.2249756670934175,57.894973166978104],[7.2007834723793849,57.895151332567991],[7.1923635832128525,57.895363721858359],[7.1839895558733815,57.895877444288658],[7.1765301939133792,57.896594805605844],[6.9785203607261224,57.918785361255459],[6.9703266105846637,57.919851083061076],[6.9622859996991906,57.921207944191337],[6.9563205276702433,57.922425583074244],[6.6438116106173766,57.990614610575847],[6.6233123892554318,57.995051638922064],[6.6224094995988025,57.995249139036616],[6.6134555003711171,57.997229110734906],[6.6057653606828808,57.999092943984238],[6.5983285833974605,58.001227500149071],[6.597223472185533,58.001574749974793],[6.5624590282615713,58.012618360848705],[6.55535133269791,58.015050694234219],[6.5485679443551703,58.01773152828747],[6.5451068333137528,58.019252638898195],[6.5134657222653232,58.033662971568958],[6.511244028089493,58.034698443778211],[6.258729499866547,58.154556443824902],[6.0045142781115146,58.273908583314551],[5.7898795281177513,58.373663249859135],[5.783661583115645,58.37674113909236],[5.7825967219611698,58.377311805695342],[5.771642972245445,58.383251278323883],[5.7671777222740843,58.385801305985524],[5.6060824438497434,58.482373555994855],[5.6023488328324333,58.48470886062546],[5.5605318892353353,58.512084999822946],[5.5554020276814526,58.515681860829261],[5.5507464173133485,58.519451361091512],[5.5488288612629617,58.521183528197298],[5.4377141672750327,58.62477133283079],[5.4338422504195592,58.628663416983159],[5.4231626113654556,58.640317806021983],[5.4197144172865706,58.64442997226547],[5.4178277502505239,58.647064638722156],[5.3631835829560259,58.728386055971782],[5.3606065558479372,58.732669167148401],[5.3599310831530147,58.733993721932791],[5.2976817216342056,58.860856472148498],[5.2969523606629423,58.862415499975384],[5.2447101107830463,58.979856610694071],[5.0814198057794897,59.094599832616211],[4.8044546941288786,59.204098667019935],[4.76976652800289,59.217721832996233],[4.7629989443458385,59.220568028092089],[4.756620055771009,59.223641361359796],[4.7506588887967496,59.226927972448038],[4.7451426389217204,59.230412944301975],[4.7400964170161046,59.234080417377413],[4.7394028886324691,59.234628194435686],[4.7378282782524934,59.235885221825583],[4.7333483891169408,59.239741221580175],[4.7293853061869982,59.243743139034677],[4.7259571939693501,59.247872778206215],[4.7230798607470206,59.252111389129368],[4.7207665832112866,59.256439693936784],[4.7190281109586181,59.260838000173635],[4.7182053329098608,59.263745610871297],[4.7151493889331846,59.276523166810762],[4.7143778614491794,59.280993221859774],[4.7141971112077385,59.285479749790682],[4.7146081670333047,59.289962306315431],[4.7156094173407723,59.294420444448008],[4.717196500418197,59.298833888972865],[4.7177769435511436,59.300127139256119],[4.7284255281156788,59.322795750223747],[4.7307637780259597,59.327121167308064],[4.731238833205623,59.327880832734309],[4.84073702819137,59.498513833346806],[4.9392232783316672,59.650449971788817],[4.9109221387457751,59.791783249897094],[4.8574636673144482,59.969277443699127],[4.8034288887322987,60.146744833207549],[4.7563981111839553,60.299642917086999],[4.6633739996104282,60.473140193665074],[4.5693504435681689,60.646567193621138],[4.4743098891900672,60.81992277841357],[4.3782344435647929,60.993205694387314],[4.3681785284164221,61.011229943707008],[4.3660633607355521,61.015597193655594],[4.3645593606260604,61.02002369363862],[4.3636736669062657,61.024489360895359],[4.3636117216037178,61.025004167008774],[4.3629676388455323,61.030736833338267],[4.3627715830421607,61.033678416825524],[4.3619500280713623,61.072744306404672],[4.3621374719668324,61.076961499973322],[4.3819748606513258,61.256187388737033],[4.4020380825915026,61.435405638659347],[4.4223314716201685,61.614616167002566],[4.4269114436082759,61.654777944346733],[4.4277405825619098,61.659246472346865],[4.4292020276515132,61.663678193793658],[4.431289444052652,61.668052944088174],[4.4339935003997653,61.672350778066004],[4.4371193612695379,61.676340832563426],[4.5809388331606442,61.842362167280271],[4.6861418057997639,61.962583777619272],[4.6862377220932672,61.962692638754334],[4.7680038612892304,62.054964111304741],[4.7700690833215731,62.057173167307894],[4.9258709719678109,62.215006528228741],[4.9302038606197129,62.219010111227703],[4.9351065282437503,62.222867999558616],[4.9355445556367954,62.223185555568989],[5.1439206672050659,62.372408556309892],[5.1494686937252823,62.37608024990368],[5.1555387775925396,62.379569582570241],[5.159112999965032,62.38141666684578],[5.4239253057083374,62.512388278296442],[5.6910658060421611,62.642851610913169],[5.8765997779574377,62.732492667202905],[5.8782420560261244,62.733269833436111],[6.1539600831913503,62.860811694104427],[6.1565590555560448,62.862006110693528],[6.1637128890386634,62.865078471794106],[6.1713055557068515,62.867923028325151],[6.1721061672658379,62.868200833401772],[6.4869376392607023,62.975911722048409],[6.8040866389872576,63.082915139222337],[7.0507624438317862,63.165113333413672],[7.2845948605644253,63.310294666665584],[7.5207888061585209,63.455086082656635],[7.6058558331802146,63.506782583449535],[7.6959076107476676,63.572418028269453],[7.7014546390204259,63.576159888767904],[7.7029723888646799,63.577094750222614],[7.9430278614466943,63.72134152778932],[8.1855358886703584,63.86518191701191],[8.3324055830512407,63.951389778115811],[8.3388078611939136,63.954880610851546],[8.3426125564243989,63.956744832607967],[8.3520158893218763,63.961179750245321],[8.3592211109655636,63.96435475007172],[8.3635217499288501,63.966058806169031],[8.6732074441682698,64.083286193902779],[8.9855001938789201,64.199847777552975],[9.1560153886993021,64.262800027599269],[9.4293776111878742,64.397435388932081],[9.7054244170033144,64.531554777730889],[9.9841880558341813,64.665150110888987],[10.265701000400895,64.798213056187649],[10.292070916939338,64.810583221938202],[10.302332527724047,64.841219194010648],[10.304172360765904,64.84563413860468],[10.306708388681216,64.849986166628355],[10.308668749763058,64.852699721614897],[10.373030917342987,64.935177667015751],[10.376699555939808,64.939382833051354],[10.377793666644436,64.940488917329731],[10.545978416770595,65.105179332760031],[10.716254361349741,65.269675305770818],[10.874105167319669,65.420188389382702],[11.034179000260679,65.586798166702067],[11.106820750177519,65.661653361313654],[11.208858888926613,65.836042944326493],[11.312287527947092,66.010359777581698],[11.390711778325965,66.14092008319534],[11.393703305663053,66.145236417127023],[11.39740816715323,66.149461138920458],[11.398040610885516,66.150101888791198],[11.565671750051251,66.316216638786898],[11.735528444182421,66.482145056449269],[11.875532417287275,66.61713416700826],[11.880202806214584,66.621214972093355],[11.885557027934567,66.625161193634256],[11.891570943744114,66.62895477774083],[11.898217305983906,66.632578361202491],[11.904956832591779,66.635788888746276],[12.206605667017982,66.769584167275582],[12.245092472339763,66.786509499913564],[12.087719556212619,66.954835306004611],[11.92815966693513,67.122999250315218],[11.766366278081307,67.290997860562868],[11.68143705597538,67.37818644404922],[11.677704194093337,67.3824321668111],[11.677004360562819,67.383350111118773],[11.65546886119904,67.412330861180351],[11.652641943970593,67.416679443901273],[11.650583528007473,67.421091417135244],[11.6493033610613,67.425546666645403],[11.648807750077651,67.43002494419585],[11.649099360647028,67.434505889135551],[11.650177333017552,67.43896905627696],[11.6520371669817,67.443394111049429],[11.652392555671952,67.444070805922991],[11.652537943671234,67.444340389397496],[11.655251250444906,67.448643111190677],[11.694336443971736,67.502544556286296],[11.697854194315653,67.506819582557739],[11.702118221878493,67.510993917135636],[11.707109416966091,67.515048471909495],[11.712805333399444,67.518964721744567],[11.719180306326109,67.522724778226006],[11.726205417146332,67.526311443618283],[11.733848861335957,67.529708278314445],[11.742075889091041,67.532899722244451],[11.743669166698737,67.53347008307793],[11.858032777590665,67.573786111240111],[11.860846499966044,67.574753860902035],[11.902152360642958,67.588638556024591],[11.910612832616209,67.591303444198672],[12.284037416593549,67.700603861179331],[12.43099408261088,67.743107388595149],[12.571899305908289,67.914344777689394],[12.61047486082623,67.960768000243093],[12.614419861087754,67.964998055915601],[12.619117138844956,67.969118471640229],[12.621776694039227,67.971157555776642],[12.840647722114738,68.130681750062763],[12.902126750449213,68.175044527782802],[12.908015500415047,68.178954333076092],[12.914601667433033,68.182707194081786],[12.921855417393658,68.186285972419739],[12.92204777788271,68.186374332609432],[13.013310167030625,68.228116943642078],[13.021242111034667,68.231495833266138],[13.029772222010479,68.23466802810708],[13.038861639353229,68.237618971738186],[13.045888055989053,68.239642500301215],[13.436707443893454,68.345558111018079],[13.536840472310018,68.372390638816967],[13.786179556441425,68.526490610853045],[14.038942749908017,68.680213055588126],[14.04916813869869,68.686379722146512],[14.146000443865432,68.770718221868492],[14.151150943960943,68.774792639069119],[14.157050028036394,68.778731721791587],[14.163671139111841,68.782517444024904],[14.17098430638066,68.786132472235863],[14.174432943825366,68.787673388616042],[14.493871806338859,68.924959249869516],[14.817294055776131,69.061637778260888],[15.017561666637675,69.145122278170675],[15.026076722063124,69.148420666780396],[15.035199361261562,69.151506499725258],[15.04488799958159,69.154365556025652],[15.044929471817738,69.154376972019691],[15.445304917288126,69.263523416972191],[15.849707777791764,69.371732416717691],[15.925901749965817,69.391894332957179],[15.936332417107394,69.394459917091581],[15.947232944045197,69.396771193635743],[15.956259889082673,69.39843025035583],[16.415473250090486,69.476439221692772],[16.856152750149363,69.549641082869755],[17.29882391669048,69.640649667148466],[17.340443388951314,69.64910905633792],[17.590087333363783,69.806102027786437],[17.76315275009938,69.913377139143734],[17.769885278183096,69.917214528327861],[17.772876139122559,69.918748444385244],[18.071389027681505,70.066026666597452],[18.222850166701903,70.139774639288248],[18.223651971661241,70.140160389090738],[18.48337280611014,70.263245638675357],[18.491469389001168,70.266794110759633],[18.500258582967263,70.270149555957289],[18.509700443720533,70.27329661114976],[18.51975197197595,70.276220861103923],[18.530367305906509,70.27890883307623],[18.541497917195159,70.281348250421502],[18.548787806412179,70.282758944070054],[18.986430805837074,70.362448694351826],[18.998381305652799,70.364429749733233],[19.004449582782058,70.365310221989205],[19.499034666616637,70.432881249769935],[19.838597222383953,70.478238193837626],[19.838749500089421,70.478258333255553],[20.338955999619714,70.543399361391494],[20.842355056440738,70.607159193641905],[21.348908861254984,70.66952419358671],[21.858577278218888,70.730480832724311],[21.887437916626595,70.733879305985226],[22.336065555680875,70.835369110995714],[22.692804833376385,70.914568806305397],[22.696590694105282,70.915382306048627],[23.160104249811354,71.011519527903943],[23.628128277897758,71.106490527815652],[23.860764805851147,71.152923694173182],[23.872814832738413,71.155137583133012],[23.8756942496899,71.155616332727618],[23.88403530608457,71.156975999742656],[23.896617889004403,71.158856694380972],[23.909566528372636,71.160458000236588],[23.922821722344679,71.161772499701158],[23.936322583220715,71.162794167317031],[23.942962055754322,71.163183917304025],[24.027815472206328,71.167679443851284],[24.041572249559692,71.168251305653314],[24.046092638764321,71.168372832840021],[24.599931277806263,71.180446444447909],[24.689436916880254,71.182242833040391],[25.231342055991149,71.222197082829155],[25.631592722326332,71.250602333331074],[25.645297472100708,71.251403721904296],[25.659139889194591,71.251905000415491],[25.673056278224692,71.252103806345644],[25.686982611058681,71.25199927814424],[25.688444693767678,71.25197066711263],[26.244256972381436,71.239628805724863],[26.799318583286038,71.225646667259923],[27.353538027657919,71.210027888576235],[27.677568193617276,71.200126250326264],[27.691341971754639,71.199540833043045],[27.695771694008499,71.199286972415905],[28.219266443691481,71.166589639100607],[28.225312556129609,71.166172193591933],[28.243263082625219,71.164840027845059],[28.256665277980233,71.16368905570539],[28.269794860944103,71.162247722154689],[28.282591499598084,71.160522693867279],[28.29499649968875,71.158521860595442],[28.30695294402318,71.156254471866418],[28.316132388898666,71.154261528346922],[28.765549111102644,71.049792943889315],[29.21019830590717,70.944251693960553],[29.349990416724381,70.910615444147481],[29.834493221784783,70.827648083192514],[30.19002369373851,70.765509305909802],[30.20178425044287,70.763264000033644],[30.213055943776851,70.760761611259397],[30.219595639227407,70.759132944429894],[30.337823306000814,70.728333722023706],[30.346160361311661,70.726031694107462],[30.750531777919264,70.606929306242534],[31.150142778066822,70.486941832599541],[31.280520389104709,70.447294332567424],[31.290100027794097,70.444166861011865],[31.299025221736656,70.440829638776847],[31.307255361146076,70.43729797232362],[31.307291221612616,70.437281471562699],[31.323605277861361,70.429761555551408],[31.331093889371573,70.426050166781806],[31.337816221841194,70.42217766716567],[31.33894424957748,70.42146369359466],[31.343702999593802,70.418406333185771],[31.349480332551366,70.414366333039879],[31.354430139039721,70.410204667211701],[31.358530332608836,70.405940416617],[31.361762666913592,70.401592972437811],[31.364112972235944,70.397182222281799],[31.365571111417694,70.392728305566891],[31.365852610909315,70.391269639382415],[31.365973138949244,70.390516721569497],[31.366239417415215,70.386036833333264],[31.365605749705651,70.381561138635675],[31.36407566655879,70.377109972047606],[31.3616566674213,70.372703582704219],[31.358360332863128,70.368362000306149],[31.354344666573184,70.364236221924159],[31.255113582625768,70.272079278036301],[31.164027472290059,70.095494056005919],[31.1050863055886,69.979573222226463]]},"properties":{"FID":0,"OBJTYPE":"Fiskerigrense","NAVN":"4 nautiske mil"}}]}