{"type":"FeatureCollection","features":[{"type":"Feature","id":0,"geometry":{"type":"LineString","coordinates":[[-0.48869494701415306,64.432816143650143],[-0.46865613896960667,64.444533693874916],[-0.443692721641753,64.458873749923669],[-0.41852436141010685,64.473151167292599],[-0.39315163923669161,64.487365361422349],[-0.37012027772857437,64.500115667004479],[-0.11223883295571113,64.64114869385719],[0.14826774995674441,64.781744889415165],[0.32821408291363241,64.877779138896187],[0.35468272163035408,64.891753389407427],[0.3813559444213297,64.905662000201175],[0.40823305611070282,64.919504444274764],[0.40862444376313078,64.919704750274036],[0.67980711070964617,65.057550917041226],[0.6819021938312062,65.058608639377269],[0.70926136102303872,65.072335472004511],[0.73682377769523555,65.085994750257555],[0.76458872169217784,65.099585972314799],[0.79255549963664862,65.113108611173516],[0.82072338937297218,65.126562193790278],[0.84909169392659578,65.139946249819616],[0.87765961110221724,65.153260221681933],[0.90642647180425229,65.16650363903176],[0.93539144415984765,65.179676027926405],[0.96455380601338447,65.19277691712108],[0.99391274977364219,65.20580574993545],[1.0234674723459989,65.218762110882778],[1.0532171940183161,65.231645472060961],[1.0831610559380351,65.244455361325947],[1.1132982783929037,65.257191332613957],[1.1436279998323471,65.269852860721016],[1.1741493326256318,65.282439471704322],[1.2048614718794965,65.294950750077135],[1.2357635002853726,65.307386139159064],[1.2668545284138304,65.31974525044302],[1.2981336668353265,65.332027556026958],[1.3296000279190139,65.344232638625442],[1.3612526385984438,65.356359972135067],[1.3930906112427692,65.368409167149423],[1.3978176106942328,65.370185527839908],[1.4098777216795497,65.378689305766898],[1.6307022777879183,65.532771055739659],[1.8540790001458163,65.686541472111287],[1.9885182499173197,65.778088972428179],[2.0112546391902697,65.793404361222372],[2.0342189724277091,65.808665722345268],[2.0574108890013463,65.823872500015909],[2.0808299437469486,65.839024167231571],[2.1044757499559523,65.854120167311919],[2.1283478606652579,65.869159972354907],[2.1524457776505415,65.884143083236779],[2.176769110606017,65.899068917196814],[2.2013173613072468,65.913936943635122],[2.2260900279325142,65.928746639146141],[2.2510866392370872,65.943497500109572],[2.2763066942985688,65.95818894376481],[2.3017496391345844,65.972820471887303],[2.3274149719234742,65.987391527796831],[2.3533021665617753,66.00190161057094],[2.3794106393895618,66.016350194106224],[2.4057398058474178,66.030736749601374],[2.4322891389326742,66.045060750053608],[2.4590580280056429,66.059321666661617],[2.4717062497437041,66.065997693938471],[2.4808100283601675,66.070787556000937],[2.5079104444115501,66.084953277571742],[2.5352289442604388,66.09905461128136],[2.5627648893881769,66.113091083186987],[2.5905176106992371,66.127062111427335],[2.6184864723728651,66.140967222059714],[2.6466708331924451,66.154805888980661],[2.6750699719017348,66.168577611267779],[2.7036831942240838,66.182281861019135],[2.7325098328625472,66.195918139110859],[2.7615491386818576,66.209485943721404],[2.7908003886270762,66.222984749646514],[2.8202628326636727,66.236414082943611],[2.8499357216562657,66.249773443589618],[2.8798183055703817,66.263062277602103],[2.9099097777141196,66.276280138917343],[2.9402093610731868,66.289426528411639],[2.9707162498551156,66.302500944263215],[3.001429639166588,66.315502861268101],[3.0323486665577661,66.32843180638281],[3.0504271665805049,66.33591827840587],[3.2851693887563442,66.432244499983767],[3.3113948328053198,66.466968333222042],[3.3613199173803423,66.645210916750443],[3.3799993327031075,66.711316444398449],[3.3851727223433272,66.729133639206168],[3.3905966667028338,66.746939305604542],[3.3962715282085014,66.764732916590901],[3.4021977223470685,66.782513944263201],[3.4083755827670075,66.800281777981752],[3.4148054440160536,66.818035943803807],[3.4188385562543999,66.828824556408222],[3.4077169166024532,66.846215806214559],[3.3968180830881352,66.863629611017814],[3.3861428893828815,66.881065528351485],[3.3756920279647602,66.898523111252644],[3.3654663064249348,66.916001860597419],[3.3554664172414164,66.933501360899129],[3.3456931671060488,66.951021111235377],[3.3361472781743942,66.968560638562678],[3.3268294717028084,66.986119500414645],[3.3177405283028065,67.003697221949267],[3.3088811674319913,67.021293305841425],[3.3002521391249502,67.038907333007046],[3.2918541673359982,67.0565387782421],[3.283687943643713,67.074187193684111],[3.2757542495590428,67.091852082907337],[3.2680537775598282,67.109532999848113],[3.2605872498018016,67.127229416604337],[3.253355389339788,67.144940888910924],[3.2463588886518551,67.162666916744854],[3.2395984716921475,67.180407055840988],[3.2330748606163979,67.198160750418367],[3.2267887218221176,67.215927556211795],[3.2207407783643021,67.233707000177958],[3.2149316939425603,67.251498556213448],[3.2093621943098469,67.269301750375519],[3.2040329440651476,67.287116082641148],[3.1989446392837522,67.304941082664868],[3.1940979436652128,67.32277622164537],[3.189493528103867,67.340620999559519],[3.1851320832790861,67.35847497214229],[3.1810142782863409,67.376337582713347],[3.1771407219667935,67.394208360927166],[3.1735121391739085,67.412086805861463],[3.1701291387487913,67.429972388714816],[3.1669923888877065,67.447864639141812],[3.1641025281092539,67.465763028341144],[3.1614601940327702,67.483667028410707],[3.1590659999959598,67.501576194186043],[3.1569206105977514,67.519489943805922],[3.1550246391757923,67.537407806025499],[3.1533786936718116,67.555329278123736],[3.1519833892220959,67.573253833097965],[3.1508393607479661,67.59118094394546],[3.1499471937080443,67.609110082764175],[3.1493074717624836,67.627040778309322],[3.14892083342977,67.644972499980952],[3.1487878057126863,67.662904693796634],[3.1489090280292658,67.680836860632667],[3.1492850561604655,67.698768471687686],[3.1499164440886602,67.716699027837933],[3.1508038060508738,67.734627972403075],[3.1519476672510791,67.752554806259354],[3.1533485825710841,67.770478971827117],[3.1550070826108367,67.788399971781303],[3.1569237780099684,67.806317250340896],[3.1590991391140051,67.824230305684125],[3.161533721703961,67.842138582929294],[3.1642280563797271,67.860041582952761],[3.1671826386678958,67.877938722094427],[3.168501721976952,67.885455916757223],[3.1685506666799483,67.885730138934832],[3.1718758326036323,67.903618083407878],[3.17546247191558,67.921498889062548],[3.1793110828402291,67.93937202799674],[3.1834221941789451,67.957236972308465],[3.1877962780758367,67.975093167116029],[3.192433805775579,67.992940055739041],[3.1973352224426321,68.010777166932769],[3.2025010281000164,68.028603861279237],[3.2079316391339034,68.046419666634335],[3.2136275555672569,68.064224028116485],[3.2195891668066565,68.082016389045179],[3.2258169171170721,68.099796193639463],[3.2279872222325707,68.105816832780647],[3.2481244170082846,68.161157917104219],[3.2547378892422216,68.178919306280989],[3.2616191939706596,68.196666806328096],[3.268768693620359,68.214399944202114],[3.2761868333557231,68.23211811106205],[3.2838739998852589,68.249820778106482],[3.2918305826153187,68.267507388655133],[3.3000569439728338,68.285177388725572],[3.3085534436865487,68.302830221637464],[3.317320499941161,68.320465361287461],[3.3263583888286234,68.338082250095795],[3.335667527634314,68.355680278322268],[3.3452482221277933,68.373258944144993],[3.3551007780785085,68.390817693581766],[3.3652255561145807,68.408355916892106],[3.3756228611061943,68.425873111355088],[3.3862929439642357,68.443368694209937],[3.3972361671154658,68.460842110575015],[3.4084527778734355,68.478292777689603],[3.4199430559273196,68.495720193731984],[3.431707278268334,68.513123721982254],[3.4437456940086122,68.530502860618583],[3.4560585279787119,68.54785699990066],[3.4686460562705292,68.565185611027175],[3.4815085001172292,68.582488139116379],[3.4946460276920561,68.599763971729942],[3.5080589168855454,68.617012582764517],[3.5217473061932765,68.634233417338407],[3.5357114438281201,68.651425861214591],[3.5499514440039661,68.668589417068006],[3.5644675279540934,68.685723443682036],[3.579259806295056,68.702827416751916],[3.5943284723811644,68.719900777798728],[3.6096736386275552,68.736942944061695],[3.6252954174495926,68.753953332780156],[3.6411939437455771,68.770931389072416],[3.6573693326286616,68.787876556258141],[3.67382163895752,68.804788277656939],[3.6905510003284689,68.821665944427821],[3.7075574167414516,68.838508999890507],[3.7248409997123986,68.855316889163134],[3.7424018058986803,68.872089027686513],[3.7602398326022239,68.888824860578893],[3.7783551112993905,68.90552380597893],[3.796747694150838,68.922185306306915],[3.8154175280964751,68.938808777902807],[3.8343646670957696,68.955393666784346],[3.8535890562899908,68.971939389291435],[3.8730906390218252,68.988445360864773],[3.8928694170899689,69.004911056300273],[3.9129252780791717,69.021335861360967],[3.9332582219893766,69.037719222064482],[3.9538681112243808,69.054060582629859],[3.9747548612479022,69.070359361195642],[3.9959183893222416,69.086615000182178],[4.0173585281735882,69.102826888949835],[4.0390751941649228,69.118994499596511],[4.0610682218210172,69.135117278139944],[4.0833374717469724,69.151194583363406],[4.105882749689215,69.167225917042515],[4.1287038613941149,69.183210693718593],[4.1518006108095733,69.199148333328992],[4.1751728333596247,69.215038250414977],[4.1988202502544141,69.23087991707456],[4.2227426393613428,69.246672749647757],[4.2469397497696946,69.262416194152081],[4.2714113332664851,69.278109639048637],[4.2961570831828908,69.293752583415028],[4.321176750406778,69.309344416611566],[4.3464699716119526,69.324884582857294],[4.3720364437269268,69.340372528169723],[4.3978758609822535,69.355807667090232],[4.4239878609510583,69.371189471716775],[4.4503720560256284,69.386517361087385],[4.4770280828797695,69.401790777622352],[4.5039555557044082,69.417009167339245],[4.5311540563146764,69.432171943880178],[4.5586231944049587,69.447278555960622],[4.5863624717507037,69.462328472081367],[4.6143714998448786,69.477321111280332],[4.6426497777650866,69.492255916877127],[4.6711968612461874,69.507132333090738],[4.6769930278060201,69.510128750041815],[4.6948980827803553,69.526924778156058],[4.7130899441456791,69.543684833388397],[4.7315686667606087,69.560408360857195],[4.7503342776048498,69.57709477780179],[4.7693868333357159,69.593743471783853],[4.7887263330538872,69.610353916699978],[4.8083528064369148,69.626925527990807],[4.8282662498875766,69.643457721996356],[4.8484666391241262,69.659949943834874],[4.8689539165900442,69.676401582866788],[4.8897280831845364,69.692812111190051],[4.910789083149723,69.709180917265599],[4.9321368058689359,69.725507472292065],[4.9537711937855988,69.741791138650171],[4.975692193839734,69.758031417216159],[4.9978996387573602,69.77422766677347],[5.0203934170226034,69.790379389097609],[5.043173417119533,69.806485916891631],[5.0662394996532498,69.82254675013246],[5.0895914721687632,69.838561306059489],[5.1132291943718542,69.854529000113303],[5.1371524171503893,69.870449250432614],[5.1613610002100359,69.886321500337033],[5.1858547223176288,69.902145194045545],[5.2106333055826326,69.917919721817782],[5.2356965278725056,69.93364452787273],[5.2610441670547061,69.949319056429374],[5.286675888581442,69.964942749908062],[5.3125914442397857,69.980515000367006],[5.3387905003813216,69.996035250226669],[5.3652727503372262,70.011502943705921],[5.3920378892372582,70.026917527721764],[5.4190855276750085,70.042278388936552],[5.4464153329013243,70.057585000347558],[5.4740268894294672,70.072836778294743],[5.4933526672917878,70.083387861060999],[5.5772171388599077,70.128839917428309],[5.6054256941405356,70.143984777675428],[5.6339154719215685,70.159073166793291],[5.6626860558168914,70.174104500222541],[5.6917369997627816,70.189078222182275],[5.7210678334138265,70.203993777790686],[5.7506780558476294,70.218850583387791],[5.7805671940208185,70.233648111071545],[5.8107346939510194,70.248385778081229],[5.8411800556150979,70.263063027736621],[5.8719027223328339,70.277679333034826],[5.9029021113433942,70.292234111215294],[5.9298222780757328,70.304719944170131],[5.9515979440898832,70.321074388971908],[5.9736699169331473,70.337386277854478],[5.9960381669279172,70.353655055936144],[6.0187025825582054,70.369880110778524],[6.0416630828850089,70.386060917177645],[6.0649195833721024,70.40219688877545],[6.0884719167456183,70.418287416730948],[6.1123199723888888,70.434331944363805],[6.1364635830279894,70.450329916792271],[6.1609026110667173,70.466280721578073],[6.1856368325738345,70.48218377775919],[6.2106661108524008,70.498038555634878],[6.23599019409221,70.513844443666187],[6.2616088889391222,70.529600888770062],[6.2875219166032252,70.545307306387144],[6.3137290558512973,70.560963111058811],[6.34023002789354,70.576567749701951],[6.3670245557386806,70.592120638656581],[6.3941123327180094,70.607621222141745],[6.4214930278809561,70.623068888618377],[6.4491663327601145,70.638463111083752],[6.477131889425209,70.653803277998918],[6.5053893327515766,70.66908886056251],[6.5339383057083182,70.68431924993348],[6.5627783892113598,70.699493889431494],[6.5919091938542351,70.714612222376218],[6.601117917058275,70.71934858287085],[6.8969707216215284,70.869841110678749],[7.1972442219433219,71.019868472252256],[7.3822078060454714,71.110949778409577],[7.4128831108669146,71.125870389107206],[7.4438533609438764,71.140732056439333],[7.4751180562533364,71.155534249805839],[7.5066766670945526,71.170276417023103],[7.5385286673641758,71.184957943854101],[7.5706735003817585,71.199578278115098],[7.6031106112657199,71.214136889206145],[7.6358393893763719,71.228633167386818],[7.6688592501542985,71.243066610835456],[7.7021695829599253,71.257436582832099],[7.7357697501738585,71.271742583353614],[7.7696590557208651,71.285984055719666],[7.8038368610823454,71.300160389290568],[7.8383024441025668,71.314271083144035],[7.8730551392832808,71.328315556317932],[7.908094166912349,71.342293250333285],[7.9434188057333586,71.356203639086743],[7.9790282778328105,71.370046166797238],[8.0149218331761176,71.383820249804728],[8.0510986111120815,71.397525361106602],[8.0875578328277697,71.411160971901381],[8.1242986385713607,71.424726528206747],[8.1613201667923363,71.438221472443047],[8.1986215559401217,71.451645277607554],[8.2362019165852303,71.464997416697486],[8.2740602783592294,71.478277306052917],[8.3121957779128479,71.491484443852073],[8.350607389119773,71.504618277911277],[8.3892941937720593,71.517678306408754],[8.4282551666426571,71.530663943885941],[8.467489332866478,71.543574721796006],[8.5069956393373332,71.556410055579647],[8.5467729996742605,71.569169472193437],[8.5868204174283846,71.58185241675568],[8.6271367495613731,71.594458361364332],[8.6677208890078532,71.606986778117346],[8.7085717224071004,71.619437193971407],[8.7303703058449855,71.62601611065503],[9.1442653612574532,71.74927722176642],[9.5635015280731182,71.871659082800477],[9.6410664717403165,71.894033556103807],[9.6834916394276433,71.906170471889823],[9.7261817500877328,71.918226694206624],[9.7691354718245975,71.930201722131812],[9.8123515563792694,71.942095055642369],[9.8558287222177796,71.953906166836191],[9.8995656113639257,71.965634582669907],[9.9160005284016961,71.970002555673489],[9.9240643606817684,71.974780861447641],[9.951039778163306,71.990640972303083],[9.9783373606807118,72.006452027838861],[10.005956943658077,72.022213388637056],[10.033898360720798,72.037924499815858],[10.0621613609581,72.053584749836375],[10.09074572223733,72.069193582917592],[10.119651166668064,72.084750417198052],[10.148877499996672,72.100254639340164],[10.178424360695715,72.115705666583324],[10.208291499653058,72.131102944045665],[10.238478556240409,72.146445888966639],[10.268985249869445,72.161733861028893],[10.291959889337477,72.173089527659613],[10.299811166851896,72.176966361108725],[10.330955943861795,72.192142749788104],[10.362419222069491,72.207262472185391],[10.394200583290342,72.222324916761579],[10.42629955627956,72.237329555614565],[10.458715749832038,72.252275778104718],[10.491448666622716,72.267162999672735],[10.524497832708846,72.281990639356593],[10.557862721987078,72.296758138677205],[10.591542861413984,72.311464916672605],[10.625537638551236,72.326110416662459],[10.659846556073774,72.340694028007022],[10.694469027623597,72.355215194026016],[10.72940441738001,72.369673332858099],[10.764652111106102,72.384067916601111],[10.800211472081799,72.39839830583719],[10.836081860889237,72.412663999643939],[10.872262611130623,72.426864361301284],[10.908752971872218,72.440998888987565],[10.945552249736579,72.45506697206315],[10.982659693789913,72.469068055646289],[11.020074555796157,72.483001583056648],[11.057796083022879,72.496867000311852],[11.095823416617407,72.510663749832247],[11.134155749888009,72.524391221877465],[11.172792277941312,72.538048917323749],[11.211732082569597,72.551636277692126],[11.250974332799274,72.565152694141602],[11.290518083442862,72.578597666649046],[11.33036241719185,72.59197061065521],[11.370506388858814,72.605271000056689],[11.410949028075208,72.618498278173035],[11.451689360875378,72.631651889223349],[11.4927263332537,72.644731278325878],[11.534058944264928,72.657735916679258],[11.575686139004176,72.670665278180081],[11.617606860768035,72.683518806148015],[11.659819944035235,72.696295943902726],[11.702324333001627,72.708996167139446],[11.74511886124651,72.72161897223782],[11.788202360550542,72.734163778235825],[11.831573667191037,72.746630111190711],[11.875231528412371,72.759017389241194],[11.919174777793785,72.771325110565442],[11.96340211131843,72.783552722080515],[12.007912278029266,72.795699749843664],[12.05270399998966,72.807765666852106],[12.097775917424713,72.819749917324884],[12.143126721820806,72.831652028218571],[12.188755056101002,72.843471443752208],[12.234659528114776,72.855207693580269],[12.280838693550891,72.866860249800766],[12.327291194433144,72.878428610591982],[12.374015527994288,72.889912277729479],[12.421010249923143,72.901310750290975],[12.468273861049909,72.912623528253278],[12.515804833426387,72.923850110694104],[12.563601639104434,72.934990028167306],[12.611662694377912,72.946042750072934],[12.659986444318974,72.957007833045111],[12.708571278241948,72.967884750081225],[12.757415555783325,72.97867305601676],[12.806517639277672,72.989372277808457],[12.855875832603658,72.999981917231764],[12.905488472015406,73.010501500344049],[12.955353832613355,73.020930555900463],[13.005470167014664,73.031268638736719],[13.05583572244069,73.041515277608028],[13.1064487218311,73.051670028249248],[13.157307361145854,73.06173238883872],[13.201591916733605,73.070379971958175],[13.68199258299137,73.162582083396501],[13.733844027979558,73.172352971912176],[13.785934832926273,73.182029610578127],[13.838263083174809,73.191611500270596],[13.890826805612619,73.201098249784479],[13.943624028026534,73.210489416653331],[13.996652778203213,73.219784582692398],[14.049911028171437,73.228983306334555],[14.103396777839066,73.238085166697147],[14.157107917396502,73.247089750091959],[14.211042444053589,73.255996639233558],[14.265198194041488,73.264805416836566],[14.319573082731608,73.273515667414188],[14.374164972435551,73.282127027640286],[14.428971721867526,73.290639055947736],[14.483991082722355,73.29905136113149],[14.539220944291174,73.307363582563369],[14.594659027692046,73.315575332635547],[14.650303110700065,73.323686167082997],[14.688745806074166,73.329213555960905],[15.250181221686091,73.408379721846757],[15.634855694035082,73.461357582986125],[15.643520305817503,73.462537917091254],[16.213855583268582,73.539029027967331],[16.608293028300693,73.590651832915796],[17.108052694276466,73.701523083123845],[17.614360778227365,73.811228527774404],[17.741360389070735,73.838340527993012],[17.792623806043878,73.849177694095374],[17.844163194375994,73.859925389345278],[17.895976832764688,73.870583056163184],[17.948062889290952,73.881150278162863],[18.000419583297173,73.891626556220672],[18.053045110743312,73.902011389414156],[18.1059375560734,73.912304332578969],[18.15909505589218,73.922504889289257],[18.212515750401622,73.932612610783394],[18.266197638610208,73.942627027615288],[18.320138832840939,73.952547666741509],[18.374337306021914,73.962374082997599],[18.428791083241947,73.972105806038201],[18.483498111348808,73.981742388900159],[18.538456389350927,73.991283389117143],[18.561108028312901,73.995175472370192],[18.570389110968733,73.996765027683921],[18.62570883279642,74.00616808269092],[18.681274693672208,74.015474500148116],[18.737084610766203,74.024683806112819],[18.79313636095435,74.033795583299593],[18.849427832628407,74.042809389241995],[18.905956778382688,74.051724832734919],[18.962721000273973,74.060541444332273],[19.019718222118286,74.069258860707919],[19.076946193811864,74.07787663939547],[19.134402583412566,74.086394389189763],[19.192085139017991,74.094811666725093],[19.249991472028853,74.10312811137328],[19.308119249603749,74.111343305848948],[19.366466056163631,74.119456860745572],[19.425029528290167,74.127468417233729],[19.483807193747054,74.135377528350318],[19.542796610874916,74.143183889225156],[19.601995305638866,74.150887055593216],[19.6614008058026,74.158486693805912],[19.721010611250733,74.165982417154908],[19.780822139130464,74.1733738892936],[19.84083283266915,74.180660749593983],[19.901040166570453,74.187842611347492],[19.961441500424939,74.19491916698604],[20.022034221702029,74.201890028002424],[20.082815693589453,74.208754917405543],[20.143783249597334,74.215513443990289],[20.204934222336533,74.222165277705471],[20.266265917438204,74.228710138861857],[20.327775610855781,74.235147666831438],[20.389460583039522,74.241477555844597],[20.451318028104538,74.247699500131887],[20.513345222004432,74.253813221802773],[20.575539360653011,74.259818361128509],[20.637897639064818,74.265714639319185],[20.700417193798501,74.271501806363347],[20.763095221667186,74.277179527713088],[20.825928833149192,74.282747528175946],[20.888915166601691,74.288205555941715],[20.952051306422732,74.29355333311986],[21.015334333412795,74.298790582719278],[21.078761360748274,74.303917055627664],[21.142329389190024,74.308932472155902],[21.20603550043802,74.313836638949795],[21.269876667374376,74.318629250239781],[21.333849943819928,74.323310082993999],[21.397952333233661,74.327878916878547],[21.462180750041625,74.3323355279623],[21.526532221984496,74.336679667133012],[21.591003694065307,74.340911139237733],[21.655592056428304,74.345029722144034],[21.720294249579979,74.34903519371926],[21.785107222120644,74.35292738938756],[21.850027860597322,74.356706083419056],[21.915053000295757,74.360371083358871],[21.980179582621702,74.363922249812049],[21.983482638712871,74.364099167142911],[22.084361305829646,74.369473528280764],[22.149634000109074,74.372875499904467],[22.21500088937961,74.376163193776449],[22.28045877835001,74.379336444421426],[22.346004556265314,74.382395110645916],[22.411634972076342,74.385338999994929],[22.477346861068838,74.388167972174244],[22.543137027951502,74.390881888688284],[22.609002249554237,74.39348063892038],[22.674939333283646,74.395964055596721],[22.740945000211639,74.398332000221671],[22.807016028067267,74.400584417037294],[22.873149193680376,74.402721110890639],[22.917116999949656,74.404076639225593],[23.066230472258553,74.414645361294447],[23.130775667163334,74.419135110596926],[23.195445667283764,74.423512361006715],[23.26023744370309,74.427776888592575],[23.325147889263746,74.431928472121342],[23.39017388871406,74.435966917339442],[23.455312360976734,74.439892000315638],[23.520560167417841,74.4437035555747],[23.585914166705493,74.44740133310512],[23.651371249883312,74.450985222290228],[23.716928221660169,74.454454972219253],[23.782581917321693,74.457810444396557],[23.848329138878682,74.461051472447537],[23.914166721616937,74.46417788909838],[23.980091444164884,74.467189500095401],[24.046100111231226,74.470086193922782],[24.112189499645751,74.47286783298415],[24.178356333178272,74.475534222126726],[24.24459744441657,74.478085249834464],[24.310909499573825,74.480520806390132],[24.377289306056696,74.48284074970087],[24.443733583138396,74.485044971848026],[24.510239027609089,74.487133361315614],[24.576802389318857,74.489105805688439],[24.643420360561265,74.490962194349834],[24.710089666904651,74.492702416683244],[24.776806999743314,74.494326443910325],[24.843569055867306,74.495834139334136],[24.910372499691164,74.497225443599405],[24.977214055884019,74.498500306344113],[25.044090360981443,74.499658639434699],[25.110998138753132,74.500700361032898],[25.17793402843273,74.501625472037972],[25.244894694434663,74.502433860933991],[25.311876832649773,74.503125555599979],[25.378877083210853,74.503700472398918],[25.445892111431874,74.504158582552577],[25.512918555646877,74.504499888758914],[25.579953110847441,74.504724389219234],[25.646992417166359,74.504832000296631],[25.714033139018227,74.504822777749041],[25.781071917435099,74.504696721576522],[25.848105416831572,74.504453805698631],[25.915130278239815,74.504094056195811],[25.982143193953277,74.503617500047653],[26.049140805903505,74.503024139052854],[26.116119777605718,74.502314028069975],[26.183076750091971,74.501487194078777],[26.250008416555204,74.500543693736518],[26.316911444107916,74.499483555821485],[26.383782499862548,74.498306833393713],[26.450618250032278,74.497013610989427],[26.469681528379908,74.496623250362745],[27.137138500241633,74.481789694039207],[27.803280889001883,74.464986888634087],[28.467950083029962,74.446221277789789],[28.852322277950805,74.434453193759964],[28.918582861310028,74.432307638886471],[28.984780888727073,74.430046361050756],[29.050913166709336,74.42766949964772],[29.116976360570618,74.425177139213645],[29.182967305596719,74.422569417344789],[29.248882749839083,74.419846500415701],[29.314719444047171,74.417008499942369],[29.380474221708027,74.414055556219012],[29.446143860550762,74.410987805942568],[29.511725139203861,74.407805444265875],[29.577214917234699,74.404508582704977],[29.642610000251352,74.401097444291679],[29.707907221740925,74.39757216662224],[29.773103443968807,74.393932916970584],[29.838195528301014,74.390179916569934],[29.903180333405714,74.386313305714566],[29.93810608332916,74.384185582598604],[30.558418194144394,74.345136306195627],[30.622917250230955,74.340916667370379],[30.687296611049817,74.336584305721203],[30.751553221603956,74.332139472158985],[30.815684027795726,74.327582388816268],[30.879686027688081,74.322913249946566],[30.916003277929008,74.320209666642882],[30.937164332867724,74.318621777772876],[31.000945667008978,74.313771388638713],[31.064590360856528,74.3088095833956],[31.128095443949633,74.303736611155728],[31.191457944028969,74.298552721930605],[31.254674888835098,74.293258193610825],[31.317743416725364,74.287853278006423],[31.380660611198323,74.282338250310033],[31.443423555752531,74.27671338931151],[31.506029388745333,74.270978917143395],[31.568475250332597,74.265135194433753],[31.630758332830851,74.259182472093471],[31.692875778194662,74.253121055892052],[31.754824805720261,74.246951221921393],[31.816602611321514,74.240673305628604],[31.878206471851229,74.234287583105527],[31.939633611102295,74.227794388900008],[32.00088127804861,74.221194055761146],[32.061946833179832,74.214486888559122],[32.122827528167932,74.207673193962762],[32.183520693825017,74.2007533326003],[32.244023722117106,74.193727639019357],[32.304333943856477,74.186596444170618],[32.364448777988741,74.179360111380106],[32.424365638963138,74.172018971598334],[32.48408194392664,74.164573416929727],[32.543595138804676,74.157023750445774],[32.60290269380431,74.149370389431965],[32.662002139387255,74.141613666637454],[32.720890971840902,74.13375397236797],[32.779566721626963,74.125791694231339],[32.838026944388048,74.117727193755059],[32.896269249726117,74.10956088912377],[32.954291249941264,74.101293111288101],[33.012090527655801,74.092924306311716],[33.069664750028267,74.084454860903179],[33.127011583317994,74.075885194146451],[33.184128750441516,74.067215666669711],[33.241013943738551,74.058446749717803],[33.29766488882359,74.049578805717374],[33.354079388652906,74.040612250155277],[33.410255194022056,74.031547556074884],[33.466190139363505,74.022385138963045],[33.521882056411812,74.013125389125491],[33.577328777800915,74.003768777806897],[33.632528221600182,73.994315722292811],[33.687478250121217,73.984766666848259],[33.706594193667172,73.981398944106047],[33.742176805715076,73.975122055738325],[33.796621861309916,73.965382361107118],[33.850811361055548,73.955548000240071],[33.90474333273869,73.945619472260887],[33.958415778065785,73.935597166576031],[34.011826750004559,73.925481611087548],[34.0649743329991,73.915273250060523],[34.117856610594174,73.904972555639006],[34.170471694213347,73.894579999967107],[34.222817750139086,73.884096028209171],[34.274892943754423,73.87352116736804],[34.326695471918526,73.862855860809361],[34.378223527893567,73.852100611254286],[34.429475360699371,73.841255916927082],[34.480449277811999,73.830322249971914],[34.531143528251278,73.819300083432154],[34.5815564437749,73.808189972189496],[34.631686360637104,73.7969923614084],[34.681531667252671,73.785707778091535],[34.731090722358999,73.774336722261978],[34.780361944048536,73.762879721821776],[34.829343806171778,73.751337249814299],[34.878034722324628,73.739709833242273],[34.926433222115577,73.727998000007744],[34.974537806374713,73.71620225013379],[35.022347000213927,73.704323110623136],[35.042841750146692,73.699182556130097],[35.455634332958141,73.594314667288131],[35.613224500110618,73.565119472085996],[35.666011860558967,73.55523383277523],[35.718548249901858,73.545254583032659],[35.770831777764386,73.535182194103015],[35.822860527691262,73.525017111150817],[35.874632693843807,73.514759778441089],[35.926146389444341,73.504410667218565],[35.977399832935987,73.493970278405698],[36.028391194198321,73.483439056267514],[36.079118750130249,73.472817499927714],[36.129580693993887,73.462106056349455],[36.179775361144038,73.451305221958478],[36.229701027580404,73.440415500375082],[36.279355999879556,73.429437333166447],[36.328738667355651,73.418371250033204],[36.377847360867065,73.407217722220139],[36.426680500304883,73.395977249750331],[36.475236500164385,73.3846503326468],[36.476220919659738,73.384417859696498]]},"properties":{"FID":0,"OBJTYPE":"GrenseSjø","NAVN":"200 nautiske mil ved Fastlands-Norge"}},{"type":"Feature","id":1,"geometry":{"type":"LineString","coordinates":[[-6.6373233606844906,67.611380361014881],[-6.6223161938372073,67.612756555770488],[-6.5766160558862339,67.617008417304646],[-6.5309600827415579,67.621341332936197],[-6.4853490828938334,67.625755249605163],[-6.4397839439737936,67.630250082775149],[-6.3942655284313332,67.634825721829657],[-6.3487946393610741,67.639482083131668],[-6.3033722219504398,67.644219110923302],[-6.2579990559116823,67.649036693688515],[-6.2126760558552405,67.653934721710073],[-6.1674040563520975,67.658913139230037],[-6.122183944133667,67.663971805954134],[-6.0770165555695144,67.669110694003393],[-6.0319027504115752,67.674329638801851],[-5.9868434441695513,67.679628555813281],[-5.9418394165558084,67.685007361400665],[-5.8968916109590168,67.690465944048128],[-5.8520008610508398,67.696004221917349],[-5.8071680283817386,67.701622055613427],[-5.7623939718043289,67.707319360600081],[-5.7176795834459995,67.713096000180315],[-5.6729853605858693,67.718905860716973],[-5.6378777218793061,67.723490360791573],[-5.593249472385196,67.729395889408806],[-5.5486831942739627,67.735380472031238],[-5.5041797221164188,67.741444027719751],[-5.4597399444428447,67.747586389200535],[-5.4153647219043251,67.753807471937364],[-5.37105494393046,67.760107139233128],[-5.3268114720717108,67.766485277773427],[-5.2826351669793326,67.772941749961831],[-5.238526944163084,67.779476444282523],[-5.1944876390932109,67.786089250118835],[-5.1505181394005604,67.792780028075867],[-5.1066193327159795,67.799548638758722],[-5.0627920832879454,67.806394971550731],[-5.0190372778480423,67.81331888885569],[-4.9753558058257568,67.820320250379325],[-4.9317485278722302,67.827398916726679],[-4.8882163334170059,67.83455475030155],[-4.8447601109903076,67.841787638688629],[-4.8013807221425395,67.849097417312009],[-4.7580790563033588,67.856483944078832],[-4.7148560280832044,67.86394708319142],[-4.6717124999318571,67.871486694355497],[-4.6286493333999488,67.879102639075597],[-4.5856674718762633,67.886794750077684],[-4.5427677499316701,67.89456288886629],[-4.4999510830759846,67.902406916945722],[-4.4572183607386933,67.910326639163145],[-4.4145704723493964,67.918321944002571],[-4.372008306438147,67.926392666888148],[-4.3295327497365861,67.934538638747256],[-4.2871446943721025,67.942759694104666],[-4.2448450558545687,67.951055722343767],[-4.2026347218148885,67.959426500432699],[-4.1605145556022194,67.967871888976561],[-4.1184854997060256,67.976391721600748],[-4.076548416576145,67.984985832829977],[-4.034704221722393,67.993654083269405],[-3.997370832897559,68.001422582686075],[-3.9711620559840526,68.00569205564392],[-3.9273554172186778,68.012899638907243],[-3.8836256668909641,68.02018405574961],[-3.8399737223093666,68.027545166776065],[-3.7964004171454917,68.034982832591709],[-3.7529066938887468,68.042496944378513],[-3.7094933889086974,68.050087306084379],[-3.666161443795545,68.057753778314293],[-3.6229117218983902,68.065496249552325],[-3.5797451108481368,68.073314556121943],[-3.53666252795324,68.081208528051206],[-3.493664832965635,68.08917799986483],[-3.4507529440930398,68.097222860946317],[-3.4079277777447032,68.105342944021686],[-3.3651901936724471,68.11353805573674],[-3.3225410831044542,68.121808082776852],[-3.2799813894295085,68.130152832687145],[-3.2375119723995454,68.138572139093014],[-3.1951337502223396,68.14706588867989],[-3.1528476393070832,68.15563386111387],[-3.1106545003049177,68.164275889121029],[-3.0685552784033234,68.172991833306526],[-3.0339665278329448,68.180185278327997],[-2.9967248887425626,68.187960666551589],[-2.9547783888115191,68.196806527699152],[-2.9129283060963758,68.205725832880944],[-2.8711755561070049,68.21471838874271],[-2.8295210561517479,68.223784028010527],[-2.7879656938616222,68.232922556430879],[-2.746510389243042,68.24213380583052],[-2.7051560829867753,68.251417582855197],[-2.6639036393414131,68.260773722029683],[-2.6227539998971565,68.270202028201084],[-2.581708055882018,68.279702333196155],[-2.5407667776646008,68.289274416681053],[-2.4999310276947426,68.298918111381795],[-2.4592017502604904,68.308633222145545],[-2.4185798608718301,68.31841955561805],[-2.3780662498575111,68.328276916646416],[-2.3376618893846626,68.338205110977128],[-2.2973676670841314,68.348203917376964],[-2.257184528143398,68.35827319375295],[-2.2171133889716543,68.368412693690914],[-2.177155193857061,68.37862224991693],[-2.1373108061487187,68.388901610620906],[-2.0975812222955028,68.399250611226762],[-2.0579673614045646,68.409669027803432],[-2.0184701111066943,68.420156666996661],[-2.0080646672505509,68.422932139406782],[-1.9955356668374975,68.426278278419886],[-1.9561837496802355,68.436854277802752],[-1.9169505826032491,68.4474989997791],[-1.8778371386729873,68.458212222216332],[-1.8388443612781771,68.468993749961669],[-1.7999731389491558,68.479843360882455],[-1.7612244717319641,68.490760832846206],[-1.7225992220763828,68.501745916740731],[-1.6840983891293035,68.512798472271754],[-1.6457229171788299,68.523918193669772],[-1.6374150826399045,68.526336222438772],[-1.6356949997244215,68.52683686063267],[-1.5974431386898686,68.53802461124684],[-1.5593185281275055,68.549279111341946],[-1.521322139305255,68.560600110906421],[-1.4834548607531701,68.5719873887071],[-1.4457176673364529,68.583440693832983],[-1.4081115276248397,68.594959832929987],[-1.3706373607255955,68.606544555986545],[-1.3332961109267103,68.618194639071419],[-1.2960887782744521,68.629909806092712],[-1.2590162782785796,68.641689833119358],[-1.2220795831062219,68.653534499817397],[-1.1852796109652104,68.665443556175205],[-1.1486173610023798,68.677416721604459],[-1.1120937784050966,68.689453777569838],[-1.0757098056629388,68.701554500140105],[-1.0394664167416749,68.71371858264655],[-1.0033645829091142,68.725945832634125],[-0.9674052502520567,68.738235972212408],[-0.93158938913893508,68.750588721692225],[-0.89591794385796675,68.763003860739616],[-0.86039188927423993,68.77548111056484],[-0.82501222183651635,68.788020194176681],[-0.78977988943029231,68.80062091732151],[-0.75469583274644947,68.813282943653007],[-0.7197610563276271,68.826006056434437],[-0.68497652784441243,68.838789972379402],[-0.65034322216195051,68.851634417194646],[-0.61586211144725667,68.864539111191107],[-0.58153413908917173,68.877503833135449],[-0.54736033301293219,68.890528250278578],[-0.51334161142619905,68.903612110810343],[-0.47947899955613593,68.91675516741708],[-0.44577347226788788,68.929957110732119],[-0.41222597205091915,68.943217638583235],[-0.37883752772967227,68.956536527938454],[-0.34560911057195653,68.969913444250096],[-0.31254166666451511,68.983348139305235],[-0.27963622213388817,68.996840306435047],[-0.24689375004646763,69.010389666849676],[-0.21431522167011963,69.023995916578372],[-0.18190166672849273,69.037658777730485],[-0.14965402771116487,69.051377972415537],[-0.11757330556355328,69.065153166985112],[-0.085660500331755429,69.078984082649356],[-0.053916611162605932,69.092870444215691],[-0.022342611122553535,69.106811917136326],[0.0090604718633358061,69.120808249601112],[0.040291694406221268,69.13485905580086],[0.071350027681660322,69.148964110905069],[0.10223447164361232,69.163123083063908],[0.10662361109081075,69.165144555776692],[0.11459897166525934,69.168821778402389],[0.14526886076936307,69.183047360647208],[0.17576263923444913,69.197326166569383],[0.20607925035716335,69.211657888600712],[0.23621774984934518,69.2260421939921],[0.26617711068513472,69.240478777873363],[0.29595630583889942,69.254967332676301],[0.32555438922372559,69.269507499571489],[0.35497030593489853,69.28409902764804],[0.38420305592632076,69.298741528398864],[0.41325166703086325,69.313434722134787],[0.4421151113234032,69.328178250026269],[0.47079236087881782,69.342971806303865],[0.49928241744964907,69.357815056419781],[0.5275843061708656,69.372707693705138],[0.55569697213758218,69.387649333250181],[0.5836194440821032,69.402639693567039],[0.61135066709965713,69.417678416725607],[0.63888963934545018,69.432765139399692],[0.66623538865229648,69.44789958279955],[0.69338686101485791,69.463081361115997],[0.72034302760869195,69.478310138901861],[0.74710291716593247,69.493585583407992],[0.77366549996287404,69.508907333107004],[0.80002974987309017,69.524275056148952],[0.82619463897145806,69.539688389207868],[0.85215916721182339,69.555147000433806],[0.87792233274950604,69.570650528299325],[0.90348308337763683,69.586198611276927],[0.92884041725147881,69.601790916617574],[0.95399330644596603,69.617427055814005],[0.97894072213665595,69.633106694318542],[1.003681693955059,69.648829443623981],[1.0282151391174352,69.66459497188049],[1.0525400557789908,69.680402888782339],[1.0766554438936851,69.696252832802031],[1.1005602503553291,69.71214447208979],[1.1242535002988348,69.728077389360067],[1.1477341109405188,69.744051250065183],[1.1710011110125151,69.760065638718288],[1.194053416831764,69.776120221670965],[1.216890083210842,69.792214583436305],[1.2395100282652152,69.80834838856731],[1.2619122501502602,69.824521250355474],[1.2840957218401172,69.840732749716665],[1.3060594172083597,69.856982555700426],[1.3278023326116113,69.873270222243036],[1.3493234167423225,69.889595416595228],[1.3706216668564934,69.905957722371056],[1.3916960280492958,69.922356778042911],[1.4125455002746889,69.93879216722479],[1.4331690825871419,69.955263471731882],[1.4535657218806364,69.971770360613732],[1.4737343893306729,69.988312388705822],[1.4936740830925146,70.004889166601799],[1.5133837779390547,70.021500305794518],[1.5328624441465308,70.038145388998544],[1.5521090555885166,70.054824027706786],[1.5711226113194812,70.071535806432394],[1.5899020834144721,70.088280306091292],[1.6084464169686044,70.105057166954737],[1.6267546389154859,70.121865916878619],[1.6448257222293705,70.138706167355792],[1.6626586389850218,70.155577528080528],[1.6802523612574873,70.172479555687005],[1.6976058890006129,70.189411860768814],[1.7147181942892757,70.206373972081224],[1.731588277976698,70.223365528096679],[1.7482150833594687,70.240386055771921],[1.7645976670487471,70.257435166599691],[1.7807349435628339,70.274512417214339],[1.7966259722109044,70.291617417310022],[1.8122696666118827,70.308749666863719],[1.8276650833769281,70.325908806146515],[1.8354059439292314,70.33357419379405],[1.8523676388554691,70.350566971988201],[1.8690847217825421,70.367588721842083],[1.8855561665838536,70.384638999989932],[1.9015388892084388,70.401463889147237],[1.9017809723140431,70.401717417025225],[1.9177581110480446,70.418823499904647],[1.9334865557599983,70.435956861020372],[1.9489652776255184,70.453117028228348],[1.9641932496188019,70.470303611222732],[1.9791694995727767,70.487516138758849],[1.9938929995623198,70.504754193551264],[2.0083626937833401,70.522017361012445],[2.0225776109680282,70.539305167199757],[2.0365367222919417,70.55661716694874],[2.050239027708983,70.573952943873337],[2.063683500193406,70.591312056406309],[2.0768691387997364,70.608694055786088],[2.0897949443812536,70.626098471667206],[2.1024599168916893,70.64352486068384],[2.1148630284060914,70.660972805550614],[2.127003332837603,70.678441806244393],[2.1388797501004433,70.695931443681218],[2.1504913610875178,70.713441250213577],[2.1618371387729667,70.730970777979053],[2.1729160831108061,70.748519527854],[2.1774694441595557,70.755922221733215],[2.1837271940548248,70.76608711133116],[2.1942695282161822,70.78367299960928],[2.2045420558712294,70.801276750221916],[2.2145438057521005,70.818897917105232],[2.2242738056916096,70.836536028115233],[2.2337310556437728,70.854190583228899],[2.242914611320316,70.871861139080352],[2.2518234717758219,70.889547221726957],[2.2604566666419146,70.907248360823246],[2.2688132498316804,70.924964083325847],[2.2768922500773101,70.942693889211682],[2.284692667332763,70.960437306336701],[2.2922135833902075,70.978193860758097],[2.2994540278811542,70.995963083029892],[2.3064130556180658,71.013744472229689],[2.313089694433927,71.031537556213323],[2.3194830279194321,71.049341833159133],[2.3255920830082459,71.067156805742059],[2.3314159441904962,71.08498202789832],[2.3369536671780224,71.102816971725929],[2.3422043058840814,71.120661166879415],[2.3471669438993672,71.138514110637743],[2.3518406387345294,71.156375277796883],[2.3562245000607049,71.174244222293055],[2.3603175826903566,71.19212041712359],[2.3641189998919572,71.210003332587803],[2.367627832558469,71.227892528017833],[2.3708431390996338,71.245787444035386],[2.373764083145943,71.263687611194371],[2.3763897222079891,71.28159252767307],[2.3787191938357637,71.299501667368133],[2.3807515834188848,71.317414499679501],[2.3824860276081381,71.335330556060342],[2.3839216387726765,71.353249278031797],[2.3850575562612448,71.37117019434902],[2.385892888845774,71.389092750130374],[2.3864268055526736,71.407016472332373],[2.3866584439321059,71.42494080607338],[2.3865869442321355,71.442865250430998],[2.3862114718819498,71.460789278402558],[2.3855311671297272,71.478712361186581],[2.3845452223841335,71.496633971780454],[2.3832527778934605,71.514553611060364],[2.3816530278650134,71.532470693567689],[2.3797451674055878,71.550384749856391],[2.3775283610450515,71.568295222346705],[2.3750018326684881,71.586201611015611],[2.3721647782819559,71.604103333102387],[2.3690163606165697,71.621999860705046],[2.3655558611141601,71.63989069380051],[2.3617824721833927,71.657775278406405],[2.3576954168100883,71.675653083023406],[2.35329394406034,71.693523527588809],[2.3485773056981429,71.71138613905913],[2.3435447220113588,71.729240305895473],[2.3381954717436884,71.747085528074706],[2.3325288057598073,71.76492124981587],[2.3265440001055708,71.782746917136592],[2.3202403614035916,71.800562000336129],[2.3136171665989878,71.818365943633466],[2.3066736665564918,71.836158166965902],[2.2994092497371525,71.853938166713078],[2.2918231391266204,71.871705361013653],[2.2839147222866245,71.889459194086612],[2.2756833058399479,71.907199111050204],[2.2671282215902124,71.924924583103063],[2.2582488328174009,71.942635028383904],[2.2490444722246821,71.960329917191984],[2.2395145282729345,71.978008638887616],[2.2296583327658936,71.995670667367449],[2.2194753326205614,72.013315444152454],[2.2089648893182243,72.030942389179984],[2.1981263886219722,72.048550916991303],[2.1869592783480698,72.066140527563334],[2.1754629442594933,72.083710611155823],[2.1636368332733014,72.101260611088378],[2.151480416588015,72.118789943701017],[2.1389930826646832,72.136298055910629],[2.1261743611578936,72.153784361359271],[2.113023693588616,72.171248306064513],[2.0995405556521973,72.188689333346133],[2.0857244437281679,72.206106805584682],[2.0715748892697547,72.223500221857819],[2.0570914174350037,72.240868972425176],[2.0422735003218122,72.258212499707156],[2.027120722443442,72.275530193963334],[2.0116326386354331,72.292821500312073],[1.9958088064313415,72.310085833294636],[1.9796487779687482,72.327322638928706],[1.9631521674386363,72.344531305675275],[1.9463185827364669,72.361711249874361],[1.9291476110734607,72.378861916644212],[1.9116388612445121,72.39598269444582],[1.8993190278508791,72.407895917362737],[1.8975986112869236,72.409556750243894],[1.8796963064394276,72.426643028253181],[1.8731527780782926,72.432766666748307],[1.8614552782385658,72.443698194216324],[1.8428751390764546,72.460721667171242],[1.8239556389416407,72.477712832880968],[1.8046963893269776,72.494671111282798],[1.7850971672005471,72.51159594389776],[1.7651576667929589,72.528486749763772],[1.7448776111128836,72.545342888563539],[1.7242567222699563,72.562163833294335],[1.7032948329901956,72.57894894363892],[1.681991639302737,72.595697667413503],[1.6603470000140987,72.612409388582478],[1.6383606669112964,72.629083527982459],[1.6160324718211427,72.645719500154883],[1.5933622780467545,72.662316722338915],[1.5703498886364855,72.678874556016012],[1.5469952217521268,72.695392472384754],[1.5232981110190735,72.711869832926482],[1.4992584719009869,72.728306082759559],[1.4748762216603382,72.744700611244298],[1.4501512775594847,72.761052805942313],[1.4250835829410562,72.777362111072648],[1.3996731108254608,72.793627916894877],[1.3739198333336731,72.809849610970844],[1.3478237216874618,72.826026611439033],[1.321384805564378,72.842158332840825],[1.294603138923776,72.858244194214251],[1.2674787217656558,72.874283556141279],[1.2400116107472741,72.890275888921167],[1.2122019173846184,72.906220527955043],[1.1840497495963405,72.922116944441484],[1.1555551667375994,72.937964499861835],[1.1267183333844173,72.953762610556112],[1.0975394168106618,72.969510693763539],[1.068018556411289,72.985208166723567],[1.0621270284396473,72.988317221962291],[1.0329011105978338,73.003626167113964],[1.0026938894114892,73.019220888932921],[0.9721453062609271,73.034763166786774],[0.94125555629892688,73.05025247187416],[0.91002494439572956,73.065688193555332],[0.87845372236142794,73.081069722090035],[0.84654222204596863,73.096396499898617],[0.81429072223909316,73.111667889361684],[0.78169958266965978,73.126883332899524],[0.74876919364339756,73.142042221671261],[0.71549988880889259,73.157143999895709],[0.68189205577380108,73.172188028155006],[0.64794616668228855,73.187173777647786],[0.61366263881978966,73.20210058287563],[0.57904194433029943,73.216967943815632],[0.54408452837833465,73.231775194069996],[0.50879091706724466,73.246521805736791],[0.47316161131936951,73.261207167277007],[0.43719719389542888,73.275830694131287],[0.40089819359678813,73.290391806236926],[0.36426522196245514,73.304889944215631],[0.32729888873279833,73.319324472246649],[0.28999980634603162,73.33369486062935],[0.25236861062290927,73.348000499623424],[0.21440602821570565,73.362240805568774],[0.1761126940456279,73.376415249664092],[0.13748936084539309,73.39052319429004],[0.098536749871129814,73.404564082766285],[0.059255639036564389,73.418537361110396],[0.019646806255138927,73.432442443863749],[-0.020288943579828356,73.446278777943292],[-0.060550777696164459,73.460045722132406],[-0.1011378606237372,73.473742806085681],[-0.1420492777519371,73.487369388586444],[-0.18328416663092639,73.500924916551696],[-0.22484161085162668,73.514408833301047],[-0.26672063914611499,73.52782058305354],[-0.30892027844805625,73.541159610927366],[-0.35143958267053677,73.5544253332626],[-0.39427749960685787,73.567617194278171],[-0.43743300043257705,73.580734639092384],[-0.48090499966593825,73.593777138903874],[-0.52469244420086625,73.606744083073011],[-0.56879422157601311,73.619634971576716],[-0.6132091941489648,73.632449221654326],[-0.65793619370032275,73.64518630630306],[-0.70297405560813786,73.657845667043944],[-0.74832152801604934,73.670426749894659],[-0.79397744360409206,73.682929027852424],[-0.83994052803291197,73.695351972115873],[-0.88620947188957189,73.707695027803368],[-0.93278299993545488,73.719957639133781],[-0.97965980635495953,73.73213930608415],[-1.0268384720178005,73.744239471974083],[-1.0743176668268006,73.7562576385792],[-1.1220960004300196,73.768193222239461],[-1.1701720276169567,73.780045777790463],[-1.2185442779959885,73.791814693693198],[-1.2672113063566712,73.803499528380598],[-1.3161716108311339,73.81509969369597],[-1.3654236670685123,73.826614749870885],[-1.4149658886647671,73.838044111446663],[-1.4647967503697146,73.849387306279198],[-1.5149146387994961,73.860643833446204],[-1.5653179171880538,73.87181316684422],[-1.6160049442727313,73.882894833429873],[-1.6669740284286263,73.893888278321469],[-1.7182235283930822,73.904793083334198],[-1.7697516392267403,73.915608693586421],[-1.8215566935865013,73.926334638732669],[-1.8736368613519971,73.936970416951226],[-1.9259903888453209,73.947515583077745],[-1.9786154171677026,73.957969611008821],[-2.0315101108029125,73.968332027700967],[-2.0846726108522375,73.978602416768183],[-2.1381009999611251,73.988780222429398],[-2.1917933886539345,73.998865028298496],[-2.245747805616702,74.00885636133205],[-2.2999623056158498,74.018753750285384],[-2.3544348606802146,74.028556749994095],[-2.4091635003951524,74.038264889213337],[-2.4641461392328665,74.047877721879445],[-2.519380722242488,74.057394777646948],[-2.5748651935737712,74.066815667109381],[-2.6305974173369009,74.076139917223486],[-2.6865752216691021,74.085367082824689],[-2.7427965003581676,74.094496722345923],[-2.7992590275820248,74.103528443682762],[-2.8559606107934883,74.11246180616746],[-2.9128990277678781,74.121296361038276],[-2.9700720284013187,74.130031721586761],[-3.0274773059328481,74.138667472326063],[-3.0851125562994071,74.147203167192458],[-3.1429754997195118,74.155638443759244],[-3.2010637502917803,74.163972861358502],[-3.2593749436986172,74.172206055764946],[-3.3179066670589918,74.180337639370634],[-3.3766565560551953,74.188367167011222],[-3.4356221672292122,74.196294305937499],[-3.4948009995664506,74.204118666743113],[-3.5541905826292464,74.211839833041893],[-3.6137884441812957,74.219457472084741],[-3.6735920283493897,74.226971222344105],[-3.7335988062398542,74.234380694413574],[-3.793806221979537,74.241685527665027],[-3.8542116666350807,74.248885389349311],[-3.9148125276759629,74.25597991703961],[-3.9756061673906515,74.262968750107802],[-4.0365900002282729,74.269851582784383],[-4.0977612778606272,74.276628056239872],[-4.1591173328985747,74.283297806248811],[-4.2206554997514445,74.28986058279969],[-4.2823730004135996,74.29631600008338],[-4.3442671108384729,74.302663778410704],[-4.4063350278391908,74.308903556254165],[-4.4685740282687334,74.315035082702934],[-4.5309812495849542,74.321058027705874],[-4.5935538886010363,74.326972110674433],[-4.6562891106538586,74.332776999758778],[-4.7191840558994045,74.338472471927105],[-4.7822358608962077,74.344058166551179],[-4.8454415830625521,74.349533860599252],[-4.9087983607557248,74.354899277979371],[-4.9723032783735448,74.360154139002361],[-5.0076944436436293,74.363027777809748]]},"properties":{"FID":1,"OBJTYPE":"GrenseSjø","NAVN":"200 nautiske mil ved Jan Mayen"}},{"type":"Feature","id":2,"geometry":{"type":"MultiLineString","coordinates":[[[10.291959889337477,72.173089527659613],[10.261492139051029,72.18252961135255],[10.220543861410135,72.19534197195452],[10.179764971975942,72.208213249841663],[10.139156611088765,72.221143221982175],[10.109821388746127,72.230554443732672],[9.8559077780215603,72.311738916717673],[9.8152316388291183,72.324715889226979],[9.7747285831576392,72.337751028087553],[9.7343997783271448,72.350844083287882],[9.6942463610807295,72.363994805715777],[9.6542694717587665,72.377202916581382],[9.614470277681221,72.390468166772507],[9.5748499443694755,72.403790278398674],[9.535409583385615,72.417169028427963],[9.4961503611502849,72.430604111090929],[9.4570734440842443,72.444095278174586],[9.4181800282857466,72.457642249989874],[9.3794712217195411,72.471244778323921],[9.3409482501616594,72.484902555608528],[9.3026122215767941,72.498615332731504],[9.2644643608416004,72.512382832701633],[9.2265058055984923,72.526204806406724],[9.1887377501470837,72.540080916601084],[9.1511613887871022,72.554010916870368],[9.1137778888385697,72.567994528424776],[9.0765884437017803,72.582031471575192],[9.0395942215960758,72.596121444149389],[9.0027964438008894,72.610264194337162],[8.9661962776361293,72.624459389389358],[8.9297949443812286,72.638706749616858],[8.8935936392351209,72.653005999827087],[8.8575935555981573,72.667356833351221],[8.821795888669385,72.681759000177749],[8.7862018606273864,72.696212138779231],[8.7508126936509143,72.710715972164451],[8.7156295829389592,72.725270222442873],[8.6806537218918152,72.739874582945674],[8.6458863605671468,72.754528749702104],[8.615251139428608,72.767556471853766],[8.5249280004269394,72.806022222247805],[8.4904051944442358,72.820753556231693],[8.4560943613657287,72.835533916756901],[8.4219967503498196,72.850362971973652],[8.3881136105547398,72.865240389132737],[8.3544461389781759,72.880165889444299],[8.3209956108588017,72.895139139259925],[8.2877632222949273,72.910159860689078],[8.2547502782028346,72.92522766702325],[8.2219579719828744,72.940342305553031],[8.1893875833703191,72.955503444428473],[8.1570403327452254,72.970710722122192],[8.1249174998428089,72.985963860743652],[8.0930203329220944,73.001262499664676],[8.0613501108190349,73.016606333115817],[8.0299080557122693,73.031995028347922],[7.9986954716187597,73.047428277792847],[7.9677136112941866,73.062905693842765],[7.9369637220981417,73.078427000405782],[7.9064470828666344,73.093991833256553],[7.876165000314586,73.10959983266622],[7.8461186939226195,73.125250721643567],[7.8163095000834346,73.140944110782129],[7.7867386940355345,73.15667966733281],[7.7574074997563685,73.172457055848497],[7.7283172779200981,73.188275916600332],[7.6994692776850684,73.204135943818812],[7.6708647778872319,73.220036722017142],[7.6425051113218956,73.235977943627233],[7.6143915559256357,73.251959249819606],[7.5865253887357653,73.267980278167386],[7.5589079173665255,73.28404069412278],[7.5315404719153207,73.300140110977395],[7.5044243330166296,73.316278167203734],[7.4775608055867337,73.332454528253948],[7.4509511936427089,73.348668805620946],[7.4245968326777074,73.364920666555577],[7.398499027608068,73.381209721651373],[7.3726590563704235,73.397535583300566],[7.3470782778402963,73.413897916955364],[7.3217580284103292,73.430296333209242],[7.2966995563394903,73.446730472333513],[7.2719042501810236,73.463199944022278],[7.2473734166499071,73.479704360667768],[7.2231083606623656,73.49624336074254],[7.1991104437919944,73.512816582719154],[7.1753809439754264,73.529423583231846],[7.151921277644874,73.546064027732768],[7.1287326939586819,73.562737527714773],[7.1058165832687337,73.57944366679186],[7.0831742495919912,73.596182083436474],[7.0608070563006322,73.612952389141526],[7.0387163325927418,73.629754138742555],[7.0169034166593747,73.646587000389786],[6.9953696385979924,73.663450555898464],[6.9741163887603648,73.680344388882475],[6.9531449720628871,73.697268110834727],[6.9324567222000155,73.714221306268314],[6.9120530556040762,73.73120358307898],[6.8919352502117022,73.748214556356743],[6.8721046936767038,73.765253778239355],[6.8525627502707493,73.782320861118876],[6.8333107500910728,73.799415388609361],[6.8143500277316207,73.816536944324582],[6.7956819996246054,73.833685110979161],[6.7773079437066599,73.850859500065951],[6.7592293060876614,73.868059639440844],[6.7414473611068502,73.885285166677136],[6.7239635278945684,73.902535611429357],[6.7067791392459526,73.919810556412131],[6.6898955558352782,73.937109583440588],[6.6733141392361972,73.954432277927367],[6.6570362501228715,73.971778221687657],[6.6410632500690099,73.989146917396397],[6.6253965276276858,74.00653799992881],[6.6100374173929595,74.023950999838803],[6.5949872782403531,74.041385499840999],[6.580247471743462,74.058841027791232],[6.5658193891535461,74.0763171673035],[6.5517043605678396,74.093813444434943],[6.537903778136922,74.111329471577903],[6.5244189719580277,74.128864749608567],[6.5112513332824733,74.1464188612415],[6.498402221885101,74.163991361312355],[6.4858730002388256,74.181581749797999],[6.4736650002396345,74.199189611211636],[6.4617796113400345,74.216814500388921],[6.4502181942143579,74.234455917306775],[6.4389820825571178,74.252113443780445],[6.4280726667202543,74.269786583384189],[6.4174913055793468,74.287474889154851],[6.4072393328290218,74.305177888948492],[6.3973181109421375,74.322895139399236],[6.3931716940185197,74.330485166557253],[6.3861896112616137,74.332384221754467],[6.3761499999226317,74.335136111242605],[6.3395542224494648,74.345130138645061],[6.2931000002648716,74.357933943996386],[6.2468282217450906,74.370795472333214],[6.2007401387464824,74.383714471845451],[6.1548370283062468,74.396690667340465],[6.109120110804497,74.40972386096746],[6.063590693855474,74.422813778433181],[6.0182500284161051,74.435960221886774],[5.9730993888258013,74.449162889156071],[5.9441780830521225,74.45767900038561],[5.735665110856246,74.518905305735302],[5.6904778607647017,74.532156528301186],[5.6454835557215688,74.545463527719676],[5.6006834439858153,74.558826000019963],[5.5560788610506506,74.572243722170072],[5.5116711109330936,74.585716472037632],[5.4674614715697203,74.599243943852969],[5.4234512496755087,74.612825944261999],[5.3796417501666838,74.626462166595786],[5.336034332818258,74.640152360842819],[5.2926303061437352,74.653896305769933],[5.2494309723615515,74.667693693808985],[5.2165295828739886,74.678282361042193],[5.1675686668605181,74.690679167409712],[5.1187840557396385,74.703134944122439],[5.0701770283472456,74.71564949962476],[5.0217488329423077,74.728222638763839],[4.9735007222805621,74.740854055770114],[4.9254339716005688,74.753543583369719],[4.8775498606376004,74.766291000329431],[4.8298496394493213,74.779096027859453],[4.791755583353563,74.789399610903388],[4.5610449166895819,74.840235777958867],[4.5086174721187149,74.851771111147912],[4.456350611391656,74.863368193587348],[4.4042455557878384,74.875026805842481],[4.3523035283851641,74.886746750062514],[4.3005257216847781,74.898527805913545],[4.2489133893415101,74.910369806121707],[4.1974677220577519,74.922272499776113],[4.1461900283471778,74.934235722300798],[4.0950814719324171,74.946259249764637],[4.0441433334481189,74.95834288881332],[3.9933768890322767,74.970486389435393],[3.9427833060047988,74.982689555578588],[3.8923639171611057,74.994952166909059],[3.8421199437804034,75.007274056152824],[3.7920526673967174,75.019654943620822],[3.7421633605507054,75.032094638656702],[3.6924532499176053,75.044592917329339],[3.642923694373053,75.057149555707497],[3.593575889116039,75.06976436133624],[3.5444111669418703,75.082437056325148],[3.4954308327667718,75.09516744372263],[3.446636139346424,75.107955305892688],[3.3980284437577097,75.120800417105613],[3.3496089717766608,75.13370252824916],[3.3013791110572015,75.146661389311703],[3.2533401107575628,75.159676833019489],[3.2054933333507165,75.172748556300917],[3.157840055873919,75.185876361305077],[3.1103816668804711,75.199059999819212],[3.0631194443069489,75.212299221831699],[3.0160547497269476,75.225593806109316],[2.9691889438147427,75.23894349994265],[2.9225233332852554,75.252348082997685],[2.8760592779133844,75.265807278283319],[2.829798139272782,75.279320833090026],[2.7837412780376098,75.292888555862248],[2.73789005578152,75.30651013903173],[2.6922458610576996,75.320185361365418],[2.6468100563390635,75.333913944073345],[2.6015839996019281,75.347695666821608],[2.5565691108758415,75.361530277800114],[2.5117667778146142,75.375417472138679],[2.4671783610925218,75.389357027704705],[2.4228052780412099,75.403348666607712],[2.3786489441934577,75.41739216671516],[2.3347107499012623,75.431487222257545],[2.290992138576371,75.445633556243706],[2.2474944996714612,75.459830943843031],[2.2042192496187454,75.474079110762432],[2.161167860608316,75.488377778211941],[2.1183417499718189,75.502726667401816],[2.0757423332421467,75.517125528320548],[2.0333710826094489,75.531574056097895],[1.9912294441835456,75.546071999822971],[1.9493188613764119,75.560619056424343],[1.90764080637814,75.575214972293168],[1.8661967495803538,75.589859472236924],[1.8249881388915696,75.604552221707706],[1.7840164716828895,75.619293000371727],[1.7432832498221842,75.634081499761464],[1.7027898888423465,75.648917443785081],[1.6625379436712251,75.663800499693366],[1.6225288891969285,75.678730416575547],[1.5827642497703778,75.693706917440352],[1.5432455002796814,75.708729666840725],[1.5315507496674172,75.713202277762946],[1.1341821667735985,75.863461139220249],[1.0411919443528177,75.898075889190977],[1.0009646388070905,75.913074944153379],[0.96098630607320956,75.928120000337799],[0.92125850017970379,75.943210805934029],[0.88178277785294767,75.958347028192861],[0.84256066704119803,75.973528361344847],[0.80359374965189545,75.988754556277797],[0.79115341699662167,75.993646221595895],[0.73673022212210526,76.005791805947126],[0.68248572163878407,76.017996222147985],[0.62842138863624086,76.030259221985546],[0.57453850015173202,76.042580583327322],[0.55870250012031875,76.046220833025075],[0.016582556140122051,76.169289777900985],[-0.27991838892245369,76.2351863894404],[-0.33503588919489857,76.247393944275188],[-0.38997186131229,76.259659860614136],[-0.44472500035845997,76.271983917224077],[-0.4992939168807311,76.284365944133071],[-0.55367727808385325,76.296805694027626],[-0.6078737223943449,76.309302999633758],[-0.66188191701678534,76.32185763881904],[-0.7157005003777499,76.334469360672529],[-0.76932802816594403,76.347137999718996],[-0.82276322244473477,76.359863332926523],[-0.87600461102391591,76.372645139062001],[-0.92905086110829416,76.385483167214431],[-0.98190058324524898,76.398377250110059],[-1.0345523331235995,76.411327167414925],[-1.0870047221901018,76.424332667318822],[-1.1392563609921922,76.43739352768921],[-1.1913058061180095,76.450509528192242],[-1.2431516393366451,76.46368047187633],[-1.2947924172362377,76.476906111427979],[-1.3462267503641669,76.490186194137607],[-1.39745316742966,76.503520528449712],[-1.4484701944438712,76.516908888634362],[-1.4992764167731707,76.530351000398412],[-1.5498703613280895,76.543846638911305],[-1.6002505559183646,76.557395582939876],[-1.6504155562328719,76.570997611250789],[-1.7003638334241487,76.58465244415504],[-1.7500939440802199,76.598359889197582],[-1.7996043890312876,76.612119638810327],[-1.8488936394298889,76.625931528417368],[-1.8979602221864411,76.639795278329473],[-1.9468026390305226,76.653710610656219],[-1.9954193332355885,76.667677332942617],[-2.0438088056318406,76.681695139419219],[-2.0919695282710791,76.695763833134436],[-2.1398999723058409,76.709883138895805],[-2.1875985558286288,76.724052805792383],[-2.2350637499920367,76.738272582913453],[-2.2822940277471275,76.752542194167006],[-2.3292877784081725,76.766861388642212],[-2.376043472228389,76.781229944206643],[-2.4225595281995993,76.795647528110976],[-2.4688343059584099,76.810113944303168],[-2.514866306334909,76.824628888812242],[-2.5606538610867915,76.839192138606393],[-2.6061953892058227,76.853803360936411],[-2.6514892782075776,76.868462332770491],[-2.6965339174063274,76.883168778016739],[-2.7413276673379414,76.897922443965683],[-2.785868917316634,76.912722999666755],[-2.7897166666907651,76.91400555611159]],[[7.9279609166630394,83.713456555875439],[7.9884166666958549,83.718313888675084],[8.0830610832024945,83.725820667389939],[8.2164310003904006,83.736240750410389],[8.3507543059665181,83.746548139385197],[8.4860252496656017,83.756741971864585],[8.6222378887675859,83.766821416874961],[8.7593861105805786,83.776785611067169],[8.8974635002404057,83.786633721668977],[9.0364634998906581,83.796364916807534],[9.1763793610187463,83.805978333133623],[9.3172041111808426,83.815473166653362],[9.4589305279215523,83.824848582795937],[9.6015512224110466,83.83410377756735],[9.7450586106663764,83.843237917296108],[9.8894448613912687,83.852250222270015],[10.034701943639845,83.861139889394451],[10.180821610628868,83.869906138957219],[10.327795388946072,83.878548166964379],[10.475614666683555,83.887065193703791],[10.624270527962551,83.895456443959802],[10.773753916610019,83.903721193778154],[10.924055500361078,83.91185866704393],[11.075165805757365,83.919868111024584],[11.227075083248565,83.927748778383489],[11.379773443889349,83.935499944267065],[11.533250693864488,83.94312088921771],[11.687496555721509,83.950610944139839],[11.842500416561052,83.957969332918424],[11.998251583443846,83.965195389155951],[12.154739027983794,83.972288443756725],[12.311951639056929,83.979247806041485],[12.469877999769949,83.986072806015216],[12.628506582612772,83.992762806058693],[12.787825610963239,83.999317166753883],[12.947823139126626,84.005735221703162],[13.108486972295964,84.012016361166218],[13.269804778068078,84.018159971805289],[13.431764027987526,84.024165443880179],[13.5943519723657,84.03003219373079],[13.757555722118923,84.035759667374805],[13.921362139051553,84.04134724967588],[14.08575800043144,84.046794444208274],[14.25072980563607,84.052100639433036],[14.416263944325635,84.05726536140736],[14.582346638886349,84.06228805614893],[14.748963860793594,84.067168221836027],[14.9161015563418,84.071905389022561],[15.08374533278095,84.076499028007788],[15.251880833333814,84.080948750284676],[15.420493389158651,84.085254027951066],[15.589568278353397,84.089414443721637],[15.759090555984415,84.093429610887881],[15.929045222259276,84.097299056406371],[16.099417083131925,84.101022416951025],[16.270190806060896,84.104599305813394],[16.441350972169687,84.108029332687636],[16.612881971925503,84.111312166623236],[16.78476813913835,84.114447444294171],[16.956993667323957,84.117434860830201],[17.129542639381327,84.12027408258291],[17.302399027593083,84.122964832561024],[17.475546693625063,84.125506805894418],[17.648969417304841,84.12789974987362],[17.822650917306021,84.130143444164673],[17.996574778303398,84.13223758299813],[18.170724528314395,84.134182027878353],[18.345083582941072,84.135976500015545],[18.519635361382882,84.137620833035101],[18.694363138947779,84.139114889340703],[18.869250193641562,84.140458444101967],[19.044279693752912,84.141651417279149],[19.219434832751404,84.142693666779337],[19.394698694389263,84.143585055905646],[19.570054389398592,84.144325500121795],[19.745484889116369,84.144914943669789],[19.920973250315285,84.145353305610627],[20.096502472211398,84.14564052838773],[20.272055555819293,84.14577661110178],[20.447615416718179,84.145761499793423],[20.621202166846558,84.145597916710528],[20.633766971968214,84.145580611056403],[20.809288555922194,84.145261000095161],[20.984765610844306,84.144790249970129],[21.160181194406618,84.144168472197293],[21.335518277946221,84.143395666776655],[21.510759944316021,84.142471944324825],[21.685889278167679,84.141397417257053],[21.860889360555575,84.140172167411663],[22.035743360667595,84.138796333284233],[22.210434527731309,84.137270083047952],[22.384946083095315,84.135593556097774],[22.559261361422728,84.133766943989315],[22.733363778315777,84.131790416694457],[22.907236750275842,84.129664222425959],[23.080863861078399,84.127388556336882],[23.254228722377661,84.12496363876096],[23.427315027666452,84.1223897502868],[23.600106582852561,84.11966719398589],[23.772587278380229,84.116796193789355],[23.944741110813652,84.113777056366132],[24.116552193628877,84.110610138746949],[24.28800475001924,84.107295750298704],[24.459083083217763,84.103834221971852],[24.629771694308317,84.100225944072122],[24.800055139233336,84.096471250248044],[24.969918139410652,84.092570555986413],[25.139345527773912,84.088524249794375],[25.308322306329444,84.084332749856571],[25.476833583203359,84.079996500438199],[25.64486463919178,84.075515917025996],[25.812400916968784,84.070891471764071],[25.979428000401924,84.066123638595116],[26.145931583076162,84.061212888763862],[26.311897611285758,84.056159722293387],[26.477312139243907,84.050964667085793],[26.642161417215675,84.045628194385699],[26.806431806083026,84.040150916631546],[26.970109943718967,84.034533305967329],[27.133182556130123,84.028775944254505],[27.295636611240695,84.022879416951582],[27.457459193886734,84.016844305920017],[27.618637666794939,84.010671166940881],[27.77915949971117,84.004360667311005],[27.9390123890106,83.997913361012877],[28.098184221724523,83.991329917142025],[28.256663082735145,83.984610916660529],[28.414437222399954,83.977757082623327],[28.571495139289311,83.970769028368011],[28.727825528025733,83.963647416694982],[28.883417221727427,83.956392943679475],[29.038259333201722,83.949006306296042],[29.192341138932477,83.941488167345085],[29.345652139334788,83.933839249881544],[29.453942417108919,83.928333971735469],[29.618979306250026,83.924367417422445],[29.783592111087103,83.920256833086455],[29.947766639418944,83.916002666589861],[30.111488806063619,83.91160530643981],[30.274744667032792,83.907065222082394],[30.43752041683382,83.902382861380033],[30.599802444227464,83.897558638920088],[30.761577193732535,83.892593111383064],[30.92283136077873,83.887486694255585],[31.083551693855611,83.882239917238451],[31.243725222041405,83.876853306435009],[31.403338971716209,83.871327360969019],[31.562380305606666,83.865662611440428],[31.720836638600019,83.859859638811315],[31.878695611313447,83.853918971883104],[32.035944972282721,83.84784119431572],[32.192572721853708,83.841626916748851],[32.348566971888317,83.835276667084599],[32.503916083360593,83.828791082942189],[32.658608499982336,83.822170777659323],[32.81263291727538,83.81541638885534],[32.965978222317176,83.808528528069189],[33.11863341729844,83.801507832920208],[33.270587777803769,83.794354971604719],[33.421830722409936,83.787070611419665],[33.572351833370476,83.779655416963976],[33.722140943849524,83.772110083413679],[33.871188028204983,83.764435278065662],[34.019483278430585,83.756631694297312],[34.167017111350674,83.748700083042479],[34.278533670092827,83.742582139953868]],[[36.999999999900126,74.937705555866785],[36.763667306001423,74.853496722196041],[36.536354722292629,74.771364138943909],[36.496314722146735,74.756863944215695],[36.456052306169056,74.742413555741052],[36.415568888993107,74.72801324961182],[36.374865806112098,74.713663306416493],[36.333944417301097,74.699364028327295],[36.292806138992148,74.685115639275409],[36.251452305779367,74.67091847200993],[36.209884249558513,74.656772778341121],[36.168103360681584,74.642678832562126],[36.126110944064862,74.628636917060135],[36.083908361281885,74.614647278249322],[36.041496972107609,74.60071019402028],[35.998878056277306,74.586825917082479],[35.956052999646261,74.572994749608085],[35.913023110728034,74.559216917326921],[35.869789666559939,74.545492722411268],[35.826354055695163,74.531822360913281],[35.782717556070395,74.518206167380754],[35.738881471702598,74.504644361248324],[35.694847111105332,74.491137167346437],[35.650615750416591,74.477684888746694],[35.60618875031065,74.464287778158507],[35.561567332966092,74.450946055915779],[35.51675283297692,74.437659972030133],[35.471746528279709,74.424429806190687],[35.426549667133486,74.411255777831911],[35.381163583232819,74.398138138764125],[35.335589471776757,74.385077138998838],[35.289828667359188,74.372073027648185],[35.243882417339762,74.359125999865057],[35.197751943897117,74.346236361419017],[35.151438556444305,74.333404277785235],[35.104943471763875,74.320630055632591],[35.058267944410147,74.30791388921466],[35.011413249621796,74.295255999764606],[34.964380582597869,74.282656666971661],[34.917171194295236,74.270116056310997],[34.869786332972922,74.257634443874565],[34.822227221708943,74.245212056291393],[34.774495082681995,74.23284908331857],[34.726591111090954,74.220545777665563],[34.678516583073929,74.20830236056554],[34.630272666850146,74.196119055949737],[34.58186058279972,74.183996056273031],[34.533281555799192,74.17193361064767],[34.484536749571362,74.159931916924506],[34.435627416871853,74.147991222417033],[34.386554694443646,74.136111694399233],[34.337319833243782,74.124293555902966],[34.287923971813882,74.112537028161398],[34.238368306252369,74.100842333307071],[34.188654056039923,74.089209667392311],[34.138782332738515,74.077639221972561],[34.088754361224858,74.066131221878436],[34.038571306120957,74.054685889242478],[33.988234332948139,74.04330336076157],[33.937744582946209,74.031983889145238],[33.887103250414725,74.020727693828064],[33.836311472096838,74.009534916902965],[33.785370389232128,73.998405777804464],[33.734281167342033,73.987340471685457],[33.706594193667172,73.981398944106047]]]},"properties":{"FID":2,"OBJTYPE":"GrenseSjø","NAVN":"200 nautiske mil ved Svalbard"}}]}